{
  "type": "Feature",
  "properties": {"circuito": "chicagoland", "trazado": "Óvalo", "fuente": "OpenStreetMap ways 33119599 (© OpenStreetMap contributors, ODbL)"},
  "geometry": {
    "type": "LineString",
    "coordinates": [
      [-88.0588680, 41.4722524],
      [-88.0579325, 41.4718150],
      [-88.0560184, 41.4711398],
      [-88.0551344, 41.4710047],
      [-88.0542761, 41.4710690],
      [-88.0535208, 41.4713005],
      [-88.0528599, 41.4717314],
      [-88.0524393, 41.4722717],
      [-88.0522161, 41.4729148],
      [-88.0522676, 41.4735707],
      [-88.0526882, 41.4744325],
      [-88.0535036, 41.4754292],
      [-88.0545421, 41.4765546],
      [-88.0553404, 41.4772813],
      [-88.0561128, 41.4779308],
      [-88.0569130, 41.4783754],
      [-88.0578380, 41.4786317],
      [-88.0586792, 41.4786703],
      [-88.0594002, 41.4785224],
      [-88.0600353, 41.4782587],
      [-88.0606275, 41.4778407],
      [-88.0610481, 41.4772041],
      [-88.0611683, 41.4766125],
      [-88.0609451, 41.4749919],
      [-88.0606962, 41.4742588],
      [-88.0603100, 41.4735643],
      [-88.0596577, 41.4728633]
    ]
  }
}
