{
  "type": "Feature",
  "properties": {"circuito": "le_mans", "trazado": "Completo", "fuente": "OpenStreetMap relación 2126739, ways 25245509,34405868,34405892,34405893,34405909,121230938,158840027,158840033,158840041,159588880,159588882,226901626,226901631,226901635,226901639,226901643,226901647,226901650,231829814,231829816,255699444,256130500,256130501,257319131,258242164,624045670,624045671,773623626,773623627,773623628,773623629,1011729891,1011729892,1011729893,1101935455,1101935457,1358131505,1494893860,1505387925,1505387926,1505387929,1505387930,1505387934,1505387935 (© OpenStreetMap contributors, ODbL)"},
  "geometry": {
    "type": "LineString",
    "coordinates": [
      [0.2075404, 47.9498718],
      [0.2077164, 47.9529642],
      [0.2078759, 47.9536546],
      [0.2081687, 47.9544572],
      [0.2086052, 47.9552277],
      [0.2087638, 47.9554103],
      [0.2089720, 47.9555891],
      [0.2093975, 47.9558230],
      [0.2109034, 47.9564400],
      [0.2110013, 47.9564982],
      [0.2110436, 47.9566241],
      [0.2109233, 47.9570197],
      [0.2109599, 47.9571038],
      [0.2110362, 47.9571699],
      [0.2129969, 47.9580246],
      [0.2132896, 47.9582243],
      [0.2138920, 47.9587894],
      [0.2141415, 47.9589504],
      [0.2143303, 47.9590377],
      [0.2148272, 47.9591918],
      [0.2151685, 47.9592624],
      [0.2167286, 47.9593246],
      [0.2169488, 47.9593541],
      [0.2171124, 47.9594087],
      [0.2173310, 47.9595307],
      [0.2175168, 47.9597275],
      [0.2176093, 47.9599165],
      [0.2176240, 47.9602155],
      [0.2176699, 47.9603846],
      [0.2177977, 47.9605959],
      [0.2179750, 47.9607271],
      [0.2187784, 47.9611425],
      [0.2191357, 47.9612933],
      [0.2196440, 47.9614537],
      [0.2211776, 47.9618414],
      [0.2214309, 47.9618722],
      [0.2216998, 47.9618231],
      [0.2223014, 47.9615962],
      [0.2231141, 47.9612406],
      [0.2235588, 47.9610149],
      [0.2241132, 47.9606648],
      [0.2246919, 47.9601884],
      [0.2268118, 47.9579330],
      [0.2271909, 47.9574614],
      [0.2275149, 47.9569696],
      [0.2332311, 47.9451051],
      [0.2332533, 47.9449504],
      [0.2332296, 47.9448592],
      [0.2329192, 47.9445130],
      [0.2328975, 47.9443812],
      [0.2329309, 47.9442424],
      [0.2330501, 47.9441137],
      [0.2338589, 47.9436168],
      [0.2339771, 47.9434914],
      [0.2341138, 47.9432732],
      [0.2412308, 47.9284765],
      [0.2413033, 47.9284048],
      [0.2415174, 47.9282954],
      [0.2420419, 47.9281511],
      [0.2422000, 47.9280302],
      [0.2422536, 47.9279415],
      [0.2422583, 47.9277435],
      [0.2420357, 47.9271621],
      [0.2420318, 47.9268482],
      [0.2428669, 47.9250738],
      [0.2429688, 47.9247898],
      [0.2430660, 47.9243407],
      [0.2435767, 47.9187062],
      [0.2438741, 47.9149906],
      [0.2438013, 47.9145039],
      [0.2434183, 47.9135689],
      [0.2433736, 47.9134949],
      [0.2433169, 47.9134618],
      [0.2431739, 47.9134284],
      [0.2430499, 47.9134402],
      [0.2337964, 47.9151477],
      [0.2329628, 47.9153931],
      [0.2272134, 47.9173683],
      [0.2266258, 47.9176175],
      [0.2225963, 47.9196170],
      [0.2208583, 47.9205666],
      [0.2205948, 47.9207559],
      [0.2204131, 47.9209799],
      [0.2198520, 47.9221579],
      [0.2197409, 47.9222672],
      [0.2195640, 47.9223409],
      [0.2193477, 47.9223581],
      [0.2191249, 47.9223246],
      [0.2157752, 47.9214544],
      [0.2156314, 47.9214576],
      [0.2155228, 47.9215074],
      [0.2153837, 47.9218212],
      [0.2139097, 47.9260093],
      [0.2136082, 47.9266615],
      [0.2133944, 47.9269838],
      [0.2120577, 47.9287512],
      [0.2109885, 47.9302293],
      [0.2105946, 47.9306537],
      [0.2099065, 47.9312869],
      [0.2095919, 47.9316138],
      [0.2092226, 47.9320658],
      [0.2090281, 47.9323748],
      [0.2089887, 47.9326245],
      [0.2090088, 47.9328918],
      [0.2090582, 47.9330412],
      [0.2091785, 47.9332434],
      [0.2094045, 47.9334901],
      [0.2104279, 47.9342349],
      [0.2106211, 47.9344082],
      [0.2108027, 47.9346702],
      [0.2108956, 47.9350007],
      [0.2107801, 47.9359723],
      [0.2106433, 47.9363808],
      [0.2105356, 47.9365128],
      [0.2103415, 47.9366740],
      [0.2095704, 47.9371308],
      [0.2093030, 47.9373575],
      [0.2090720, 47.9376705],
      [0.2089906, 47.9380301],
      [0.2090325, 47.9383907],
      [0.2092093, 47.9387087],
      [0.2095461, 47.9390165],
      [0.2102717, 47.9394584],
      [0.2104520, 47.9396613],
      [0.2105658, 47.9399211],
      [0.2105509, 47.9402666],
      [0.2102136, 47.9418694],
      [0.2102305, 47.9421033],
      [0.2103578, 47.9426911],
      [0.2103681, 47.9429485],
      [0.2101390, 47.9436107],
      [0.2088144, 47.9468500],
      [0.2086615, 47.9469999],
      [0.2083473, 47.9471034],
      [0.2082040, 47.9472007],
      [0.2081143, 47.9473570],
      [0.2079149, 47.9480452],
      [0.2078016, 47.9481322],
      [0.2075467, 47.9481934],
      [0.2074640, 47.9482685],
      [0.2075171, 47.9493358]
    ]
  }
}
