{
  "type": "Feature",
  "properties": {"circuito": "queretaro", "trazado": "Completo", "fuente": "OpenStreetMap way 320332076 (© OpenStreetMap contributors, ODbL)"},
  "geometry": {
    "type": "LineString",
    "coordinates": [
      [-100.3283203, 20.5856289],
      [-100.3263764, 20.5857499],
      [-100.3260597, 20.5857950],
      [-100.3257798, 20.5859305],
      [-100.3255996, 20.5861367],
      [-100.3254861, 20.5863706],
      [-100.3254546, 20.5865252],
      [-100.3254584, 20.5866930],
      [-100.3255560, 20.5869758],
      [-100.3257348, 20.5872084],
      [-100.3259660, 20.5873687],
      [-100.3261653, 20.5874428],
      [-100.3263392, 20.5874756],
      [-100.3314449, 20.5872203],
      [-100.3315856, 20.5871287],
      [-100.3316336, 20.5869824],
      [-100.3316148, 20.5868312],
      [-100.3315430, 20.5867264],
      [-100.3313783, 20.5866685],
      [-100.3312616, 20.5865946],
      [-100.3311543, 20.5864421],
      [-100.3311302, 20.5862926],
      [-100.3311441, 20.5861960],
      [-100.3312005, 20.5860994],
      [-100.3313412, 20.5859963],
      [-100.3323574, 20.5855864],
      [-100.3324631, 20.5854905],
      [-100.3326068, 20.5852605],
      [-100.3328144, 20.5847734],
      [-100.3328854, 20.5844822],
      [-100.3329341, 20.5838246],
      [-100.3328723, 20.5836284],
      [-100.3327577, 20.5835152],
      [-100.3326752, 20.5834758],
      [-100.3325360, 20.5834431],
      [-100.3324113, 20.5834438],
      [-100.3321386, 20.5836003],
      [-100.3315919, 20.5840091],
      [-100.3315089, 20.5841107],
      [-100.3314988, 20.5842319],
      [-100.3315438, 20.5843370],
      [-100.3316948, 20.5844292],
      [-100.3319895, 20.5845062],
      [-100.3320744, 20.5845882],
      [-100.3320667, 20.5847040],
      [-100.3319933, 20.5847788],
      [-100.3318513, 20.5848353],
      [-100.3317496, 20.5849583],
      [-100.3316671, 20.5852273],
      [-100.3315858, 20.5853229],
      [-100.3314608, 20.5853840],
      [-100.3311286, 20.5854456],
      [-100.3296163, 20.5855482]
    ]
  }
}
