{
  "type": "Feature",
  "properties": {"circuito": "queretaro", "trazado": "Óvalo", "fuente": "OpenStreetMap ways 320332076+320332077 (© OpenStreetMap contributors, ODbL)"},
  "geometry": {
    "type": "LineString",
    "coordinates": [
      [-100.3283203, 20.5856289],
      [-100.3263764, 20.5857499],
      [-100.3260597, 20.5857950],
      [-100.3259021, 20.5858628],
      [-100.3257798, 20.5859305],
      [-100.3256897, 20.5860237],
      [-100.3255996, 20.5861367],
      [-100.3254861, 20.5863706],
      [-100.3254546, 20.5865252],
      [-100.3254584, 20.5866930],
      [-100.3255560, 20.5869758],
      [-100.3257348, 20.5872084],
      [-100.3259660, 20.5873687],
      [-100.3261653, 20.5874428],
      [-100.3263392, 20.5874756],
      [-100.3298059, 20.5873091],
      [-100.3300981, 20.5872076],
      [-100.3303287, 20.5870904],
      [-100.3304865, 20.5869563],
      [-100.3306067, 20.5867413],
      [-100.3306506, 20.5865448],
      [-100.3306506, 20.5862591],
      [-100.3306038, 20.5861267],
      [-100.3305286, 20.5860076],
      [-100.3303360, 20.5858148],
      [-100.3301104, 20.5856891],
      [-100.3298899, 20.5855974],
      [-100.3296163, 20.5855482]
    ]
  }
}
