{
  "type": "Feature",
  "properties": {"circuito": "indianapolis", "trazado": "Mixto", "fuente": "OpenStreetMap ways 297115178,588780271,588780307,992135043,1213055864,1213055866 (© OpenStreetMap contributors, ODbL)"},
  "geometry": {
    "type": "LineString",
    "coordinates": [
      [-86.2388466, 39.7931571],
      [-86.2389277, 39.7989675],
      [-86.2388966, 39.7990540],
      [-86.2387818, 39.7991171],
      [-86.2380510, 39.7991427],
      [-86.2379371, 39.7991759],
      [-86.2377818, 39.7992705],
      [-86.2376903, 39.7993784],
      [-86.2376628, 39.7994657],
      [-86.2377008, 39.7999913],
      [-86.2376721, 39.8002111],
      [-86.2375718, 39.8004488],
      [-86.2374379, 39.8006319],
      [-86.2372186, 39.8008196],
      [-86.2369832, 39.8009491],
      [-86.2362355, 39.8012180],
      [-86.2360914, 39.8012351],
      [-86.2359917, 39.8012224],
      [-86.2357277, 39.8011014],
      [-86.2356004, 39.8009907],
      [-86.2355114, 39.8008666],
      [-86.2354569, 39.8006402],
      [-86.2354434, 39.7997837],
      [-86.2354192, 39.7996219],
      [-86.2353638, 39.7995110],
      [-86.2352683, 39.7994372],
      [-86.2350739, 39.7993463],
      [-86.2350216, 39.7992560],
      [-86.2349041, 39.7923339],
      [-86.2348853, 39.7922913],
      [-86.2347840, 39.7922215],
      [-86.2335119, 39.7922486],
      [-86.2332512, 39.7921956],
      [-86.2331506, 39.7921497],
      [-86.2330052, 39.7920255],
      [-86.2329174, 39.7918276],
      [-86.2328024, 39.7916691],
      [-86.2327403, 39.7916266],
      [-86.2325334, 39.7915526],
      [-86.2322770, 39.7915395],
      [-86.2314161, 39.7915821],
      [-86.2313015, 39.7915609],
      [-86.2311979, 39.7915009],
      [-86.2310905, 39.7913540],
      [-86.2310095, 39.7911537],
      [-86.2309596, 39.7908335],
      [-86.2312257, 39.7894364],
      [-86.2313416, 39.7891710],
      [-86.2315421, 39.7889115],
      [-86.2318206, 39.7886671],
      [-86.2320433, 39.7885268],
      [-86.2323221, 39.7884090],
      [-86.2326571, 39.7883145],
      [-86.2331825, 39.7882357],
      [-86.2350456, 39.7881631],
      [-86.2352445, 39.7881858],
      [-86.2353230, 39.7882772],
      [-86.2353376, 39.7883620],
      [-86.2352843, 39.7892142],
      [-86.2353303, 39.7893848],
      [-86.2355057, 39.7895672],
      [-86.2356699, 39.7895928],
      [-86.2366945, 39.7892766],
      [-86.2370284, 39.7892167],
      [-86.2372597, 39.7892125],
      [-86.2374769, 39.7892393],
      [-86.2378565, 39.7893609],
      [-86.2380925, 39.7895052],
      [-86.2382910, 39.7896866],
      [-86.2385791, 39.7901249],
      [-86.2387276, 39.7904727],
      [-86.2388108, 39.7909921],
      [-86.2388449, 39.7930691]
    ]
  }
}
