{
  "type": "Feature",
  "properties": {"circuito": "indianapolis", "trazado": "Óvalo", "fuente": "OpenStreetMap ways 51308226,588780332,588780333,588780334,588780335,588780343,588780345,588780347,588780349,588780351 (© OpenStreetMap contributors, ODbL)"},
  "geometry": {
    "type": "LineString",
    "coordinates": [
      [-86.2388570, 39.7931571],
      [-86.2388184, 39.7905799],
      [-86.2387926, 39.7902240],
      [-86.2386817, 39.7897570],
      [-86.2385308, 39.7894470],
      [-86.2382709, 39.7891218],
      [-86.2381193, 39.7889686],
      [-86.2377910, 39.7887025],
      [-86.2374517, 39.7885008],
      [-86.2372349, 39.7883972],
      [-86.2367739, 39.7882347],
      [-86.2365349, 39.7881786],
      [-86.2360296, 39.7881203],
      [-86.2331666, 39.7881386],
      [-86.2328519, 39.7881658],
      [-86.2323526, 39.7882613],
      [-86.2318751, 39.7884313],
      [-86.2316948, 39.7885220],
      [-86.2314109, 39.7886899],
      [-86.2311539, 39.7888784],
      [-86.2309156, 39.7890850],
      [-86.2307707, 39.7892526],
      [-86.2306474, 39.7894073],
      [-86.2304250, 39.7898540],
      [-86.2303543, 39.7900899],
      [-86.2303276, 39.7903426],
      [-86.2304972, 39.7997990],
      [-86.2305654, 39.8001528],
      [-86.2306452, 39.8003547],
      [-86.2307649, 39.8005840],
      [-86.2309195, 39.8007962],
      [-86.2311477, 39.8010425],
      [-86.2314227, 39.8012728],
      [-86.2317213, 39.8014684],
      [-86.2320284, 39.8016293],
      [-86.2325712, 39.8018191],
      [-86.2331821, 39.8019082],
      [-86.2362750, 39.8018903],
      [-86.2366662, 39.8018379],
      [-86.2372648, 39.8016610],
      [-86.2376398, 39.8014966],
      [-86.2380918, 39.8012063],
      [-86.2384065, 39.8009018],
      [-86.2386728, 39.8005461],
      [-86.2388418, 39.8002018],
      [-86.2389350, 39.7998548],
      [-86.2389575, 39.7993289],
      [-86.2389012, 39.7961594]
    ]
  }
}
