{
  "type": "Feature",
  "properties": {"circuito": "iowa", "trazado": "Óvalo", "fuente": "OpenStreetMap ways 119238784 (© OpenStreetMap contributors, ODbL)"},
  "geometry": {
    "type": "LineString",
    "coordinates": [
      [-93.0147762, 41.6737734],
      [-93.0139662, 41.6731163],
      [-93.0136014, 41.6729039],
      [-93.0129523, 41.6726034],
      [-93.0125178, 41.6724712],
      [-93.0122603, 41.6724471],
      [-93.0119277, 41.6724631],
      [-93.0116112, 41.6725152],
      [-93.0113459, 41.6725980],
      [-93.0109568, 41.6728198],
      [-93.0106671, 41.6731003],
      [-93.0105198, 41.6733914],
      [-93.0104876, 41.6735396],
      [-93.0104876, 41.6738321],
      [-93.0105359, 41.6739884],
      [-93.0107207, 41.6743103],
      [-93.0108846, 41.6745173],
      [-93.0128021, 41.6763578],
      [-93.0130894, 41.6765568],
      [-93.0133791, 41.6767090],
      [-93.0136634, 41.6768212],
      [-93.0141247, 41.6768893],
      [-93.0143393, 41.6768893],
      [-93.0148918, 41.6768052],
      [-93.0150766, 41.6767385],
      [-93.0152727, 41.6766329],
      [-93.0154575, 41.6764820],
      [-93.0156238, 41.6762977],
      [-93.0158276, 41.6759411],
      [-93.0158598, 41.6756126],
      [-93.0158437, 41.6754082],
      [-93.0156935, 41.6750075],
      [-93.0155058, 41.6746549],
      [-93.0151464, 41.6741701],
      [-93.0149103, 41.6739016]
    ]
  }
}
