{
  "type": "Feature",
  "properties": {"circuito": "monza", "trazado": "Gran Premio", "fuente": "bacinger/f1-circuits (MIT) it-1922"},
  "geometry": {
    "type": "LineString",
    "coordinates": [
      [9.2812230, 45.6189750],
      [9.2819050, 45.6244490],
      [9.2819280, 45.6245150],
      [9.2819940, 45.6245530],
      [9.2823600, 45.6245530],
      [9.2824670, 45.6246330],
      [9.2824790, 45.6246750],
      [9.2821470, 45.6256040],
      [9.2821000, 45.6258440],
      [9.2820820, 45.6260610],
      [9.2822300, 45.6274470],
      [9.2823370, 45.6278100],
      [9.2825440, 45.6282010],
      [9.2826800, 45.6283990],
      [9.2830880, 45.6288040],
      [9.2833670, 45.6290120],
      [9.2840060, 45.6293650],
      [9.2847750, 45.6296530],
      [9.2856340, 45.6298410],
      [9.2861430, 45.6299030],
      [9.2886940, 45.6300580],
      [9.2913280, 45.6301710],
      [9.2914700, 45.6302470],
      [9.2915520, 45.6304500],
      [9.2916470, 45.6305440],
      [9.2924520, 45.6306660],
      [9.2952990, 45.6313310],
      [9.2955000, 45.6313640],
      [9.2958730, 45.6313400],
      [9.2962460, 45.6311940],
      [9.2964770, 45.6309920],
      [9.2965660, 45.6307610],
      [9.2968560, 45.6286680],
      [9.2968500, 45.6285500],
      [9.2967730, 45.6284080],
      [9.2965540, 45.6282950],
      [9.2930260, 45.6269380],
      [9.2926530, 45.6267870],
      [9.2922330, 45.6265800],
      [9.2919310, 45.6264190],
      [9.2903210, 45.6254480],
      [9.2861190, 45.6228460],
      [9.2858880, 45.6226530],
      [9.2858760, 45.6224880],
      [9.2859300, 45.6220260],
      [9.2858640, 45.6218330],
      [9.2857930, 45.6217060],
      [9.2856750, 45.6215780],
      [9.2855150, 45.6214460],
      [9.2851070, 45.6211960],
      [9.2849940, 45.6209560],
      [9.2847400, 45.6194850],
      [9.2837340, 45.6126790],
      [9.2836920, 45.6124340],
      [9.2835680, 45.6122030],
      [9.2833250, 45.6120230],
      [9.2831420, 45.6119390],
      [9.2829410, 45.6118870],
      [9.2827100, 45.6118580],
      [9.2825140, 45.6118680],
      [9.2821180, 45.6119530],
      [9.2817570, 45.6120940],
      [9.2815730, 45.6121930],
      [9.2813660, 45.6123490],
      [9.2811000, 45.6126410],
      [9.2808930, 45.6130180],
      [9.2808160, 45.6132210],
      [9.2807390, 45.6136590],
      [9.2806970, 45.6151020],
      [9.2807090, 45.6155730],
      [9.2810760, 45.6181420]
    ]
  }
}
