{
  "type": "Feature",
  "properties": {"circuito": "homestead", "trazado": "Óvalo", "fuente": "OpenStreetMap ways 108159182, 1146967009, 1146967010, 1146967011, 1146967012 (© OpenStreetMap contributors, ODbL)"},
  "geometry": {
    "type": "LineString",
    "coordinates": [
      [-80.4097069, 25.4536971],
      [-80.4116925, 25.4528165],
      [-80.4121791, 25.4525517],
      [-80.4126824, 25.4521966],
      [-80.4129590, 25.4519017],
      [-80.4130857, 25.4517181],
      [-80.4131890, 25.4515315],
      [-80.4132590, 25.4513419],
      [-80.4133290, 25.4510590],
      [-80.4133623, 25.4508273],
      [-80.4133223, 25.4504631],
      [-80.4130957, 25.4498883],
      [-80.4129790, 25.4497258],
      [-80.4127024, 25.4494338],
      [-80.4123457, 25.4492141],
      [-80.4119158, 25.4490546],
      [-80.4116292, 25.4489944],
      [-80.4112025, 25.4489643],
      [-80.4108226, 25.4490005],
      [-80.4100527, 25.4492292],
      [-80.4056231, 25.4512606],
      [-80.4051465, 25.4515857],
      [-80.4048832, 25.4518294],
      [-80.4047032, 25.4520311],
      [-80.4044633, 25.4523772],
      [-80.4043533, 25.4526330],
      [-80.4042533, 25.4530513],
      [-80.4042499, 25.4533221],
      [-80.4043066, 25.4535930],
      [-80.4045366, 25.4540715],
      [-80.4046932, 25.4542701],
      [-80.4048499, 25.4544266],
      [-80.4050365, 25.4545650],
      [-80.4052265, 25.4546674],
      [-80.4054565, 25.4547727],
      [-80.4059464, 25.4548780],
      [-80.4063197, 25.4548961],
      [-80.4067030, 25.4548870],
      [-80.4073629, 25.4547366]
    ]
  }
}
