{
  "type": "Feature",
  "properties": {"circuito": "autodromo_yucatan", "trazado": "Completo", "fuente": "OpenStreetMap way 1424004628 (© OpenStreetMap contributors, ODbL); way cerrado sin oneway, en su propio orden, que coincide con el sentido de carrera (hacia el sur en la recta principal, antihorario)"},
  "geometry": {
    "type": "LineString",
    "coordinates": [
      [-89.6251358, 21.1883805],
      [-89.6257633, 21.1852683],
      [-89.6257860, 21.1850858],
      [-89.6257697, 21.1849910],
      [-89.6257331, 21.1848792],
      [-89.6256640, 21.1847712],
      [-89.6255685, 21.1846745],
      [-89.6254892, 21.1846101],
      [-89.6254018, 21.1845665],
      [-89.6252778, 21.1845267],
      [-89.6242452, 21.1843618],
      [-89.6241130, 21.1843542],
      [-89.6239890, 21.1843883],
      [-89.6238630, 21.1844698],
      [-89.6237858, 21.1845816],
      [-89.6237471, 21.1846935],
      [-89.6237532, 21.1848072],
      [-89.6237756, 21.1849038],
      [-89.6238162, 21.1849740],
      [-89.6238874, 21.1850574],
      [-89.6244322, 21.1855596],
      [-89.6244809, 21.1856298],
      [-89.6245460, 21.1857681],
      [-89.6246029, 21.1858894],
      [-89.6246436, 21.1860373],
      [-89.6246761, 21.1862003],
      [-89.6246883, 21.1863652],
      [-89.6246842, 21.1865149],
      [-89.6246436, 21.1867044],
      [-89.6243265, 21.1884879],
      [-89.6242431, 21.1886130],
      [-89.6241029, 21.1887154],
      [-89.6239443, 21.1887324],
      [-89.6237980, 21.1887116],
      [-89.6236638, 21.1886414],
      [-89.6235723, 21.1885391],
      [-89.6235439, 21.1884178],
      [-89.6235540, 21.1882832],
      [-89.6237187, 21.1874265],
      [-89.6237410, 21.1873811],
      [-89.6237939, 21.1873090],
      [-89.6239077, 21.1872408],
      [-89.6239829, 21.1872105],
      [-89.6240602, 21.1871157],
      [-89.6240805, 21.1870228],
      [-89.6240683, 21.1869205],
      [-89.6240094, 21.1868162],
      [-89.6239199, 21.1867310],
      [-89.6238691, 21.1866836],
      [-89.6238345, 21.1866191],
      [-89.6238244, 21.1865338],
      [-89.6238569, 21.1864182],
      [-89.6239260, 21.1863159],
      [-89.6239890, 21.1862723],
      [-89.6240764, 21.1862116],
      [-89.6241395, 21.1860846],
      [-89.6241415, 21.1859823],
      [-89.6240703, 21.1858762],
      [-89.6239606, 21.1858345],
      [-89.6237105, 21.1857871],
      [-89.6236069, 21.1858117],
      [-89.6235174, 21.1858686],
      [-89.6234686, 21.1859482],
      [-89.6234504, 21.1860411],
      [-89.6231475, 21.1877582],
      [-89.6231211, 21.1879231],
      [-89.6231211, 21.1881032],
      [-89.6231271, 21.1882832],
      [-89.6231597, 21.1884803],
      [-89.6231658, 21.1885865],
      [-89.6231454, 21.1888594],
      [-89.6231089, 21.1891153],
      [-89.6229340, 21.1895114],
      [-89.6228202, 21.1897426],
      [-89.6227247, 21.1899094],
      [-89.6226515, 21.1901558],
      [-89.6226210, 21.1904344],
      [-89.6226921, 21.1905936],
      [-89.6228121, 21.1906637],
      [-89.6229727, 21.1906827],
      [-89.6230804, 21.1906599],
      [-89.6231922, 21.1905690],
      [-89.6232471, 21.1904420],
      [-89.6232511, 21.1903624],
      [-89.6232898, 21.1898772],
      [-89.6233528, 21.1897616],
      [-89.6234219, 21.1896630],
      [-89.6235540, 21.1895986],
      [-89.6237105, 21.1895948],
      [-89.6238447, 21.1896213],
      [-89.6239585, 21.1896744],
      [-89.6240561, 21.1897729],
      [-89.6241130, 21.1899189],
      [-89.6241252, 21.1900534],
      [-89.6239951, 21.1911243],
      [-89.6239402, 21.1912190],
      [-89.6238305, 21.1912873],
      [-89.6237146, 21.1913081],
      [-89.6236150, 21.1912816],
      [-89.6235052, 21.1912228],
      [-89.6234138, 21.1911622],
      [-89.6233304, 21.1911262],
      [-89.6232430, 21.1911053],
      [-89.6230336, 21.1911243],
      [-89.6227978, 21.1911849],
      [-89.6225539, 21.1913005],
      [-89.6224238, 21.1914370],
      [-89.6223628, 21.1915886],
      [-89.6223649, 21.1916597],
      [-89.6223750, 21.1917384],
      [-89.6224025, 21.1918255],
      [-89.6224381, 21.1918976],
      [-89.6225133, 21.1919753],
      [-89.6225956, 21.1920255],
      [-89.6227084, 21.1920624],
      [-89.6239721, 21.1921579],
      [-89.6240771, 21.1921425],
      [-89.6241733, 21.1920990],
      [-89.6242878, 21.1920153],
      [-89.6243834, 21.1919108],
      [-89.6244383, 21.1917687]
    ]
  }
}
