{
  "type": "Feature",
  "properties": {"circuito": "monaco", "trazado": "Gran Premio", "fuente": "bacinger/f1-circuits (MIT) mc-1929"},
  "geometry": {
    "type": "LineString",
    "coordinates": [
      [7.4271910, 43.7394040],
      [7.4271710, 43.7394940],
      [7.4271990, 43.7395750],
      [7.4273390, 43.7397640],
      [7.4287030, 43.7410910],
      [7.4288140, 43.7411140],
      [7.4289490, 43.7410860],
      [7.4290430, 43.7410300],
      [7.4291110, 43.7409420],
      [7.4291390, 43.7406940],
      [7.4293810, 43.7404300],
      [7.4294950, 43.7402550],
      [7.4295360, 43.7402160],
      [7.4296010, 43.7402030],
      [7.4296760, 43.7402190],
      [7.4297320, 43.7402610],
      [7.4297490, 43.7403210],
      [7.4293360, 43.7406800],
      [7.4292950, 43.7408020],
      [7.4293470, 43.7408910],
      [7.4300660, 43.7410810],
      [7.4302380, 43.7410900],
      [7.4303290, 43.7410570],
      [7.4303630, 43.7409550],
      [7.4303310, 43.7403590],
      [7.4302040, 43.7397460],
      [7.4300720, 43.7393560],
      [7.4299250, 43.7390780],
      [7.4296730, 43.7387600],
      [7.4293830, 43.7384910],
      [7.4289630, 43.7381600],
      [7.4283620, 43.7378940],
      [7.4273140, 43.7375340],
      [7.4268500, 43.7374180],
      [7.4261650, 43.7373010],
      [7.4254900, 43.7372190],
      [7.4254030, 43.7370280],
      [7.4253040, 43.7370030],
      [7.4251640, 43.7369860],
      [7.4250090, 43.7370500],
      [7.4249240, 43.7370540],
      [7.4222530, 43.7367790],
      [7.4221780, 43.7367230],
      [7.4220600, 43.7365550],
      [7.4218800, 43.7362290],
      [7.4218450, 43.7361130],
      [7.4218080, 43.7359110],
      [7.4218100, 43.7354790],
      [7.4219150, 43.7353630],
      [7.4221740, 43.7352120],
      [7.4222190, 43.7351380],
      [7.4224720, 43.7341250],
      [7.4224680, 43.7340700],
      [7.4224230, 43.7340260],
      [7.4222250, 43.7339410],
      [7.4222020, 43.7338910],
      [7.4222210, 43.7337860],
      [7.4224370, 43.7333670],
      [7.4227220, 43.7330390],
      [7.4229480, 43.7328740],
      [7.4233930, 43.7327120],
      [7.4234400, 43.7326740],
      [7.4234940, 43.7325570],
      [7.4234680, 43.7324950],
      [7.4233840, 43.7324590],
      [7.4228030, 43.7323640],
      [7.4225440, 43.7323750],
      [7.4224200, 43.7324520],
      [7.4223640, 43.7326810],
      [7.4221540, 43.7328680],
      [7.4218800, 43.7331810],
      [7.4217530, 43.7334350],
      [7.4213950, 43.7343700],
      [7.4212710, 43.7349700],
      [7.4212160, 43.7354330],
      [7.4212160, 43.7357350],
      [7.4212690, 43.7362060],
      [7.4214520, 43.7366960],
      [7.4214410, 43.7368950],
      [7.4214750, 43.7369400],
      [7.4215620, 43.7369700],
      [7.4217740, 43.7370070],
      [7.4229030, 43.7371100],
      [7.4241720, 43.7373730],
      [7.4248750, 43.7374390],
      [7.4260260, 43.7378020],
      [7.4271130, 43.7379440],
      [7.4272980, 43.7379910],
      [7.4275230, 43.7380930],
      [7.4277180, 43.7382400],
      [7.4278280, 43.7383640],
      [7.4278770, 43.7384940],
      [7.4278370, 43.7387580],
      [7.4276740, 43.7390330],
      [7.4272570, 43.7392990]
    ]
  }
}
