{
  "type": "Feature",
  "properties": {"circuito": "imola", "trazado": "Gran Premio", "fuente": "bacinger/f1-circuits (MIT) it-1953"},
  "geometry": {
    "type": "LineString",
    "coordinates": [
      [11.7167010, 44.3440560],
      [11.7162910, 44.3440600],
      [11.7137330, 44.3444530],
      [11.7128200, 44.3445220],
      [11.7122880, 44.3445260],
      [11.7096190, 44.3443550],
      [11.7083080, 44.3441330],
      [11.7081450, 44.3440560],
      [11.7080670, 44.3439870],
      [11.7079480, 44.3436240],
      [11.7078770, 44.3435290],
      [11.7077140, 44.3434480],
      [11.7065080, 44.3430090],
      [11.7063280, 44.3428650],
      [11.7043820, 44.3394150],
      [11.7043620, 44.3392110],
      [11.7045680, 44.3386750],
      [11.7045680, 44.3385900],
      [11.7045010, 44.3384860],
      [11.7044260, 44.3384150],
      [11.7021220, 44.3370050],
      [11.7020560, 44.3369240],
      [11.7020320, 44.3368280],
      [11.7020610, 44.3367250],
      [11.7021460, 44.3366020],
      [11.7022560, 44.3365350],
      [11.7023810, 44.3365080],
      [11.7025730, 44.3365100],
      [11.7062880, 44.3368550],
      [11.7067110, 44.3368760],
      [11.7073360, 44.3368510],
      [11.7077890, 44.3368040],
      [11.7093670, 44.3365910],
      [11.7095740, 44.3366210],
      [11.7097310, 44.3366770],
      [11.7099340, 44.3368180],
      [11.7101380, 44.3370820],
      [11.7104510, 44.3376410],
      [11.7105240, 44.3378860],
      [11.7105470, 44.3381640],
      [11.7104860, 44.3384470],
      [11.7100330, 44.3399810],
      [11.7100390, 44.3400770],
      [11.7101030, 44.3401870],
      [11.7107120, 44.3408680],
      [11.7108130, 44.3409050],
      [11.7109470, 44.3409150],
      [11.7115510, 44.3407390],
      [11.7117080, 44.3407240],
      [11.7170650, 44.3407490],
      [11.7171340, 44.3407280],
      [11.7172510, 44.3405140],
      [11.7173090, 44.3404890],
      [11.7174220, 44.3404870],
      [11.7195610, 44.3411170],
      [11.7198310, 44.3412250],
      [11.7207220, 44.3416650],
      [11.7212320, 44.3419970],
      [11.7229320, 44.3431980],
      [11.7231760, 44.3433220],
      [11.7234410, 44.3434150],
      [11.7250190, 44.3439160],
      [11.7251380, 44.3439990],
      [11.7251550, 44.3441300],
      [11.7251230, 44.3442340],
      [11.7246470, 44.3449540],
      [11.7245360, 44.3450220],
      [11.7242430, 44.3450540],
      [11.7208220, 44.3441390],
      [11.7202240, 44.3440500]
    ]
  }
}
