{
  "type": "Feature",
  "properties": {"circuito": "marina_bay", "trazado": "Gran Premio", "fuente": "bacinger/f1-circuits (MIT) sg-2008"},
  "geometry": {
    "type": "LineString",
    "coordinates": [
      [103.8641440, 1.2917280],
      [103.8639550, 1.2930940],
      [103.8638670, 1.2941700],
      [103.8638340, 1.2942980],
      [103.8637770, 1.2943780],
      [103.8636650, 1.2944230],
      [103.8634470, 1.2944020],
      [103.8632730, 1.2944500],
      [103.8630660, 1.2945520],
      [103.8629760, 1.2946280],
      [103.8627780, 1.2948760],
      [103.8626910, 1.2948990],
      [103.8625950, 1.2948900],
      [103.8624810, 1.2947750],
      [103.8623980, 1.2945840],
      [103.8623500, 1.2940990],
      [103.8623500, 1.2938810],
      [103.8623780, 1.2937110],
      [103.8627910, 1.2926160],
      [103.8628850, 1.2921280],
      [103.8629100, 1.2917690],
      [103.8628880, 1.2916180],
      [103.8628010, 1.2914590],
      [103.8626650, 1.2913630],
      [103.8625000, 1.2912860],
      [103.8623730, 1.2912610],
      [103.8591010, 1.2914540],
      [103.8588380, 1.2915030],
      [103.8584590, 1.2916480],
      [103.8560590, 1.2930370],
      [103.8559200, 1.2930990],
      [103.8558430, 1.2930710],
      [103.8557630, 1.2929520],
      [103.8553270, 1.2922140],
      [103.8549440, 1.2914680],
      [103.8548830, 1.2914530],
      [103.8548090, 1.2914910],
      [103.8539820, 1.2923580],
      [103.8536220, 1.2925960],
      [103.8534420, 1.2925600],
      [103.8532570, 1.2923950],
      [103.8515630, 1.2893660],
      [103.8515940, 1.2890730],
      [103.8516480, 1.2889620],
      [103.8519920, 1.2886940],
      [103.8521500, 1.2885930],
      [103.8524340, 1.2884960],
      [103.8524620, 1.2884280],
      [103.8524080, 1.2883200],
      [103.8523750, 1.2881050],
      [103.8524520, 1.2878440],
      [103.8525280, 1.2877370],
      [103.8528480, 1.2874360],
      [103.8533280, 1.2870360],
      [103.8534060, 1.2868670],
      [103.8536160, 1.2865850],
      [103.8537490, 1.2865660],
      [103.8538230, 1.2865830],
      [103.8538850, 1.2866280],
      [103.8539430, 1.2867180],
      [103.8546970, 1.2905220],
      [103.8548620, 1.2910240],
      [103.8550060, 1.2911380],
      [103.8551220, 1.2911590],
      [103.8552150, 1.2911440],
      [103.8565820, 1.2899580],
      [103.8568060, 1.2898470],
      [103.8570240, 1.2897880],
      [103.8573350, 1.2897510],
      [103.8611710, 1.2895460],
      [103.8612030, 1.2894940],
      [103.8612070, 1.2892260],
      [103.8612720, 1.2890560],
      [103.8613500, 1.2889710],
      [103.8614490, 1.2889110],
      [103.8616060, 1.2888700],
      [103.8628440, 1.2887380],
      [103.8638970, 1.2886940],
      [103.8639570, 1.2887230],
      [103.8640140, 1.2888020],
      [103.8644000, 1.2893950],
      [103.8644250, 1.2895200],
      [103.8644000, 1.2897730]
    ]
  }
}
