{
  "type": "Feature",
  "properties": {"circuito": "sao_paulo_street", "trazado": "Callejero", "fuente": "OpenStreetMap ways 1156213044, 1448306548, 1448306549 (© OpenStreetMap contributors, ODbL)"},
  "geometry": {
    "type": "LineString",
    "coordinates": [
      [-46.6431151, -23.5162495],
      [-46.6489601, -23.5163568],
      [-46.6490156, -23.5163517],
      [-46.6490553, -23.5163042],
      [-46.6490888, -23.5160604],
      [-46.6491389, -23.5160345],
      [-46.6496473, -23.5160392],
      [-46.6497352, -23.5160171],
      [-46.6497800, -23.5159331],
      [-46.6497816, -23.5158523],
      [-46.6497476, -23.5157363],
      [-46.6497000, -23.5157149],
      [-46.6446363, -23.5156178],
      [-46.6443926, -23.5156025],
      [-46.6437059, -23.5154260],
      [-46.6436399, -23.5154265],
      [-46.6435827, -23.5154660],
      [-46.6433441, -23.5157375],
      [-46.6433055, -23.5157525],
      [-46.6432381, -23.5157031],
      [-46.6431013, -23.5153873],
      [-46.6430492, -23.5153352],
      [-46.6429244, -23.5152780],
      [-46.6387400, -23.5146063],
      [-46.6371656, -23.5142956],
      [-46.6370044, -23.5142897],
      [-46.6369352, -23.5143103],
      [-46.6368797, -23.5143742],
      [-46.6368583, -23.5144538],
      [-46.6369080, -23.5150353],
      [-46.6369388, -23.5150648],
      [-46.6398324, -23.5148931],
      [-46.6413276, -23.5151384],
      [-46.6413806, -23.5152266],
      [-46.6414113, -23.5161038],
      [-46.6414293, -23.5161543],
      [-46.6414856, -23.5162076],
      [-46.6415306, -23.5162131]
    ]
  }
}
