{
  "type": "Feature",
  "properties": {"circuito": "albert_park", "trazado": "Gran Premio", "fuente": "bacinger/f1-circuits (MIT) au-1953"},
  "geometry": {
    "type": "LineString",
    "coordinates": [
      [144.9686440, -37.8497570],
      [144.9660340, -37.8476810],
      [144.9660030, -37.8475430],
      [144.9661640, -37.8472870],
      [144.9662470, -37.8469480],
      [144.9662530, -37.8468110],
      [144.9662000, -37.8465440],
      [144.9661340, -37.8464080],
      [144.9660310, -37.8462660],
      [144.9659100, -37.8461520],
      [144.9648760, -37.8453690],
      [144.9641110, -37.8447240],
      [144.9635290, -37.8441470],
      [144.9632400, -37.8438420],
      [144.9629410, -37.8434710],
      [144.9623660, -37.8426760],
      [144.9621380, -37.8422860],
      [144.9621490, -37.8421930],
      [144.9621980, -37.8421270],
      [144.9623190, -37.8420790],
      [144.9634930, -37.8418990],
      [144.9636380, -37.8418420],
      [144.9636760, -37.8418000],
      [144.9637320, -37.8416690],
      [144.9637430, -37.8415310],
      [144.9636730, -37.8399130],
      [144.9636860, -37.8398760],
      [144.9638490, -37.8397260],
      [144.9651400, -37.8389860],
      [144.9653930, -37.8388710],
      [144.9670170, -37.8383640],
      [144.9677260, -37.8380250],
      [144.9678630, -37.8380060],
      [144.9679720, -37.8380050],
      [144.9680730, -37.8380520],
      [144.9682060, -37.8381760],
      [144.9685870, -37.8384110],
      [144.9688670, -37.8384940],
      [144.9698360, -37.8385740],
      [144.9701460, -37.8386590],
      [144.9704200, -37.8387620],
      [144.9709260, -37.8390830],
      [144.9711290, -37.8392920],
      [144.9713190, -37.8395520],
      [144.9714260, -37.8398170],
      [144.9714930, -37.8400220],
      [144.9718030, -37.8413850],
      [144.9717750, -37.8417130],
      [144.9716140, -37.8420520],
      [144.9711590, -37.8425320],
      [144.9710110, -37.8427920],
      [144.9706460, -37.8442600],
      [144.9706090, -37.8446100],
      [144.9706280, -37.8451000],
      [144.9707590, -37.8456260],
      [144.9708640, -37.8458980],
      [144.9711420, -37.8463490],
      [144.9715360, -37.8468250],
      [144.9718520, -37.8470900],
      [144.9730620, -37.8479250],
      [144.9733310, -37.8480350],
      [144.9735520, -37.8480880],
      [144.9746730, -37.8480910],
      [144.9748370, -37.8481230],
      [144.9750010, -37.8481860],
      [144.9751130, -37.8482360],
      [144.9768970, -37.8494370],
      [144.9772630, -37.8497790],
      [144.9774330, -37.8499920],
      [144.9776050, -37.8503080],
      [144.9777770, -37.8507040],
      [144.9785060, -37.8527420],
      [144.9785900, -37.8531410],
      [144.9762170, -37.8538970],
      [144.9760030, -37.8539260],
      [144.9758420, -37.8539170],
      [144.9756760, -37.8538630],
      [144.9754090, -37.8537020],
      [144.9746860, -37.8526700],
      [144.9742550, -37.8521190],
      [144.9742020, -37.8520810],
      [144.9740580, -37.8520620],
      [144.9739940, -37.8520910],
      [144.9733120, -37.8527010],
      [144.9731150, -37.8528230],
      [144.9728730, -37.8528840],
      [144.9727710, -37.8528830],
      [144.9724800, -37.8528170],
      [144.9723060, -37.8527090]
    ]
  }
}
