{
  "type": "Feature",
  "properties": {"circuito": "americas", "trazado": "Gran Premio", "fuente": "bacinger/f1-circuits (MIT) us-2012"},
  "geometry": {
    "type": "LineString",
    "coordinates": [
      [-97.6396510, 30.1317600],
      [-97.6379350, 30.1305770],
      [-97.6374610, 30.1302900],
      [-97.6370940, 30.1301010],
      [-97.6369050, 30.1300310],
      [-97.6368460, 30.1300400],
      [-97.6367570, 30.1301150],
      [-97.6367450, 30.1302100],
      [-97.6372840, 30.1315670],
      [-97.6373130, 30.1316990],
      [-97.6373130, 30.1319440],
      [-97.6372310, 30.1322220],
      [-97.6370590, 30.1324720],
      [-97.6369350, 30.1325950],
      [-97.6352060, 30.1335380],
      [-97.6349760, 30.1337780],
      [-97.6347740, 30.1342300],
      [-97.6346140, 30.1344140],
      [-97.6344010, 30.1345230],
      [-97.6339810, 30.1346830],
      [-97.6338750, 30.1347540],
      [-97.6337500, 30.1349190],
      [-97.6336730, 30.1353480],
      [-97.6335900, 30.1355830],
      [-97.6334540, 30.1357720],
      [-97.6332470, 30.1359510],
      [-97.6331050, 30.1360410],
      [-97.6327860, 30.1361770],
      [-97.6326430, 30.1362060],
      [-97.6324300, 30.1362060],
      [-97.6322760, 30.1361680],
      [-97.6311990, 30.1357440],
      [-97.6310990, 30.1357440],
      [-97.6308260, 30.1358760],
      [-97.6305960, 30.1360360],
      [-97.6304300, 30.1361820],
      [-97.6301400, 30.1365020],
      [-97.6300270, 30.1365780],
      [-97.6298080, 30.1366440],
      [-97.6296720, 30.1366440],
      [-97.6295180, 30.1366060],
      [-97.6294000, 30.1365500],
      [-97.6292520, 30.1364130],
      [-97.6291510, 30.1362620],
      [-97.6290800, 30.1361960],
      [-97.6289970, 30.1361680],
      [-97.6289150, 30.1361680],
      [-97.6270320, 30.1365400],
      [-97.6269080, 30.1366160],
      [-97.6246120, 30.1390430],
      [-97.6244690, 30.1392690],
      [-97.6244750, 30.1393780],
      [-97.6245700, 30.1394390],
      [-97.6246940, 30.1394490],
      [-97.6266770, 30.1389060],
      [-97.6279970, 30.1385860],
      [-97.6294530, 30.1382800],
      [-97.6311930, 30.1379780],
      [-97.6332890, 30.1376950],
      [-97.6362540, 30.1374120],
      [-97.6365850, 30.1373600],
      [-97.6366270, 30.1373370],
      [-97.6366390, 30.1372520],
      [-97.6364020, 30.1370120],
      [-97.6357270, 30.1362100],
      [-97.6354310, 30.1357950],
      [-97.6354130, 30.1357340],
      [-97.6354310, 30.1356450],
      [-97.6354730, 30.1355830],
      [-97.6356150, 30.1355220],
      [-97.6357390, 30.1355080],
      [-97.6362890, 30.1355460],
      [-97.6364370, 30.1356540],
      [-97.6366390, 30.1360880],
      [-97.6367160, 30.1361820],
      [-97.6371300, 30.1365400],
      [-97.6372600, 30.1365730],
      [-97.6376150, 30.1366010],
      [-97.6377280, 30.1365730],
      [-97.6377870, 30.1364740],
      [-97.6377630, 30.1364080],
      [-97.6367990, 30.1349330],
      [-97.6367810, 30.1346880],
      [-97.6368340, 30.1344900],
      [-97.6370180, 30.1341030],
      [-97.6370890, 30.1340230],
      [-97.6373430, 30.1338910],
      [-97.6379050, 30.1336700],
      [-97.6380180, 30.1336460],
      [-97.6385330, 30.1336790],
      [-97.6389290, 30.1338020],
      [-97.6392370, 30.1339760],
      [-97.6399650, 30.1348810],
      [-97.6404680, 30.1354280],
      [-97.6405330, 30.1354840],
      [-97.6406100, 30.1355130],
      [-97.6408000, 30.1355270],
      [-97.6411960, 30.1354140],
      [-97.6432740, 30.1346260],
      [-97.6433920, 30.1345560],
      [-97.6434630, 30.1344190],
      [-97.6433920, 30.1343200],
      [-97.6422440, 30.1335140]
    ]
  }
}
