{
  "type": "Feature",
  "properties": {"circuito": "americas", "trazado": "Nacional", "fuente": "OpenStreetMap way 1482931764 (© OpenStreetMap contributors, ODbL)"},
  "geometry": {
    "type": "LineString",
    "coordinates": [
      [-97.6398291, 30.1318930],
      [-97.6374452, 30.1302904],
      [-97.6370097, 30.1300655],
      [-97.6368984, 30.1300527],
      [-97.6367965, 30.1300991],
      [-97.6367697, 30.1301536],
      [-97.6367911, 30.1302754],
      [-97.6372961, 30.1315732],
      [-97.6373319, 30.1317154],
      [-97.6373367, 30.1319166],
      [-97.6373072, 30.1320639],
      [-97.6372130, 30.1322845],
      [-97.6370752, 30.1324756],
      [-97.6369531, 30.1325870],
      [-97.6367949, 30.1326879],
      [-97.6354901, 30.1333766],
      [-97.6351429, 30.1336014],
      [-97.6349980, 30.1337812],
      [-97.6348183, 30.1341825],
      [-97.6346721, 30.1343750],
      [-97.6345179, 30.1344759],
      [-97.6340136, 30.1346638],
      [-97.6338031, 30.1348494],
      [-97.6337307, 30.1350338],
      [-97.6336247, 30.1355644],
      [-97.6334571, 30.1357970],
      [-97.6332224, 30.1359779],
      [-97.6328595, 30.1361445],
      [-97.6326779, 30.1361890],
      [-97.6324700, 30.1361994],
      [-97.6322923, 30.1361677],
      [-97.6316600, 30.1359222],
      [-97.6316153, 30.1359313],
      [-97.6316140, 30.1359970],
      [-97.6321039, 30.1364152],
      [-97.6323909, 30.1367480],
      [-97.6328640, 30.1374887],
      [-97.6329370, 30.1376680],
      [-97.6330797, 30.1377235],
      [-97.6364617, 30.1373905],
      [-97.6365723, 30.1373589],
      [-97.6366193, 30.1372661],
      [-97.6365817, 30.1371838],
      [-97.6360587, 30.1366062],
      [-97.6354656, 30.1358282],
      [-97.6354324, 30.1357445],
      [-97.6354391, 30.1356459],
      [-97.6354900, 30.1355647],
      [-97.6355772, 30.1355183],
      [-97.6361740, 30.1355368],
      [-97.6363484, 30.1355751],
      [-97.6364801, 30.1356901],
      [-97.6366942, 30.1361347],
      [-97.6370886, 30.1364960],
      [-97.6372295, 30.1365587],
      [-97.6374408, 30.1365908],
      [-97.6376559, 30.1366027],
      [-97.6377512, 30.1365633],
      [-97.6377833, 30.1364856],
      [-97.6377512, 30.1363777],
      [-97.6368966, 30.1350825],
      [-97.6368030, 30.1348514],
      [-97.6368151, 30.1345846],
      [-97.6369478, 30.1342482],
      [-97.6371074, 30.1340186],
      [-97.6372252, 30.1339414],
      [-97.6379040, 30.1336718],
      [-97.6380784, 30.1336416],
      [-97.6384725, 30.1336708],
      [-97.6387020, 30.1337263],
      [-97.6390037, 30.1338353],
      [-97.6392599, 30.1340105],
      [-97.6398419, 30.1347215],
      [-97.6404623, 30.1353995],
      [-97.6405930, 30.1354916],
      [-97.6407539, 30.1355229],
      [-97.6409306, 30.1354964],
      [-97.6412072, 30.1354116],
      [-97.6433055, 30.1346085],
      [-97.6434133, 30.1345382],
      [-97.6434468, 30.1344106],
      [-97.6433771, 30.1343016],
      [-97.6422500, 30.1335372]
    ]
  }
}
