{
  "type": "Feature",
  "properties": {"circuito": "richmond", "trazado": "Óvalo", "fuente": "OpenStreetMap way 452377300 (© OpenStreetMap contributors, ODbL)"},
  "geometry": {
    "type": "LineString",
    "coordinates": [
      [-77.4169165, 37.5930808],
      [-77.4170859, 37.5932859],
      [-77.4173243, 37.5934571],
      [-77.4176520, 37.5935707],
      [-77.4180245, 37.5936017],
      [-77.4211641, 37.5929510],
      [-77.4213131, 37.5929097],
      [-77.4216204, 37.5927415],
      [-77.4217358, 37.5926529],
      [-77.4218606, 37.5924965],
      [-77.4219332, 37.5923475],
      [-77.4219872, 37.5920804],
      [-77.4219370, 37.5918119],
      [-77.4218718, 37.5916687],
      [-77.4217321, 37.5914828],
      [-77.4214900, 37.5913072],
      [-77.4211474, 37.5911847],
      [-77.4207936, 37.5911183],
      [-77.4203001, 37.5910682],
      [-77.4200356, 37.5910623],
      [-77.4196539, 37.5910726],
      [-77.4189090, 37.5911921],
      [-77.4180189, 37.5914902],
      [-77.4175291, 37.5917514],
      [-77.4171399, 37.5920317],
      [-77.4170114, 37.5921498],
      [-77.4168718, 37.5923873],
      [-77.4168084, 37.5927341],
      [-77.4168513, 37.5929466]
    ]
  }
}
