{
  "type": "Feature",
  "properties": {"circuito": "shanghai", "trazado": "Fórmula E", "fuente": "OpenStreetMap ways 156328670+156328684 (© OpenStreetMap contributors, ODbL)"},
  "geometry": {
    "type": "LineString",
    "coordinates": [
      [121.2186411, 31.3369243],
      [121.2172993, 31.3366591],
      [121.2171009, 31.3366526],
      [121.2167764, 31.3367162],
      [121.2165982, 31.3367966],
      [121.2164409, 31.3368981],
      [121.2162993, 31.3370397],
      [121.2161921, 31.3372278],
      [121.2161631, 31.3373266],
      [121.2161568, 31.3376216],
      [121.2162563, 31.3378599],
      [121.2163175, 31.3379300],
      [121.2164580, 31.3380239],
      [121.2166326, 31.3380790],
      [121.2168108, 31.3380884],
      [121.2169905, 31.3380443],
      [121.2171026, 31.3379713],
      [121.2171583, 31.3378836],
      [121.2171766, 31.3377876],
      [121.2170611, 31.3374802],
      [121.2170609, 31.3373619],
      [121.2170860, 31.3372868],
      [121.2171864, 31.3371805],
      [121.2173787, 31.3371170],
      [121.2175211, 31.3371357],
      [121.2176124, 31.3371804],
      [121.2177954, 31.3374140],
      [121.2178801, 31.3376707],
      [121.2178896, 31.3377901],
      [121.2178623, 31.3379437],
      [121.2177514, 31.3381370],
      [121.2157743, 31.3400890],
      [121.2156879, 31.3402472],
      [121.2149773, 31.3420084],
      [121.2149661, 31.3421378],
      [121.2150548, 31.3422337],
      [121.2151985, 31.3422529],
      [121.2153706, 31.3421824],
      [121.2157294, 31.3419458],
      [121.2159641, 31.3417360],
      [121.2161538, 31.3415136],
      [121.2171308, 31.3400644],
      [121.2173307, 31.3398489],
      [121.2177101, 31.3396264],
      [121.2179849, 31.3395548],
      [121.2183619, 31.3395345],
      [121.2186387, 31.3395827],
      [121.2189548, 31.3397122],
      [121.2191979, 31.3398843],
      [121.2193709, 31.3400735],
      [121.2198183, 31.3408735],
      [121.2199554, 31.3410354],
      [121.2202426, 31.3412066],
      [121.2204555, 31.3412562],
      [121.2206909, 31.3412560],
      [121.2208157, 31.3412369],
      [121.2210377, 31.3411531],
      [121.2212513, 31.3409945],
      [121.2213355, 31.3409013],
      [121.2217108, 31.3402375],
      [121.2218027, 31.3401520],
      [121.2231268, 31.3395371],
      [121.2235513, 31.3392961],
      [121.2240019, 31.3389631],
      [121.2240098, 31.3388968],
      [121.2239843, 31.3388589],
      [121.2237533, 31.3386711],
      [121.2237264, 31.3386174],
      [121.2239259, 31.3382017],
      [121.2239233, 31.3381142],
      [121.2238809, 31.3380689],
      [121.2234844, 31.3378964],
      [121.2189732, 31.3369904]
    ]
  }
}
