{
  "type": "Feature",
  "properties": {"circuito": "shanghai", "trazado": "Gran Premio", "fuente": "bacinger/f1-circuits (MIT) cn-2004"},
  "geometry": {
    "type": "LineString",
    "coordinates": [
      [121.2183800, 31.3368350],
      [121.2174090, 31.3366270],
      [121.2170190, 31.3366130],
      [121.2166990, 31.3367120],
      [121.2165270, 31.3368060],
      [121.2163080, 31.3370090],
      [121.2161780, 31.3372640],
      [121.2161780, 31.3375560],
      [121.2162430, 31.3377870],
      [121.2163200, 31.3378860],
      [121.2164270, 31.3379710],
      [121.2166640, 31.3380600],
      [121.2168830, 31.3380600],
      [121.2170540, 31.3380040],
      [121.2171250, 31.3379380],
      [121.2171730, 31.3378670],
      [121.2171780, 31.3377680],
      [121.2170540, 31.3373250],
      [121.2170960, 31.3372350],
      [121.2171960, 31.3371410],
      [121.2173680, 31.3370850],
      [121.2175570, 31.3371180],
      [121.2176580, 31.3371740],
      [121.2177820, 31.3373630],
      [121.2178770, 31.3376310],
      [121.2178890, 31.3377920],
      [121.2178590, 31.3379280],
      [121.2176990, 31.3381730],
      [121.2175040, 31.3383760],
      [121.2169830, 31.3388520],
      [121.2165810, 31.3393000],
      [121.2158350, 31.3400070],
      [121.2157050, 31.3401960],
      [121.2156450, 31.3403320],
      [121.2150830, 31.3417230],
      [121.2149650, 31.3420390],
      [121.2149590, 31.3421190],
      [121.2150120, 31.3421850],
      [121.2151190, 31.3422230],
      [121.2153020, 31.3421940],
      [121.2156510, 31.3419730],
      [121.2160360, 31.3416290],
      [121.2162310, 31.3413840],
      [121.2171840, 31.3399840],
      [121.2174980, 31.3396960],
      [121.2179010, 31.3395400],
      [121.2181140, 31.3395030],
      [121.2183620, 31.3395030],
      [121.2185810, 31.3395400],
      [121.2187940, 31.3396060],
      [121.2190070, 31.3397200],
      [121.2192090, 31.3398610],
      [121.2193680, 31.3400210],
      [121.2198060, 31.3408180],
      [121.2199190, 31.3409640],
      [121.2200370, 31.3410630],
      [121.2204040, 31.3412190],
      [121.2206110, 31.3412330],
      [121.2207890, 31.3412190],
      [121.2209490, 31.3411670],
      [121.2210910, 31.3410870],
      [121.2212800, 31.3409310],
      [121.2217180, 31.3402050],
      [121.2218250, 31.3401060],
      [121.2219550, 31.3400730],
      [121.2221920, 31.3401300],
      [121.2226300, 31.3406250],
      [121.2226890, 31.3407240],
      [121.2226890, 31.3408130],
      [121.2226530, 31.3409030],
      [121.2215820, 31.3424580],
      [121.2201790, 31.3444190],
      [121.2200790, 31.3444470],
      [121.2199780, 31.3444240],
      [121.2196640, 31.3441320],
      [121.2195640, 31.3440750],
      [121.2194390, 31.3440420],
      [121.2193090, 31.3440610],
      [121.2191790, 31.3441600],
      [121.2190250, 31.3443060],
      [121.2189010, 31.3445320],
      [121.2188770, 31.3446930],
      [121.2189190, 31.3449800],
      [121.2189720, 31.3451120],
      [121.2191140, 31.3452720],
      [121.2192500, 31.3453620],
      [121.2194390, 31.3454330],
      [121.2198010, 31.3454840],
      [121.2199960, 31.3454750],
      [121.2202500, 31.3454230],
      [121.2205880, 31.3452820],
      [121.2208240, 31.3450930],
      [121.2210320, 31.3448430],
      [121.2260510, 31.3382960],
      [121.2278030, 31.3360850],
      [121.2278560, 31.3359860],
      [121.2278500, 31.3358920],
      [121.2277730, 31.3358260],
      [121.2276490, 31.3358350],
      [121.2273940, 31.3359390],
      [121.2270810, 31.3361320],
      [121.2253470, 31.3381550],
      [121.2252700, 31.3381920],
      [121.2251280, 31.3382020],
      [121.2229550, 31.3377630]
    ]
  }
}
