{
  "type": "Feature",
  "properties": {"circuito": "spa", "trazado": "Gran Premio", "fuente": "bacinger/f1-circuits (MIT) be-1925"},
  "geometry": {
    "type": "LineString",
    "coordinates": [
      [5.9650200, 50.4442510],
      [5.9634190, 50.4460330],
      [5.9634020, 50.4461130],
      [5.9634730, 50.4461840],
      [5.9636210, 50.4462170],
      [5.9637860, 50.4461880],
      [5.9655920, 50.4456280],
      [5.9662070, 50.4453870],
      [5.9668470, 50.4450850],
      [5.9674210, 50.4447790],
      [5.9678760, 50.4444630],
      [5.9703210, 50.4426060],
      [5.9704930, 50.4425020],
      [5.9713150, 50.4421680],
      [5.9715460, 50.4420220],
      [5.9717410, 50.4418240],
      [5.9718660, 50.4416440],
      [5.9719490, 50.4414420],
      [5.9720610, 50.4409370],
      [5.9721320, 50.4408150],
      [5.9742450, 50.4386420],
      [5.9745940, 50.4381330],
      [5.9771990, 50.4323820],
      [5.9775420, 50.4315990],
      [5.9775600, 50.4314720],
      [5.9775240, 50.4313310],
      [5.9774060, 50.4312180],
      [5.9772340, 50.4311230],
      [5.9770150, 50.4310480],
      [5.9768850, 50.4309680],
      [5.9767960, 50.4308740],
      [5.9767250, 50.4307320],
      [5.9767370, 50.4305910],
      [5.9770330, 50.4297470],
      [5.9770270, 50.4296010],
      [5.9769800, 50.4294690],
      [5.9768200, 50.4293230],
      [5.9732570, 50.4277390],
      [5.9730440, 50.4276820],
      [5.9728310, 50.4276780],
      [5.9726060, 50.4277200],
      [5.9724220, 50.4278050],
      [5.9722920, 50.4279270],
      [5.9722390, 50.4280500],
      [5.9722270, 50.4281820],
      [5.9722920, 50.4283050],
      [5.9724100, 50.4284320],
      [5.9725820, 50.4285210],
      [5.9740560, 50.4291010],
      [5.9742160, 50.4292050],
      [5.9743040, 50.4293090],
      [5.9743400, 50.4294310],
      [5.9743220, 50.4295820],
      [5.9737120, 50.4307230],
      [5.9735230, 50.4311890],
      [5.9728310, 50.4335930],
      [5.9727240, 50.4337440],
      [5.9725820, 50.4338670],
      [5.9723690, 50.4339990],
      [5.9721320, 50.4340980],
      [5.9718720, 50.4341640],
      [5.9707170, 50.4342300],
      [5.9703800, 50.4342060],
      [5.9697590, 50.4340650],
      [5.9695040, 50.4339560],
      [5.9692080, 50.4337820],
      [5.9690190, 50.4336080],
      [5.9688120, 50.4333580],
      [5.9672310, 50.4308450],
      [5.9670710, 50.4306610],
      [5.9668820, 50.4305340],
      [5.9666220, 50.4304400],
      [5.9663610, 50.4303930],
      [5.9661190, 50.4303880],
      [5.9658760, 50.4304210],
      [5.9653250, 50.4306240],
      [5.9651000, 50.4306850],
      [5.9648280, 50.4307130],
      [5.9645560, 50.4306940],
      [5.9643070, 50.4306430],
      [5.9640940, 50.4305480],
      [5.9637920, 50.4302940],
      [5.9624250, 50.4289270],
      [5.9622890, 50.4288470],
      [5.9621230, 50.4287900],
      [5.9619220, 50.4287620],
      [5.9616970, 50.4287710],
      [5.9615020, 50.4288280],
      [5.9600340, 50.4295110],
      [5.9597560, 50.4297610],
      [5.9596730, 50.4298930],
      [5.9596140, 50.4300490],
      [5.9596020, 50.4302090],
      [5.9596430, 50.4304020],
      [5.9600460, 50.4311000],
      [5.9603650, 50.4314630],
      [5.9607150, 50.4317790],
      [5.9612470, 50.4321600],
      [5.9621350, 50.4327120],
      [5.9626560, 50.4329710],
      [5.9653850, 50.4338950],
      [5.9657160, 50.4340270],
      [5.9663200, 50.4343570],
      [5.9667990, 50.4347440],
      [5.9671070, 50.4351060],
      [5.9680240, 50.4364360],
      [5.9680840, 50.4366240],
      [5.9680950, 50.4368600],
      [5.9680360, 50.4370720],
      [5.9668880, 50.4389910],
      [5.9666690, 50.4396080],
      [5.9665620, 50.4401830],
      [5.9664320, 50.4414040],
      [5.9664560, 50.4414840],
      [5.9665330, 50.4415410],
      [5.9666510, 50.4415600],
      [5.9668520, 50.4415410],
      [5.9672020, 50.4415600],
      [5.9672960, 50.4416260],
      [5.9673200, 50.4417010],
      [5.9672610, 50.4418000],
      [5.9665330, 50.4425590]
    ]
  }
}
