{
  "type": "Feature",
  "properties": {"circuito": "washington_dc", "trazado": "Callejero", "fuente": "OpenStreetMap ways 6055099,6055608,6057751,6062971,45838765,45838768,50513886,50519367,297212174,297268567,297273916,297285722,297368443,345632497,397321697,397321705,397321709,397324965,397324966,435137396,468450579,468495087,494175930,520331082,589551092,696737832,910190955,927598885,927598886,927598887,1012419187,1320813861,1364823819,1466662583 (© OpenStreetMap contributors, ODbL); lazo armado con las calles del plano oficial (Pennsylvania Ave NW, 9th St NW, Constitution Ave NW, 7th St, Independence Ave SW, Maryland Ave SW, 3rd St)"},
  "geometry": {
    "type": "LineString",
    "coordinates": [
      [-77.0152093, 38.8900567],
      [-77.0152099, 38.8915437],
      [-77.0163913, 38.8918861],
      [-77.0175907, 38.8921994],
      [-77.0239809, 38.8939723],
      [-77.0240098, 38.8934884],
      [-77.0239714, 38.8932591],
      [-77.0239648, 38.8920842],
      [-77.0219148, 38.8920822],
      [-77.0219177, 38.8875736],
      [-77.0163987, 38.8875720],
      [-77.0161937, 38.8877834],
      [-77.0160419, 38.8878893],
      [-77.0156424, 38.8880698],
      [-77.0152018, 38.8881885],
      [-77.0152073, 38.8894219]
    ]
  }
}
