{
  "type": "Feature",
  "properties": {"circuito": "pocono", "trazado": "Óvalo", "fuente": "OpenStreetMap way 109767460 (© OpenStreetMap contributors, ODbL)"},
  "geometry": {
    "type": "LineString",
    "coordinates": [
      [-75.5131946, 41.0593479],
      [-75.5166308, 41.0579409],
      [-75.5169296, 41.0577811],
      [-75.5171878, 41.0576097],
      [-75.5174663, 41.0573556],
      [-75.5176150, 41.0571721],
      [-75.5177636, 41.0569463],
      [-75.5178611, 41.0567415],
      [-75.5179164, 41.0565472],
      [-75.5179814, 41.0561372],
      [-75.5179779, 41.0558712],
      [-75.5178910, 41.0555080],
      [-75.5177677, 41.0551887],
      [-75.5175774, 41.0549056],
      [-75.5173037, 41.0546090],
      [-75.5170370, 41.0544162],
      [-75.5166970, 41.0542033],
      [-75.5165270, 41.0541258],
      [-75.5158280, 41.0538773],
      [-75.5039335, 41.0502451],
      [-75.5031509, 41.0500363],
      [-75.5027124, 41.0499996],
      [-75.5023544, 41.0500093],
      [-75.5019485, 41.0500634],
      [-75.5012397, 41.0503123],
      [-75.5008662, 41.0505348],
      [-75.5004926, 41.0508908],
      [-75.5003143, 41.0511435],
      [-75.5001815, 41.0514429],
      [-75.5001161, 41.0516949],
      [-75.5000928, 41.0519469],
      [-75.5001256, 41.0522099],
      [-75.5002330, 41.0525203],
      [-75.5003815, 41.0527728],
      [-75.5006470, 41.0531076],
      [-75.5072811, 41.0598712],
      [-75.5075410, 41.0600761],
      [-75.5079903, 41.0603316],
      [-75.5084638, 41.0605054],
      [-75.5088176, 41.0605899],
      [-75.5090522, 41.0606216],
      [-75.5093784, 41.0606403],
      [-75.5097319, 41.0606233],
      [-75.5100747, 41.0605703],
      [-75.5104582, 41.0604607],
      [-75.5126631, 41.0595640]
    ]
  }
}
