{
  "type": "Feature",
  "properties": {"circuito": "laguna_seca", "trazado": "Completo", "fuente": "OpenStreetMap ways 10464852,1315957502,1315957503,1315957504,1315957505,1315957506,1315957507,1315957508 (© OpenStreetMap contributors, ODbL)"},
  "geometry": {
    "type": "LineString",
    "coordinates": [
      [-121.7576015, 36.5849079],
      [-121.7577184, 36.5846304],
      [-121.7577671, 36.5843904],
      [-121.7577752, 36.5836062],
      [-121.7577351, 36.5828060],
      [-121.7577202, 36.5827090],
      [-121.7576536, 36.5826000],
      [-121.7575570, 36.5825256],
      [-121.7574076, 36.5824802],
      [-121.7572163, 36.5824893],
      [-121.7570478, 36.5825384],
      [-121.7569033, 36.5826682],
      [-121.7568649, 36.5827749],
      [-121.7568625, 36.5828267],
      [-121.7570690, 36.5834213],
      [-121.7571135, 36.5838999],
      [-121.7570771, 36.5842251],
      [-121.7569703, 36.5846871],
      [-121.7569197, 36.5847839],
      [-121.7567862, 36.5848972],
      [-121.7566042, 36.5849628],
      [-121.7564077, 36.5849635],
      [-121.7543249, 36.5845647],
      [-121.7540689, 36.5844752],
      [-121.7538728, 36.5843110],
      [-121.7537854, 36.5840860],
      [-121.7536720, 36.5827952],
      [-121.7537540, 36.5822728],
      [-121.7543885, 36.5804403],
      [-121.7543910, 36.5803355],
      [-121.7543406, 36.5801873],
      [-121.7542754, 36.5800948],
      [-121.7541818, 36.5800177],
      [-121.7540186, 36.5799428],
      [-121.7538327, 36.5798984],
      [-121.7534357, 36.5798921],
      [-121.7500178, 36.5803440],
      [-121.7499253, 36.5803764],
      [-121.7498535, 36.5804321],
      [-121.7494270, 36.5811010],
      [-121.7493317, 36.5813377],
      [-121.7492716, 36.5815799],
      [-121.7492284, 36.5819682],
      [-121.7492230, 36.5826498],
      [-121.7491831, 36.5833353],
      [-121.7492116, 36.5840865],
      [-121.7489913, 36.5847893],
      [-121.7490315, 36.5848842],
      [-121.7490821, 36.5849177],
      [-121.7494462, 36.5849807],
      [-121.7495640, 36.5851053],
      [-121.7496425, 36.5855659],
      [-121.7495974, 36.5859894],
      [-121.7496160, 36.5862242],
      [-121.7497002, 36.5865237],
      [-121.7497549, 36.5866178],
      [-121.7499098, 36.5867784],
      [-121.7501602, 36.5869276],
      [-121.7504178, 36.5869731],
      [-121.7510360, 36.5868488],
      [-121.7525545, 36.5864778],
      [-121.7526861, 36.5864622],
      [-121.7528811, 36.5864937],
      [-121.7530435, 36.5865834],
      [-121.7531543, 36.5867087],
      [-121.7543805, 36.5885888],
      [-121.7544697, 36.5886672],
      [-121.7545708, 36.5886802],
      [-121.7546998, 36.5886107],
      [-121.7549866, 36.5882644],
      [-121.7567390, 36.5863467],
      [-121.7569177, 36.5861254]
    ]
  }
}
