{
  "type": "Feature",
  "properties": {"circuito": "nashville_superspeedway", "trazado": "Óvalo", "fuente": "OpenStreetMap way 185563917 (© OpenStreetMap contributors, ODbL)"},
  "geometry": {
    "type": "LineString",
    "coordinates": [
      [-86.4096022, 36.0464723],
      [-86.4097226, 36.0458276],
      [-86.4097208, 36.0455600],
      [-86.4096661, 36.0451270],
      [-86.4093045, 36.0435091],
      [-86.4092398, 36.0433016],
      [-86.4090605, 36.0429114],
      [-86.4089568, 36.0427529],
      [-86.4087103, 36.0425250],
      [-86.4083761, 36.0423106],
      [-86.4079547, 36.0421476],
      [-86.4077099, 36.0420973],
      [-86.4072092, 36.0420826],
      [-86.4069998, 36.0421092],
      [-86.4067413, 36.0421599],
      [-86.4063427, 36.0423130],
      [-86.4061733, 36.0424177],
      [-86.4058814, 36.0426667],
      [-86.4056496, 36.0429577],
      [-86.4054098, 36.0435084],
      [-86.4052544, 36.0441462],
      [-86.4046688, 36.0469440],
      [-86.4045220, 36.0478089],
      [-86.4045183, 36.0481008],
      [-86.4045951, 36.0484877],
      [-86.4046958, 36.0487094],
      [-86.4048500, 36.0489421],
      [-86.4051057, 36.0491963],
      [-86.4054188, 36.0494029],
      [-86.4057176, 36.0495234],
      [-86.4059947, 36.0495933],
      [-86.4064149, 36.0496406],
      [-86.4067047, 36.0496310],
      [-86.4071483, 36.0495409],
      [-86.4074725, 36.0494087],
      [-86.4077465, 36.0492348],
      [-86.4079959, 36.0490068],
      [-86.4082276, 36.0487258],
      [-86.4092733, 36.0472071],
      [-86.4094412, 36.0469152],
      [-86.4095591, 36.0466133]
    ]
  }
}
