{
  "type": "Feature",
  "properties": {"circuito": "st_petersburg", "trazado": "Callejero", "fuente": "OpenStreetMap relation 8668325 'Grand Prix of Saint Petersburg Raceway', ways 480523720,512696306 (© OpenStreetMap contributors, ODbL)"},
  "geometry": {
    "type": "LineString",
    "coordinates": [
      [-82.6306909, 27.7645736],
      [-82.6321143, 27.7639016],
      [-82.6323029, 27.7639415],
      [-82.6324546, 27.7640429],
      [-82.6325438, 27.7641323],
      [-82.6325725, 27.7642036],
      [-82.6325990, 27.7643693],
      [-82.6325863, 27.7648575],
      [-82.6326395, 27.7649717],
      [-82.6329406, 27.7651665],
      [-82.6333378, 27.7653720],
      [-82.6336233, 27.7656545],
      [-82.6338208, 27.7657998],
      [-82.6339317, 27.7659770],
      [-82.6339681, 27.7661028],
      [-82.6339735, 27.7663246],
      [-82.6339961, 27.7693021],
      [-82.6339115, 27.7694219],
      [-82.6338487, 27.7694582],
      [-82.6332651, 27.7695513],
      [-82.6331257, 27.7696391],
      [-82.6330908, 27.7697055],
      [-82.6330787, 27.7700532],
      [-82.6331391, 27.7701731],
      [-82.6334076, 27.7704840],
      [-82.6333300, 27.7712200],
      [-82.6325783, 27.7712285],
      [-82.6324393, 27.7711881],
      [-82.6323127, 27.7710789],
      [-82.6322501, 27.7709164],
      [-82.6323181, 27.7704786],
      [-82.6323797, 27.7694298],
      [-82.6323969, 27.7686924],
      [-82.6323759, 27.7684812],
      [-82.6323094, 27.7683670],
      [-82.6307912, 27.7663565],
      [-82.6306693, 27.7663239],
      [-82.6301885, 27.7664829],
      [-82.6283384, 27.7669554],
      [-82.6281638, 27.7669599],
      [-82.6277082, 27.7668412],
      [-82.6275792, 27.7668435],
      [-82.6262935, 27.7674145],
      [-82.6261214, 27.7674056],
      [-82.6260455, 27.7673697],
      [-82.6259215, 27.7672354],
      [-82.6259063, 27.7669913],
      [-82.6259601, 27.7668939],
      [-82.6260729, 27.7667774],
      [-82.6262059, 27.7666904],
      [-82.6303968, 27.7647124]
    ]
  }
}
