{
  "type": "Feature",
  "properties": {"circuito": "rodriguez", "trazado": "Fórmula E", "fuente": "OpenStreetMap ways 772755821+772754606+772754609+772754604+772754608+1128592398+1128592396+772755824+823823141+823823139+772755822 (© OpenStreetMap contributors, ODbL)"},
  "geometry": {
    "type": "LineString",
    "coordinates": [
      [-99.0958211, 19.4063979],
      [-99.0918011, 19.4058834],
      [-99.0914361, 19.4058959],
      [-99.0913608, 19.4058723],
      [-99.0912439, 19.4056122],
      [-99.0910484, 19.4053360],
      [-99.0909856, 19.4051943],
      [-99.0909051, 19.4048321],
      [-99.0909088, 19.4046435],
      [-99.0909525, 19.4043813],
      [-99.0910676, 19.4040904],
      [-99.0911787, 19.4039121],
      [-99.0914243, 19.4036948],
      [-99.0914994, 19.4035245],
      [-99.0914958, 19.4034701],
      [-99.0914477, 19.4034041],
      [-99.0911943, 19.4032770],
      [-99.0902331, 19.4028711],
      [-99.0899950, 19.4027200],
      [-99.0897142, 19.4023400],
      [-99.0896314, 19.4020559],
      [-99.0896416, 19.4020269],
      [-99.0896981, 19.4019891],
      [-99.0898625, 19.4019818],
      [-99.0899207, 19.4019857],
      [-99.0899555, 19.4020200],
      [-99.0900697, 19.4025039],
      [-99.0902392, 19.4026870],
      [-99.0911165, 19.4031358],
      [-99.0913659, 19.4032267],
      [-99.0917360, 19.4033029],
      [-99.0949224, 19.4037359],
      [-99.0950010, 19.4038088],
      [-99.0950221, 19.4038595],
      [-99.0950746, 19.4047487],
      [-99.0951071, 19.4049712],
      [-99.0951784, 19.4052821],
      [-99.0952330, 19.4053479],
      [-99.0952724, 19.4053611],
      [-99.0955955, 19.4054227],
      [-99.0956892, 19.4053962],
      [-99.0959632, 19.4050306],
      [-99.0959765, 19.4049722],
      [-99.0959316, 19.4048902],
      [-99.0958722, 19.4048748],
      [-99.0954404, 19.4048398],
      [-99.0954020, 19.4048113],
      [-99.0951940, 19.4045035],
      [-99.0951834, 19.4044605],
      [-99.0952651, 19.4039600],
      [-99.0952946, 19.4039026],
      [-99.0953356, 19.4038619],
      [-99.0954375, 19.4038356],
      [-99.0955878, 19.4038338],
      [-99.0960562, 19.4039610],
      [-99.0963013, 19.4041007],
      [-99.0965563, 19.4043091],
      [-99.0966690, 19.4044457],
      [-99.0968233, 19.4047431],
      [-99.0968779, 19.4049915],
      [-99.0968593, 19.4054788],
      [-99.0967852, 19.4056947],
      [-99.0966895, 19.4058674],
      [-99.0964364, 19.4061631],
      [-99.0963219, 19.4062549],
      [-99.0962043, 19.4063157],
      [-99.0960726, 19.4063659],
      [-99.0959034, 19.4063947]
    ]
  }
}
