{
  "type": "Feature",
  "properties": {"circuito": "rodriguez", "trazado": "Gran Premio", "fuente": "dibujado en el admin web sobre OpenStreetMap"},
  "geometry": {
    "type": "LineString",
    "coordinates": [
      [-99.0958483, 19.4064007],
      [-99.0914557, 19.4058372],
      [-99.0894073, 19.4056118],
      [-99.0859819, 19.4051932],
      [-99.0837116, 19.4048497],
      [-99.0834840, 19.4047800],
      [-99.0834157, 19.4046458],
      [-99.0834442, 19.4044633],
      [-99.0835125, 19.4040232],
      [-99.0834556, 19.4039374],
      [-99.0833474, 19.4038730],
      [-99.0831369, 19.4037764],
      [-99.0830686, 19.4036637],
      [-99.0830857, 19.4034812],
      [-99.0831938, 19.4030733],
      [-99.0833133, 19.4027352],
      [-99.0834271, 19.4024776],
      [-99.0836319, 19.4021341],
      [-99.0850715, 19.3998639],
      [-99.0861697, 19.3982753],
      [-99.0861583, 19.3981626],
      [-99.0861014, 19.3980714],
      [-99.0856974, 19.3978621],
      [-99.0856405, 19.3977977],
      [-99.0856462, 19.3977064],
      [-99.0857884, 19.3975883],
      [-99.0865850, 19.3970409],
      [-99.0866647, 19.3970248],
      [-99.0867500, 19.3970785],
      [-99.0868582, 19.3971966],
      [-99.0868695, 19.3973093],
      [-99.0866362, 19.3989891],
      [-99.0865111, 19.3999874],
      [-99.0865793, 19.4001162],
      [-99.0868297, 19.4002665],
      [-99.0872109, 19.4004704],
      [-99.0873134, 19.4005831],
      [-99.0874158, 19.4007495],
      [-99.0875125, 19.4009964],
      [-99.0876661, 19.4012218],
      [-99.0878482, 19.4013613],
      [-99.0880815, 19.4014311],
      [-99.0893902, 19.4016135],
      [-99.0895609, 19.4017209],
      [-99.0896292, 19.4018872],
      [-99.0897430, 19.4022844],
      [-99.0898511, 19.4024508],
      [-99.0900673, 19.4025903],
      [-99.0910687, 19.4031055],
      [-99.0915979, 19.4032665],
      [-99.0948639, 19.4037281],
      [-99.0949834, 19.4037978],
      [-99.0950176, 19.4038676],
      [-99.0950403, 19.4041467],
      [-99.0950915, 19.4048766],
      [-99.0951598, 19.4052361],
      [-99.0952281, 19.4053381],
      [-99.0953191, 19.4053542],
      [-99.0954102, 19.4053381],
      [-99.0955354, 19.4051771],
      [-99.0956492, 19.4050644],
      [-99.0957402, 19.4050429],
      [-99.0958426, 19.4050590],
      [-99.0959735, 19.4051127],
      [-99.0960873, 19.4051717],
      [-99.0967075, 19.4052361],
      [-99.0968156, 19.4052791],
      [-99.0968725, 19.4053864],
      [-99.0968497, 19.4055796],
      [-99.0967758, 19.4057513],
      [-99.0966392, 19.4059660],
      [-99.0964685, 19.4061538],
      [-99.0962352, 19.4063041],
      [-99.0960247, 19.4063846]
    ]
  }
}
