{
  "type": "Feature",
  "properties": {"circuito": "rodriguez", "trazado": "Nacional", "fuente": "OpenStreetMap ways 772755821+1313598528+772754605+638491478+772754608+1128592398+1128592396+605367312+772755822 (© OpenStreetMap contributors, ODbL)"},
  "geometry": {
    "type": "LineString",
    "coordinates": [
      [-99.0958211, 19.4063979],
      [-99.0903614, 19.4057055],
      [-99.0883653, 19.4055013],
      [-99.0849711, 19.4050578],
      [-99.0835378, 19.4048108],
      [-99.0834507, 19.4047444],
      [-99.0834239, 19.4046703],
      [-99.0835154, 19.4039946],
      [-99.0834706, 19.4039388],
      [-99.0831577, 19.4037858],
      [-99.0830769, 19.4037139],
      [-99.0830775, 19.4035843],
      [-99.0831761, 19.4031188],
      [-99.0833474, 19.4026518],
      [-99.0835730, 19.4022230],
      [-99.0852137, 19.3996406],
      [-99.0857140, 19.3988910],
      [-99.0858260, 19.3987388],
      [-99.0860038, 19.3986042],
      [-99.0862091, 19.3985950],
      [-99.0863347, 19.3986192],
      [-99.0865117, 19.3987252],
      [-99.0865878, 19.3988445],
      [-99.0866267, 19.3989797],
      [-99.0866339, 19.3990663],
      [-99.0865165, 19.3999230],
      [-99.0865316, 19.4000278],
      [-99.0865918, 19.4001193],
      [-99.0871558, 19.4004550],
      [-99.0872817, 19.4005589],
      [-99.0874093, 19.4007384],
      [-99.0875892, 19.4011324],
      [-99.0877247, 19.4012705],
      [-99.0878592, 19.4013644],
      [-99.0881361, 19.4014508],
      [-99.0891982, 19.4015840],
      [-99.0893462, 19.4016097],
      [-99.0894674, 19.4016571],
      [-99.0895997, 19.4018011],
      [-99.0897733, 19.4023440],
      [-99.0898608, 19.4024603],
      [-99.0899839, 19.4025603],
      [-99.0909768, 19.4030688],
      [-99.0913659, 19.4032267],
      [-99.0917360, 19.4033029],
      [-99.0955878, 19.4038338],
      [-99.0960562, 19.4039610],
      [-99.0964254, 19.4041919],
      [-99.0966690, 19.4044457],
      [-99.0968233, 19.4047431],
      [-99.0968621, 19.4048859],
      [-99.0968835, 19.4051237],
      [-99.0968705, 19.4053939],
      [-99.0968384, 19.4055657],
      [-99.0967486, 19.4057674],
      [-99.0966346, 19.4059453],
      [-99.0963712, 19.4062213],
      [-99.0960726, 19.4063659]
    ]
  }
}
