{
  "type": "Feature",
  "properties": {"circuito": "rodriguez", "trazado": "Óvalo con Estadio", "fuente": "OpenStreetMap ways 772755821+772754606+772754609+823823138+772754607+772754608+1128592398+1128592396+772755824+823823141+823823140 (© OpenStreetMap contributors, ODbL)"},
  "geometry": {
    "type": "LineString",
    "coordinates": [
      [-99.0958211, 19.4063979],
      [-99.0918011, 19.4058834],
      [-99.0913810, 19.4058852],
      [-99.0913286, 19.4058272],
      [-99.0912439, 19.4056122],
      [-99.0910152, 19.4052680],
      [-99.0909650, 19.4051333],
      [-99.0909051, 19.4048321],
      [-99.0909312, 19.4044653],
      [-99.0910237, 19.4041822],
      [-99.0911171, 19.4039955],
      [-99.0912416, 19.4038475],
      [-99.0915208, 19.4036171],
      [-99.0917244, 19.4035091],
      [-99.0922377, 19.4033699],
      [-99.0949224, 19.4037359],
      [-99.0950010, 19.4038088],
      [-99.0950221, 19.4038595],
      [-99.0950919, 19.4048813],
      [-99.0951784, 19.4052821],
      [-99.0952330, 19.4053479],
      [-99.0953786, 19.4053557],
      [-99.0954635, 19.4052850],
      [-99.0956326, 19.4050739],
      [-99.0957349, 19.4050438],
      [-99.0958387, 19.4050567],
      [-99.0961101, 19.4051717],
      [-99.0967288, 19.4052391],
      [-99.0968145, 19.4052781],
      [-99.0968581, 19.4053453],
      [-99.0968593, 19.4054788],
      [-99.0968145, 19.4056272],
      [-99.0966895, 19.4058674],
      [-99.0965655, 19.4060328],
      [-99.0963712, 19.4062213],
      [-99.0962865, 19.4062758],
      [-99.0960726, 19.4063659]
    ]
  }
}
