{
  "type": "Feature",
  "properties": {"circuito": "watkins_glen", "trazado": "Corto", "fuente": "OpenStreetMap ways 20163576,293208056,293208060,293208062,293208063,293208064,293208065,293208067,293208070,293208074,293208075,428026652 (© OpenStreetMap contributors, ODbL)"},
  "geometry": {
    "type": "LineString",
    "coordinates": [
      [-76.9281486, 42.3442596],
      [-76.9278016, 42.3442541],
      [-76.9265398, 42.3441015],
      [-76.9262909, 42.3440486],
      [-76.9252482, 42.3438992],
      [-76.9249054, 42.3438215],
      [-76.9245904, 42.3437212],
      [-76.9242912, 42.3435652],
      [-76.9239632, 42.3432882],
      [-76.9237700, 42.3430280],
      [-76.9236885, 42.3428730],
      [-76.9235806, 42.3425904],
      [-76.9234209, 42.3417835],
      [-76.9231580, 42.3413448],
      [-76.9229732, 42.3411486],
      [-76.9227256, 42.3409504],
      [-76.9219361, 42.3404710],
      [-76.9216051, 42.3402101],
      [-76.9212359, 42.3398281],
      [-76.9210050, 42.3395055],
      [-76.9208740, 42.3392596],
      [-76.9207587, 42.3389862],
      [-76.9206800, 42.3386445],
      [-76.9204346, 42.3337080],
      [-76.9204706, 42.3335471],
      [-76.9205181, 42.3334703],
      [-76.9207993, 42.3332415],
      [-76.9208321, 42.3331838],
      [-76.9208334, 42.3326346],
      [-76.9207958, 42.3324801],
      [-76.9205319, 42.3322559],
      [-76.9204441, 42.3321191],
      [-76.9203568, 42.3317255],
      [-76.9203266, 42.3313101],
      [-76.9203577, 42.3310129],
      [-76.9204241, 42.3308553],
      [-76.9205372, 42.3307115],
      [-76.9208796, 42.3304313],
      [-76.9211770, 42.3302894],
      [-76.9217307, 42.3302001],
      [-76.9219948, 42.3302165],
      [-76.9222982, 42.3302799],
      [-76.9225906, 42.3303924],
      [-76.9228353, 42.3305450],
      [-76.9230588, 42.3307346],
      [-76.9231874, 42.3309693],
      [-76.9248288, 42.3364852],
      [-76.9249282, 42.3367086],
      [-76.9250105, 42.3368149],
      [-76.9252857, 42.3370217],
      [-76.9255363, 42.3371256],
      [-76.9256816, 42.3371563],
      [-76.9282595, 42.3372802],
      [-76.9285285, 42.3373190],
      [-76.9287734, 42.3374459],
      [-76.9288996, 42.3375593],
      [-76.9290483, 42.3377783],
      [-76.9290792, 42.3379234],
      [-76.9290697, 42.3383123],
      [-76.9286041, 42.3436526],
      [-76.9285379, 42.3440459],
      [-76.9284549, 42.3441438],
      [-76.9282599, 42.3442408]
    ]
  }
}
