{
  "type": "Feature",
  "properties": {"circuito": "villeneuve", "trazado": "Gran Premio", "fuente": "bacinger/f1-circuits (MIT) ca-1978"},
  "geometry": {
    "type": "LineString",
    "coordinates": [
      [-73.5232460, 45.5018160],
      [-73.5227190, 45.5001050],
      [-73.5225940, 45.4995680],
      [-73.5225770, 45.4991250],
      [-73.5227720, 45.4979370],
      [-73.5227360, 45.4977950],
      [-73.5226000, 45.4977060],
      [-73.5220970, 45.4975500],
      [-73.5219970, 45.4974980],
      [-73.5219490, 45.4973950],
      [-73.5219670, 45.4972910],
      [-73.5220380, 45.4971870],
      [-73.5221740, 45.4971070],
      [-73.5223460, 45.4970600],
      [-73.5225710, 45.4970600],
      [-73.5234110, 45.4972150],
      [-73.5238140, 45.4973100],
      [-73.5245650, 45.4976260],
      [-73.5259150, 45.4984650],
      [-73.5260100, 45.4985680],
      [-73.5260330, 45.4986530],
      [-73.5260270, 45.4987380],
      [-73.5259090, 45.4990440],
      [-73.5259270, 45.4991390],
      [-73.5259860, 45.4992190],
      [-73.5269510, 45.5000440],
      [-73.5276430, 45.5004210],
      [-73.5278560, 45.5006190],
      [-73.5279750, 45.5008310],
      [-73.5280580, 45.5010480],
      [-73.5280870, 45.5012220],
      [-73.5280810, 45.5026170],
      [-73.5281460, 45.5027020],
      [-73.5282650, 45.5027680],
      [-73.5284720, 45.5028010],
      [-73.5289100, 45.5027400],
      [-73.5291050, 45.5027780],
      [-73.5292710, 45.5028530],
      [-73.5294960, 45.5030320],
      [-73.5296500, 45.5033010],
      [-73.5298150, 45.5037960],
      [-73.5299400, 45.5050120],
      [-73.5299100, 45.5059740],
      [-73.5298570, 45.5064450],
      [-73.5297150, 45.5071100],
      [-73.5292180, 45.5085140],
      [-73.5291350, 45.5086420],
      [-73.5290160, 45.5086930],
      [-73.5287090, 45.5087220],
      [-73.5284300, 45.5088110],
      [-73.5282820, 45.5089200],
      [-73.5281700, 45.5090470],
      [-73.5280690, 45.5092210],
      [-73.5275780, 45.5106210],
      [-73.5273830, 45.5113800],
      [-73.5272880, 45.5124600],
      [-73.5273240, 45.5128270],
      [-73.5276850, 45.5140720],
      [-73.5276850, 45.5142130],
      [-73.5276020, 45.5142790],
      [-73.5274420, 45.5142980],
      [-73.5273410, 45.5142740],
      [-73.5272700, 45.5142180],
      [-73.5271220, 45.5133270],
      [-73.5270450, 45.5131710],
      [-73.5265540, 45.5124690],
      [-73.5252520, 45.5100840],
      [-73.5234530, 45.5040460],
      [-73.5234700, 45.5039660],
      [-73.5235470, 45.5039040],
      [-73.5236840, 45.5038670],
      [-73.5237720, 45.5038050],
      [-73.5238080, 45.5037350],
      [-73.5238020, 45.5036450],
      [-73.5234880, 45.5026410]
    ]
  }
}
