{
  "type": "Feature",
  "properties": {"circuito": "baku", "trazado": "Gran Premio", "fuente": "bacinger/f1-circuits (MIT) az-2016"},
  "geometry": {
    "type": "LineString",
    "coordinates": [
      [49.8532470, 40.3726880],
      [49.8550230, 40.3732680],
      [49.8551170, 40.3733250],
      [49.8551770, 40.3734090],
      [49.8551890, 40.3734900],
      [49.8551590, 40.3736070],
      [49.8547980, 40.3743190],
      [49.8541880, 40.3752200],
      [49.8536850, 40.3760920],
      [49.8536020, 40.3761340],
      [49.8534960, 40.3761480],
      [49.8497190, 40.3750170],
      [49.8444400, 40.3731930],
      [49.8442800, 40.3730650],
      [49.8442800, 40.3728910],
      [49.8450790, 40.3713120],
      [49.8450850, 40.3711890],
      [49.8449610, 40.3710810],
      [49.8435700, 40.3705810],
      [49.8427830, 40.3702510],
      [49.8417230, 40.3697330],
      [49.8416580, 40.3696670],
      [49.8416820, 40.3695720],
      [49.8418590, 40.3692760],
      [49.8418530, 40.3691910],
      [49.8413620, 40.3688560],
      [49.8389470, 40.3674320],
      [49.8385390, 40.3671500],
      [49.8383670, 40.3670600],
      [49.8381950, 40.3670650],
      [49.8380530, 40.3671830],
      [49.8374140, 40.3686160],
      [49.8373370, 40.3686770],
      [49.8370650, 40.3686960],
      [49.8368340, 40.3688040],
      [49.8366920, 40.3688320],
      [49.8364020, 40.3688180],
      [49.8362480, 40.3688650],
      [49.8361710, 40.3689550],
      [49.8360350, 40.3692940],
      [49.8358750, 40.3694030],
      [49.8357330, 40.3694080],
      [49.8347150, 40.3691390],
      [49.8330930, 40.3685350],
      [49.8320220, 40.3680450],
      [49.8318090, 40.3679130],
      [49.8316430, 40.3677440],
      [49.8314890, 40.3675030],
      [49.8309630, 40.3661410],
      [49.8309270, 40.3659570],
      [49.8310990, 40.3640760],
      [49.8311520, 40.3639580],
      [49.8312820, 40.3638410],
      [49.8334780, 40.3629640],
      [49.8344310, 40.3626620],
      [49.8346200, 40.3626390],
      [49.8348390, 40.3626670],
      [49.8349930, 40.3627470],
      [49.8350940, 40.3628320],
      [49.8359110, 40.3639820],
      [49.8360880, 40.3641560],
      [49.8379760, 40.3654670],
      [49.8381300, 40.3656320],
      [49.8382070, 40.3657920],
      [49.8383730, 40.3666550],
      [49.8384440, 40.3668240],
      [49.8385860, 40.3669850],
      [49.8414690, 40.3687050],
      [49.8418360, 40.3688890],
      [49.8426350, 40.3692000],
      [49.8438600, 40.3695910],
      [49.8449490, 40.3699780],
      [49.8476060, 40.3708450],
      [49.8486840, 40.3712180],
      [49.8514420, 40.3721130]
    ]
  }
}
