{
  "type": "Feature",
  "properties": {"circuito": "milwaukee_mile", "trazado": "Óvalo", "fuente": "OpenStreetMap way 107508989 (© OpenStreetMap contributors, ODbL)"},
  "geometry": {
    "type": "LineString",
    "coordinates": [
      [-88.0120059, 43.0180271],
      [-88.0114856, 43.0178781],
      [-88.0109813, 43.0178506],
      [-88.0107077, 43.0178741],
      [-88.0104234, 43.0179487],
      [-88.0101337, 43.0180624],
      [-88.0098816, 43.0182154],
      [-88.0096938, 43.0183958],
      [-88.0094524, 43.0188351],
      [-88.0093827, 43.0190665],
      [-88.0093183, 43.0214118],
      [-88.0093237, 43.0224707],
      [-88.0093827, 43.0227609],
      [-88.0095007, 43.0230943],
      [-88.0095915, 43.0232525],
      [-88.0097368, 43.0234041],
      [-88.0099728, 43.0235924],
      [-88.0102678, 43.0237294],
      [-88.0105682, 43.0238196],
      [-88.0110308, 43.0238885],
      [-88.0115132, 43.0238538],
      [-88.0116787, 43.0238157],
      [-88.0118691, 43.0237440],
      [-88.0122487, 43.0235416],
      [-88.0124227, 43.0234202],
      [-88.0126284, 43.0231774],
      [-88.0127033, 43.0230512],
      [-88.0128340, 43.0226570],
      [-88.0128910, 43.0215805],
      [-88.0129393, 43.0194979],
      [-88.0129119, 43.0192217],
      [-88.0127408, 43.0186860],
      [-88.0125960, 43.0184585],
      [-88.0123358, 43.0182211]
    ]
  }
}
