{
  "type": "Feature",
  "properties": {"circuito": "north_wilkesboro", "trazado": "Óvalo", "fuente": "OpenStreetMap way 18928710 (© OpenStreetMap contributors, ODbL)"},
  "geometry": {
    "type": "LineString",
    "coordinates": [
      [-81.0715140, 36.1421100],
      [-81.0715536, 36.1431458],
      [-81.0716276, 36.1435039],
      [-81.0717206, 36.1437442],
      [-81.0718252, 36.1438917],
      [-81.0719565, 36.1440202],
      [-81.0722124, 36.1441441],
      [-81.0724360, 36.1441884],
      [-81.0726628, 36.1441728],
      [-81.0728951, 36.1441056],
      [-81.0730868, 36.1440025],
      [-81.0732657, 36.1438555],
      [-81.0733951, 36.1435438],
      [-81.0734069, 36.1432709],
      [-81.0733360, 36.1421556],
      [-81.0732602, 36.1417787],
      [-81.0731640, 36.1415502],
      [-81.0729231, 36.1413153],
      [-81.0727417, 36.1412287],
      [-81.0725307, 36.1411986],
      [-81.0723121, 36.1412003],
      [-81.0720857, 36.1412379],
      [-81.0718938, 36.1413282],
      [-81.0717254, 36.1414439],
      [-81.0716291, 36.1415905],
      [-81.0715368, 36.1419146]
    ]
  }
}
