{
  "type": "Feature",
  "properties": {"circuito": "indianapolis_raceway_park", "trazado": "Óvalo", "fuente": "OpenStreetMap way 123830268 (© OpenStreetMap contributors, ODbL)"},
  "geometry": {
    "type": "LineString",
    "coordinates": [
      [-86.3418184, 39.8125188],
      [-86.3417862, 39.8114515],
      [-86.3416735, 39.8112352],
      [-86.3413758, 39.8109467],
      [-86.3412358, 39.8108620],
      [-86.3410266, 39.8107857],
      [-86.3406060, 39.8107036],
      [-86.3403083, 39.8107222],
      [-86.3401388, 39.8107589],
      [-86.3398201, 39.8108911],
      [-86.3396560, 39.8110021],
      [-86.3395331, 39.8111013],
      [-86.3393561, 39.8113361],
      [-86.3392864, 39.8116246],
      [-86.3393239, 39.8134974],
      [-86.3394017, 39.8137653],
      [-86.3396136, 39.8140392],
      [-86.3397531, 39.8141484],
      [-86.3399403, 39.8142491],
      [-86.3401313, 39.8143194],
      [-86.3405175, 39.8143688],
      [-86.3407187, 39.8143668],
      [-86.3410030, 39.8143214],
      [-86.3414107, 39.8141278],
      [-86.3415984, 39.8139733],
      [-86.3417004, 39.8138290],
      [-86.3417674, 39.8136746],
      [-86.3418125, 39.8134456]
    ]
  }
}
