{
  "type": "Feature",
  "properties": {"circuito": "miguel_e_abed", "trazado": "Completo", "fuente": "OpenStreetMap ways 230507598+230507595+230507596+230507597+677361279 (© OpenStreetMap contributors, ODbL)"},
  "geometry": {
    "type": "LineString",
    "coordinates": [
      [-97.9895380, 19.0283171],
      [-97.9912246, 19.0255906],
      [-97.9912658, 19.0253697],
      [-97.9911951, 19.0252255],
      [-97.9911326, 19.0251621],
      [-97.9905640, 19.0248030],
      [-97.9904996, 19.0247244],
      [-97.9904551, 19.0246240],
      [-97.9904321, 19.0245186],
      [-97.9904487, 19.0244379],
      [-97.9906284, 19.0239231],
      [-97.9906918, 19.0238043],
      [-97.9908118, 19.0237153],
      [-97.9910736, 19.0236609],
      [-97.9912367, 19.0236723],
      [-97.9913982, 19.0237827],
      [-97.9916288, 19.0241656],
      [-97.9916969, 19.0242318],
      [-97.9917792, 19.0242525],
      [-97.9919061, 19.0242227],
      [-97.9919776, 19.0241554],
      [-97.9920660, 19.0239881],
      [-97.9920366, 19.0235976],
      [-97.9919722, 19.0234150],
      [-97.9918783, 19.0232654],
      [-97.9917013, 19.0230676],
      [-97.9915564, 19.0229611],
      [-97.9913246, 19.0228464],
      [-97.9910926, 19.0227758],
      [-97.9908778, 19.0227582],
      [-97.9905935, 19.0227760],
      [-97.9903602, 19.0228418],
      [-97.9900705, 19.0230220],
      [-97.9899118, 19.0231574],
      [-97.9898183, 19.0232781],
      [-97.9892668, 19.0241667],
      [-97.9904728, 19.0251367],
      [-97.9905688, 19.0252867],
      [-97.9905691, 19.0254044],
      [-97.9905265, 19.0255272],
      [-97.9901107, 19.0264680],
      [-97.9900397, 19.0265529],
      [-97.9899290, 19.0266233],
      [-97.9897943, 19.0266505],
      [-97.9896561, 19.0266383],
      [-97.9895662, 19.0265805],
      [-97.9894858, 19.0264806],
      [-97.9894536, 19.0264020],
      [-97.9894535, 19.0263006],
      [-97.9897727, 19.0252864],
      [-97.9897889, 19.0251570],
      [-97.9897500, 19.0250758],
      [-97.9896655, 19.0249972],
      [-97.9895850, 19.0249572],
      [-97.9894831, 19.0249625],
      [-97.9893972, 19.0250085],
      [-97.9882881, 19.0257438],
      [-97.9874637, 19.0271157],
      [-97.9874284, 19.0272406],
      [-97.9874354, 19.0272916],
      [-97.9874525, 19.0273558],
      [-97.9875331, 19.0274645],
      [-97.9876028, 19.0275254],
      [-97.9883378, 19.0279412],
      [-97.9884371, 19.0280489],
      [-97.9884934, 19.0281617],
      [-97.9884984, 19.0283621],
      [-97.9884451, 19.0284812],
      [-97.9879945, 19.0291646],
      [-97.9878845, 19.0292369],
      [-97.9876914, 19.0292483],
      [-97.9876028, 19.0292192],
      [-97.9875085, 19.0291520],
      [-97.9874509, 19.0290773],
      [-97.9874124, 19.0289580],
      [-97.9874124, 19.0288515],
      [-97.9875009, 19.0286816],
      [-97.9877101, 19.0283723],
      [-97.9877450, 19.0282302],
      [-97.9877262, 19.0281041],
      [-97.9876672, 19.0279830],
      [-97.9875653, 19.0278778],
      [-97.9874285, 19.0278093],
      [-97.9873346, 19.0277966],
      [-97.9872541, 19.0277916],
      [-97.9871402, 19.0278219],
      [-97.9870624, 19.0278802],
      [-97.9866748, 19.0284915],
      [-97.9866453, 19.0288236],
      [-97.9866641, 19.0290467],
      [-97.9867244, 19.0292001],
      [-97.9868223, 19.0293738],
      [-97.9869752, 19.0295741],
      [-97.9871308, 19.0296951],
      [-97.9873239, 19.0297958],
      [-97.9875036, 19.0298591],
      [-97.9876780, 19.0298870],
      [-97.9880669, 19.0298675],
      [-97.9885175, 19.0297065],
      [-97.9887294, 19.0295549],
      [-97.9888737, 19.0293909]
    ]
  }
}
