{
  "type": "Feature",
  "properties": {"circuito": "miguel_e_abed", "trazado": "Óvalo", "fuente": "OpenStreetMap ways 230507598 (© OpenStreetMap contributors, ODbL)"},
  "geometry": {
    "type": "LineString",
    "coordinates": [
      [-97.9895380, 19.0283171],
      [-97.9918864, 19.0244876],
      [-97.9920334, 19.0241550],
      [-97.9920660, 19.0239881],
      [-97.9920674, 19.0238245],
      [-97.9920366, 19.0235976],
      [-97.9919722, 19.0234150],
      [-97.9918783, 19.0232654],
      [-97.9917013, 19.0230676],
      [-97.9915564, 19.0229611],
      [-97.9913246, 19.0228464],
      [-97.9910926, 19.0227758],
      [-97.9908778, 19.0227582],
      [-97.9905935, 19.0227760],
      [-97.9903602, 19.0228418],
      [-97.9900705, 19.0230220],
      [-97.9899118, 19.0231574],
      [-97.9898183, 19.0232781],
      [-97.9882881, 19.0257438],
      [-97.9874637, 19.0271157],
      [-97.9869011, 19.0279789],
      [-97.9867606, 19.0282353],
      [-97.9866748, 19.0284915],
      [-97.9866493, 19.0286765],
      [-97.9866641, 19.0290467],
      [-97.9868223, 19.0293738],
      [-97.9869752, 19.0295741],
      [-97.9871308, 19.0296951],
      [-97.9873239, 19.0297958],
      [-97.9875036, 19.0298591],
      [-97.9878483, 19.0298899],
      [-97.9880669, 19.0298675],
      [-97.9885175, 19.0297065],
      [-97.9887294, 19.0295549],
      [-97.9888737, 19.0293909]
    ]
  }
}
