{
  "type": "Feature",
  "properties": {"circuito": "michigan", "trazado": "Óvalo", "fuente": "OpenStreetMap way 205025109 (© OpenStreetMap contributors, ODbL)"},
  "geometry": {
    "type": "LineString",
    "coordinates": [
      [-84.2447582, 42.0676373],
      [-84.2449542, 42.0669241],
      [-84.2450870, 42.0662021],
      [-84.2451424, 42.0656571],
      [-84.2451570, 42.0649285],
      [-84.2450755, 42.0639687],
      [-84.2449422, 42.0632981],
      [-84.2447950, 42.0627625],
      [-84.2445375, 42.0623304],
      [-84.2442329, 42.0619881],
      [-84.2440516, 42.0618330],
      [-84.2436381, 42.0615609],
      [-84.2431672, 42.0613461],
      [-84.2426533, 42.0611953],
      [-84.2421120, 42.0611129],
      [-84.2415596, 42.0611015],
      [-84.2410129, 42.0611615],
      [-84.2403380, 42.0613428],
      [-84.2400958, 42.0614420],
      [-84.2397016, 42.0616630],
      [-84.2393250, 42.0619649],
      [-84.2390339, 42.0622700],
      [-84.2387086, 42.0627657],
      [-84.2385417, 42.0630834],
      [-84.2383348, 42.0635917],
      [-84.2366641, 42.0686569],
      [-84.2364218, 42.0695051],
      [-84.2363550, 42.0699471],
      [-84.2363679, 42.0705133],
      [-84.2364046, 42.0707171],
      [-84.2365302, 42.0710750],
      [-84.2367297, 42.0714139],
      [-84.2369980, 42.0717255],
      [-84.2374936, 42.0721121],
      [-84.2378996, 42.0723265],
      [-84.2381432, 42.0724244],
      [-84.2386602, 42.0725712],
      [-84.2391485, 42.0726445],
      [-84.2394234, 42.0726506],
      [-84.2399413, 42.0726188],
      [-84.2404635, 42.0725235],
      [-84.2411269, 42.0722916],
      [-84.2413538, 42.0721836],
      [-84.2417304, 42.0719580],
      [-84.2420857, 42.0716784],
      [-84.2426603, 42.0711107],
      [-84.2431881, 42.0704963],
      [-84.2436575, 42.0698564],
      [-84.2441587, 42.0690252],
      [-84.2444889, 42.0683390],
      [-84.2446942, 42.0678142]
    ]
  }
}
