{
  "type": "Feature",
  "properties": {"circuito": "jeddah_corniche", "trazado": "Fórmula E", "fuente": "OpenStreetMap ways 1257884699, 1359884755, 1359884756, 1359884757, 1359884758, 1359884760, 1359884764, 1359884765 (© OpenStreetMap contributors, ODbL)"},
  "geometry": {
    "type": "LineString",
    "coordinates": [
      [39.1046393, 21.6322399],
      [39.1037114, 21.6347469],
      [39.1036757, 21.6347933],
      [39.1035727, 21.6348256],
      [39.1035216, 21.6348214],
      [39.1033389, 21.6347389],
      [39.1032087, 21.6347257],
      [39.1030970, 21.6347825],
      [39.1030225, 21.6349018],
      [39.1030762, 21.6352640],
      [39.1032603, 21.6357626],
      [39.1032934, 21.6359192],
      [39.1033075, 21.6362116],
      [39.1032708, 21.6364991],
      [39.1031805, 21.6365686],
      [39.1030184, 21.6365736],
      [39.1029218, 21.6365019],
      [39.1028505, 21.6363237],
      [39.1028071, 21.6356246],
      [39.1026559, 21.6350137],
      [39.1026398, 21.6348330],
      [39.1027084, 21.6346502],
      [39.1027985, 21.6345372],
      [39.1031792, 21.6342459],
      [39.1033289, 21.6340323],
      [39.1033779, 21.6339190],
      [39.1035431, 21.6331724],
      [39.1035109, 21.6329089],
      [39.1034667, 21.6328033],
      [39.1028390, 21.6316776],
      [39.1026950, 21.6313736],
      [39.1025578, 21.6309292],
      [39.1025178, 21.6306587],
      [39.1025061, 21.6303881],
      [39.1025390, 21.6299968],
      [39.1027469, 21.6291284],
      [39.1029611, 21.6284816],
      [39.1031372, 21.6280733],
      [39.1033910, 21.6276253],
      [39.1036241, 21.6272846],
      [39.1039327, 21.6269017],
      [39.1041261, 21.6267031],
      [39.1044405, 21.6264287],
      [39.1047471, 21.6261976],
      [39.1059678, 21.6254079],
      [39.1061708, 21.6253614],
      [39.1063486, 21.6254141],
      [39.1064964, 21.6255633],
      [39.1065320, 21.6256347],
      [39.1065363, 21.6257779],
      [39.1062931, 21.6266658],
      [39.1061281, 21.6275104],
      [39.1058302, 21.6274804],
      [39.1060302, 21.6279418],
      [39.1057018, 21.6293019],
      [39.1055005, 21.6298943],
      [39.1054180, 21.6301255],
      [39.1054683, 21.6301702],
      [39.1057822, 21.6302365],
      [39.1057890, 21.6302598],
      [39.1057621, 21.6302876],
      [39.1053803, 21.6303771],
      [39.1053112, 21.6304245]
    ]
  }
}
