{
  "type": "Feature",
  "properties": {"circuito": "jeddah_corniche", "trazado": "Gran Premio", "fuente": "bacinger/f1-circuits (MIT) sa-2021"},
  "geometry": {
    "type": "LineString",
    "coordinates": [
      [39.1050760, 21.6310530],
      [39.1037150, 21.6347510],
      [39.1036370, 21.6348140],
      [39.1035700, 21.6348220],
      [39.1032590, 21.6347280],
      [39.1031750, 21.6347470],
      [39.1031000, 21.6347820],
      [39.1030420, 21.6348550],
      [39.1030100, 21.6349570],
      [39.1030650, 21.6352430],
      [39.1032940, 21.6359080],
      [39.1033230, 21.6361970],
      [39.1029280, 21.6383830],
      [39.1029020, 21.6387200],
      [39.1028380, 21.6388310],
      [39.1025220, 21.6389470],
      [39.1022560, 21.6391280],
      [39.1020970, 21.6393630],
      [39.1020120, 21.6395980],
      [39.1019980, 21.6398840],
      [39.1020410, 21.6401060],
      [39.1021080, 21.6402350],
      [39.1023260, 21.6405430],
      [39.1024050, 21.6407110],
      [39.1024420, 21.6408860],
      [39.1024190, 21.6411530],
      [39.1023060, 21.6416040],
      [39.1021690, 21.6418040],
      [39.1017680, 21.6420800],
      [39.1016900, 21.6421610],
      [39.1016320, 21.6423660],
      [39.1016490, 21.6432330],
      [39.1016810, 21.6434220],
      [39.1018820, 21.6436620],
      [39.1020410, 21.6437650],
      [39.1025240, 21.6439430],
      [39.1026540, 21.6441370],
      [39.1027880, 21.6448260],
      [39.1030410, 21.6455310],
      [39.1031190, 21.6459790],
      [39.1031450, 21.6462820],
      [39.1030820, 21.6479680],
      [39.1029720, 21.6497060],
      [39.1029290, 21.6498180],
      [39.1028210, 21.6499590],
      [39.1026830, 21.6500470],
      [39.1024710, 21.6501160],
      [39.1022580, 21.6500850],
      [39.1019730, 21.6499260],
      [39.1018540, 21.6497170],
      [39.1017950, 21.6494300],
      [39.1018090, 21.6491720],
      [39.1018640, 21.6489640],
      [39.1023540, 21.6482000],
      [39.1024960, 21.6478430],
      [39.1025510, 21.6476180],
      [39.1025910, 21.6473030],
      [39.1025480, 21.6467750],
      [39.1024420, 21.6464770],
      [39.1020140, 21.6456300],
      [39.1019540, 21.6453110],
      [39.1019580, 21.6449250],
      [39.1018930, 21.6447980],
      [39.1017950, 21.6446890],
      [39.1016410, 21.6446080],
      [39.1013090, 21.6445170],
      [39.1010750, 21.6443330],
      [39.1009660, 21.6441670],
      [39.1008720, 21.6437450],
      [39.1008580, 21.6432060],
      [39.1009220, 21.6427020],
      [39.1010380, 21.6423770],
      [39.1015410, 21.6413190],
      [39.1016470, 21.6409290],
      [39.1016930, 21.6405810],
      [39.1016570, 21.6400410],
      [39.1016610, 21.6396010],
      [39.1017190, 21.6392740],
      [39.1018470, 21.6389120],
      [39.1019620, 21.6386830],
      [39.1025430, 21.6377770],
      [39.1026720, 21.6374740],
      [39.1028070, 21.6370170],
      [39.1028710, 21.6362990],
      [39.1028600, 21.6359510],
      [39.1027370, 21.6352110],
      [39.1026430, 21.6349300],
      [39.1026530, 21.6348090],
      [39.1026900, 21.6346860],
      [39.1027890, 21.6345510],
      [39.1031490, 21.6342700],
      [39.1032740, 21.6341270],
      [39.1033900, 21.6339300],
      [39.1035590, 21.6332060],
      [39.1035610, 21.6330190],
      [39.1034850, 21.6328030],
      [39.1027800, 21.6315340],
      [39.1026490, 21.6312310],
      [39.1025440, 21.6308800],
      [39.1025050, 21.6306320],
      [39.1024890, 21.6304080],
      [39.1025360, 21.6298950],
      [39.1029830, 21.6284040],
      [39.1031690, 21.6280100],
      [39.1034420, 21.6275440],
      [39.1036350, 21.6272890],
      [39.1042160, 21.6266320],
      [39.1046550, 21.6262690],
      [39.1059290, 21.6254510],
      [39.1061670, 21.6253590],
      [39.1063250, 21.6254000],
      [39.1064640, 21.6254820],
      [39.1065520, 21.6256240],
      [39.1065440, 21.6257740],
      [39.1058850, 21.6286470],
      [39.1054510, 21.6300020]
    ]
  }
}
