{
  "type": "Feature",
  "properties": {"circuito": "losail", "trazado": "Gran Premio", "fuente": "bacinger/f1-circuits (MIT) qa-2004"},
  "geometry": {
    "type": "LineString",
    "coordinates": [
      [51.4496810, 25.4890770],
      [51.4475340, 25.4926140],
      [51.4474940, 25.4927990],
      [51.4475200, 25.4929910],
      [51.4475970, 25.4931400],
      [51.4477180, 25.4932490],
      [51.4479040, 25.4933480],
      [51.4481170, 25.4933780],
      [51.4483180, 25.4933450],
      [51.4498570, 25.4925020],
      [51.4500040, 25.4924650],
      [51.4501980, 25.4924590],
      [51.4504210, 25.4925180],
      [51.4506010, 25.4926700],
      [51.4507040, 25.4928360],
      [51.4507290, 25.4930040],
      [51.4506940, 25.4942150],
      [51.4507160, 25.4943800],
      [51.4508450, 25.4946580],
      [51.4531460, 25.4969660],
      [51.4532670, 25.4970550],
      [51.4534540, 25.4971020],
      [51.4536340, 25.4971150],
      [51.4538170, 25.4970720],
      [51.4539600, 25.4969960],
      [51.4546120, 25.4964340],
      [51.4546850, 25.4963150],
      [51.4547180, 25.4961520],
      [51.4547110, 25.4960100],
      [51.4546670, 25.4958710],
      [51.4545720, 25.4957460],
      [51.4531460, 25.4943320],
      [51.4530840, 25.4942290],
      [51.4530800, 25.4941170],
      [51.4531130, 25.4940180],
      [51.4531830, 25.4939450],
      [51.4532860, 25.4938860],
      [51.4534280, 25.4938690],
      [51.4535270, 25.4938950],
      [51.4561470, 25.4948480],
      [51.4563100, 25.4948640],
      [51.4565110, 25.4948380],
      [51.4566800, 25.4947690],
      [51.4568120, 25.4946490],
      [51.4568930, 25.4944970],
      [51.4569250, 25.4943470],
      [51.4569220, 25.4942150],
      [51.4568740, 25.4940890],
      [51.4567720, 25.4939430],
      [51.4564930, 25.4937280],
      [51.4562770, 25.4935040],
      [51.4560970, 25.4932790],
      [51.4559470, 25.4930390],
      [51.4557570, 25.4925660],
      [51.4556830, 25.4922290],
      [51.4556210, 25.4920850],
      [51.4555150, 25.4919630],
      [51.4554010, 25.4918860],
      [51.4552480, 25.4918240],
      [51.4538320, 25.4915130],
      [51.4536130, 25.4913710],
      [51.4535580, 25.4912450],
      [51.4535360, 25.4911230],
      [51.4535610, 25.4909390],
      [51.4537150, 25.4907570],
      [51.4539790, 25.4905160],
      [51.4543860, 25.4902360],
      [51.4548110, 25.4900180],
      [51.4552430, 25.4898790],
      [51.4556750, 25.4897960],
      [51.4560970, 25.4897630],
      [51.4586740, 25.4900150],
      [51.4588680, 25.4899780],
      [51.4590920, 25.4898820],
      [51.4592640, 25.4897630],
      [51.4594250, 25.4895650],
      [51.4599160, 25.4887410],
      [51.4599560, 25.4885990],
      [51.4599560, 25.4884700],
      [51.4599340, 25.4883350],
      [51.4598320, 25.4881630],
      [51.4590700, 25.4870530],
      [51.4589740, 25.4869700],
      [51.4588320, 25.4869110],
      [51.4586850, 25.4868710],
      [51.4584870, 25.4868780],
      [51.4560540, 25.4873210],
      [51.4558810, 25.4873210],
      [51.4557090, 25.4872750],
      [51.4555630, 25.4871850],
      [51.4554600, 25.4870700],
      [51.4537660, 25.4840960],
      [51.4536300, 25.4839540],
      [51.4534760, 25.4838680],
      [51.4532530, 25.4838350],
      [51.4530840, 25.4838520],
      [51.4529190, 25.4839150],
      [51.4527510, 25.4840470]
    ]
  }
}
