{
  "type": "Feature",
  "properties": {"circuito": "silverstone", "trazado": "Gran Premio", "fuente": "bacinger/f1-circuits (MIT) gb-1948"},
  "geometry": {
    "type": "LineString",
    "coordinates": [
      [-1.0153490, 52.0787900],
      [-1.0126200, 52.0789360],
      [-1.0121350, 52.0789180],
      [-1.0117620, 52.0788420],
      [-1.0115190, 52.0787430],
      [-1.0112290, 52.0785360],
      [-1.0110460, 52.0783000],
      [-1.0104770, 52.0770040],
      [-1.0103530, 52.0764570],
      [-1.0101520, 52.0742890],
      [-1.0099800, 52.0740290],
      [-1.0096550, 52.0736660],
      [-1.0095180, 52.0734590],
      [-1.0095240, 52.0733030],
      [-1.0095840, 52.0731200],
      [-1.0100450, 52.0723700],
      [-1.0100750, 52.0720680],
      [-1.0100040, 52.0718520],
      [-1.0098380, 52.0716680],
      [-1.0093820, 52.0712770],
      [-1.0092760, 52.0710970],
      [-1.0092640, 52.0708850],
      [-1.0093410, 52.0706920],
      [-1.0096190, 52.0704800],
      [-1.0099740, 52.0703240],
      [-1.0108380, 52.0700130],
      [-1.0111050, 52.0698530],
      [-1.0114120, 52.0695370],
      [-1.0153370, 52.0650830],
      [-1.0164260, 52.0640410],
      [-1.0167340, 52.0637860],
      [-1.0169820, 52.0636500],
      [-1.0172720, 52.0635600],
      [-1.0175740, 52.0635130],
      [-1.0178520, 52.0635270],
      [-1.0181600, 52.0635700],
      [-1.0184200, 52.0636400],
      [-1.0186510, 52.0637530],
      [-1.0188470, 52.0639330],
      [-1.0192020, 52.0643990],
      [-1.0195330, 52.0647530],
      [-1.0201310, 52.0652240],
      [-1.0208830, 52.0657100],
      [-1.0219540, 52.0664970],
      [-1.0220610, 52.0665390],
      [-1.0222090, 52.0665490],
      [-1.0223560, 52.0665060],
      [-1.0228060, 52.0662560],
      [-1.0229600, 52.0662230],
      [-1.0232440, 52.0662660],
      [-1.0236230, 52.0664970],
      [-1.0238660, 52.0666950],
      [-1.0240430, 52.0669070],
      [-1.0242740, 52.0673690],
      [-1.0242560, 52.0675670],
      [-1.0239550, 52.0678690],
      [-1.0199530, 52.0710690],
      [-1.0198000, 52.0711780],
      [-1.0195330, 52.0712860],
      [-1.0192140, 52.0713330],
      [-1.0189530, 52.0713380],
      [-1.0172540, 52.0712010],
      [-1.0169110, 52.0711920],
      [-1.0161650, 52.0712810],
      [-1.0158460, 52.0713900],
      [-1.0137620, 52.0724080],
      [-1.0134600, 52.0725160],
      [-1.0132890, 52.0725260],
      [-1.0131590, 52.0724970],
      [-1.0130400, 52.0724310],
      [-1.0129690, 52.0723560],
      [-1.0126140, 52.0715920],
      [-1.0125070, 52.0714840],
      [-1.0123600, 52.0714180],
      [-1.0121880, 52.0714130],
      [-1.0119980, 52.0714650],
      [-1.0118030, 52.0716580],
      [-1.0114480, 52.0723280],
      [-1.0113710, 52.0727430],
      [-1.0113950, 52.0729640],
      [-1.0114660, 52.0730630],
      [-1.0116490, 52.0731900],
      [-1.0184030, 52.0769800],
      [-1.0185860, 52.0770510],
      [-1.0188410, 52.0771310],
      [-1.0191540, 52.0771590],
      [-1.0194800, 52.0771360],
      [-1.0198110, 52.0770370],
      [-1.0199300, 52.0769470],
      [-1.0200130, 52.0768150],
      [-1.0201490, 52.0761270],
      [-1.0202260, 52.0759860],
      [-1.0203910, 52.0758720],
      [-1.0206400, 52.0757970],
      [-1.0209120, 52.0757730],
      [-1.0212140, 52.0758210],
      [-1.0214270, 52.0759100],
      [-1.0215570, 52.0760140],
      [-1.0216580, 52.0761360],
      [-1.0216760, 52.0762680],
      [-1.0216340, 52.0764100],
      [-1.0205990, 52.0777010],
      [-1.0203200, 52.0779040],
      [-1.0196570, 52.0782810],
      [-1.0193380, 52.0784180],
      [-1.0185860, 52.0785920],
      [-1.0178460, 52.0786490]
    ]
  }
}
