{
  "type": "Feature",
  "properties": {"circuito": "brands_hatch", "trazado": "Gran Premio", "fuente": "OpenStreetMap ways 4906929, 25804641, 25804653, 25804669, 25804824, 25804846, 25804875, 25804935, 25804993, 25804999, 25805012, 25805047, 25805049, 25805072, 171570161, 171570162, 171570163, 171570164, 171570165, 171570166, 171570167, 171570251, 171570252, 820329314, 820329315 (© OpenStreetMap contributors, ODbL)"},
  "geometry": {
    "type": "LineString",
    "coordinates": [
      [0.2613811, 51.3606143],
      [0.2618200, 51.3607336],
      [0.2622920, 51.3608278],
      [0.2628512, 51.3608867],
      [0.2632614, 51.3608957],
      [0.2635833, 51.3608625],
      [0.2638529, 51.3608013],
      [0.2641877, 51.3606079],
      [0.2643383, 51.3604279],
      [0.2644879, 51.3601108],
      [0.2645707, 51.3595039],
      [0.2645863, 51.3592993],
      [0.2645106, 51.3583356],
      [0.2644807, 51.3581826],
      [0.2643856, 51.3580705],
      [0.2641958, 51.3579813],
      [0.2639589, 51.3579621],
      [0.2637717, 51.3580025],
      [0.2636034, 51.3581087],
      [0.2635455, 51.3582552],
      [0.2634629, 51.3593244],
      [0.2631039, 51.3598714],
      [0.2630088, 51.3599395],
      [0.2628778, 51.3599879],
      [0.2627335, 51.3600099],
      [0.2625425, 51.3599971],
      [0.2609390, 51.3597231],
      [0.2601756, 51.3594977],
      [0.2589378, 51.3590615],
      [0.2587386, 51.3589619],
      [0.2584739, 51.3587249],
      [0.2583765, 51.3585048],
      [0.2584425, 51.3582608],
      [0.2587236, 51.3580791],
      [0.2590346, 51.3579944],
      [0.2612611, 51.3576672],
      [0.2619692, 51.3575271],
      [0.2674015, 51.3558795],
      [0.2677781, 51.3557305],
      [0.2679913, 51.3556068],
      [0.2681714, 51.3554636],
      [0.2682787, 51.3553389],
      [0.2683420, 51.3552066],
      [0.2683734, 51.3550678],
      [0.2683573, 51.3548299],
      [0.2682871, 51.3546597],
      [0.2672405, 51.3528795],
      [0.2671115, 51.3527280],
      [0.2669234, 51.3526389],
      [0.2656017, 51.3525163],
      [0.2651837, 51.3525258],
      [0.2637874, 51.3528293],
      [0.2634860, 51.3529113],
      [0.2630552, 51.3530960],
      [0.2622080, 51.3536766],
      [0.2621119, 51.3537597],
      [0.2620879, 51.3538332],
      [0.2621327, 51.3543901],
      [0.2626196, 51.3556811],
      [0.2626215, 51.3557978],
      [0.2625215, 51.3559717],
      [0.2623133, 51.3560815],
      [0.2620688, 51.3561399],
      [0.2569347, 51.3573017],
      [0.2566958, 51.3574282],
      [0.2565330, 51.3575971],
      [0.2564399, 51.3577310],
      [0.2563914, 51.3578926],
      [0.2564413, 51.3582761],
      [0.2565645, 51.3585298],
      [0.2567101, 51.3587208],
      [0.2568501, 51.3588874],
      [0.2571469, 51.3591294],
      [0.2574436, 51.3593105],
      [0.2581880, 51.3596307],
      [0.2590558, 51.3599268],
      [0.2603255, 51.3603129]
    ]
  }
}
