{
  "type": "Feature",
  "properties": {"circuito": "hungaroring", "trazado": "Gran Premio", "fuente": "bacinger/f1-circuits (MIT) hu-1986"},
  "geometry": {
    "type": "LineString",
    "coordinates": [
      [19.2458880, 47.5802600],
      [19.2424390, 47.5821110],
      [19.2423260, 47.5822710],
      [19.2423380, 47.5823610],
      [19.2424680, 47.5824780],
      [19.2427170, 47.5825260],
      [19.2435460, 47.5825160],
      [19.2439540, 47.5824690],
      [19.2443270, 47.5823940],
      [19.2447180, 47.5822900],
      [19.2452380, 47.5820730],
      [19.2474110, 47.5809130],
      [19.2475700, 47.5808570],
      [19.2478780, 47.5808330],
      [19.2481390, 47.5808950],
      [19.2482450, 47.5809510],
      [19.2483930, 47.5810780],
      [19.2484460, 47.5811630],
      [19.2484580, 47.5813470],
      [19.2483700, 47.5815260],
      [19.2477480, 47.5822380],
      [19.2476830, 47.5823700],
      [19.2476710, 47.5824740],
      [19.2477070, 47.5825630],
      [19.2478130, 47.5827800],
      [19.2497190, 47.5853680],
      [19.2499380, 47.5856320],
      [19.2505120, 47.5861130],
      [19.2506250, 47.5862540],
      [19.2506360, 47.5863340],
      [19.2500450, 47.5878380],
      [19.2500330, 47.5879460],
      [19.2500920, 47.5881540],
      [19.2501570, 47.5882530],
      [19.2502750, 47.5883330],
      [19.2505650, 47.5884550],
      [19.2508970, 47.5884700],
      [19.2512880, 47.5883800],
      [19.2521160, 47.5879840],
      [19.2535190, 47.5869660],
      [19.2535720, 47.5868860],
      [19.2535840, 47.5867580],
      [19.2533530, 47.5865890],
      [19.2533240, 47.5865420],
      [19.2533300, 47.5864570],
      [19.2537730, 47.5853110],
      [19.2539270, 47.5851130],
      [19.2540810, 47.5850140],
      [19.2541880, 47.5849910],
      [19.2552470, 47.5848780],
      [19.2554250, 47.5848310],
      [19.2556320, 47.5847270],
      [19.2557150, 47.5846370],
      [19.2557800, 47.5844630],
      [19.2557800, 47.5843590],
      [19.2555370, 47.5832330],
      [19.2555490, 47.5829400],
      [19.2556620, 47.5827090],
      [19.2565020, 47.5818040],
      [19.2565850, 47.5816680],
      [19.2566090, 47.5814840],
      [19.2565610, 47.5812950],
      [19.2564070, 47.5811260],
      [19.2536790, 47.5790280],
      [19.2532410, 47.5786980],
      [19.2531340, 47.5786560],
      [19.2529390, 47.5786560],
      [19.2528560, 47.5786890],
      [19.2518970, 47.5794100],
      [19.2510860, 47.5798720],
      [19.2508500, 47.5799470],
      [19.2507070, 47.5799610],
      [19.2505830, 47.5799520],
      [19.2504170, 47.5799000],
      [19.2503170, 47.5798250],
      [19.2502040, 47.5796740],
      [19.2502100, 47.5794850],
      [19.2502690, 47.5793960],
      [19.2503460, 47.5793250],
      [19.2519090, 47.5784580],
      [19.2520330, 47.5782640],
      [19.2520570, 47.5781320],
      [19.2520390, 47.5780100],
      [19.2519090, 47.5778070],
      [19.2517970, 47.5777220],
      [19.2516130, 47.5776420],
      [19.2514240, 47.5775900],
      [19.2512170, 47.5775710],
      [19.2509980, 47.5775900],
      [19.2508020, 47.5776420],
      [19.2506190, 47.5777270]
    ]
  }
}
