{
  "type": "Feature",
  "properties": {"circuito": "fuji", "trazado": "Gran Premio", "fuente": "OpenStreetMap way 148622740 (© OpenStreetMap contributors, ODbL)"},
  "geometry": {
    "type": "LineString",
    "coordinates": [
      [138.9330873, 35.3761155],
      [138.9333313, 35.3762935],
      [138.9334873, 35.3763495],
      [138.9335831, 35.3763454],
      [138.9337038, 35.3763019],
      [138.9338148, 35.3761693],
      [138.9338281, 35.3760588],
      [138.9336873, 35.3752146],
      [138.9336115, 35.3749800],
      [138.9335416, 35.3748788],
      [138.9310389, 35.3723045],
      [138.9309632, 35.3721687],
      [138.9309785, 35.3720378],
      [138.9310300, 35.3718981],
      [138.9315316, 35.3710672],
      [138.9316214, 35.3708318],
      [138.9316670, 35.3705755],
      [138.9316571, 35.3702564],
      [138.9315899, 35.3699125],
      [138.9314338, 35.3695818],
      [138.9312426, 35.3693909],
      [138.9309317, 35.3692421],
      [138.9304047, 35.3691059],
      [138.9300373, 35.3690945],
      [138.9297946, 35.3691595],
      [138.9295383, 35.3692786],
      [138.9293630, 35.3694192],
      [138.9283336, 35.3705611],
      [138.9282478, 35.3706023],
      [138.9281237, 35.3706202],
      [138.9279663, 35.3705760],
      [138.9278581, 35.3704859],
      [138.9276955, 35.3702764],
      [138.9275755, 35.3700238],
      [138.9275223, 35.3697820],
      [138.9275261, 35.3693489],
      [138.9276671, 35.3683182],
      [138.9276176, 35.3679567],
      [138.9275101, 35.3677201],
      [138.9267684, 35.3664944],
      [138.9265436, 35.3662433],
      [138.9262657, 35.3660206],
      [138.9240548, 35.3647231],
      [138.9239620, 35.3647155],
      [138.9238672, 35.3647824],
      [138.9238228, 35.3651552],
      [138.9237779, 35.3652242],
      [138.9236962, 35.3652854],
      [138.9235480, 35.3653193],
      [138.9231099, 35.3652430],
      [138.9227928, 35.3652700],
      [138.9221389, 35.3655674],
      [138.9217859, 35.3658195],
      [138.9216619, 35.3659546],
      [138.9216294, 35.3661517],
      [138.9217301, 35.3663489],
      [138.9219262, 35.3664845],
      [138.9225654, 35.3667858],
      [138.9227605, 35.3669408],
      [138.9228836, 35.3671325],
      [138.9229214, 35.3673704],
      [138.9228654, 35.3676269],
      [138.9227248, 35.3678577],
      [138.9225636, 35.3680275],
      [138.9225101, 35.3680522],
      [138.9223624, 35.3680591],
      [138.9222341, 35.3680021],
      [138.9215849, 35.3674247],
      [138.9212909, 35.3672308],
      [138.9209622, 35.3670716],
      [138.9207128, 35.3670136],
      [138.9204734, 35.3670264],
      [138.9201955, 35.3670994],
      [138.9200853, 35.3671693],
      [138.9200123, 35.3672715],
      [138.9199865, 35.3673730],
      [138.9200178, 35.3675139],
      [138.9200867, 35.3675998],
      [138.9220170, 35.3688634]
    ]
  }
}
