{
  "type": "Feature",
  "properties": {"circuito": "vegas", "trazado": "Gran Premio", "fuente": "bacinger/f1-circuits (MIT) us-2023"},
  "geometry": {
    "type": "LineString",
    "coordinates": [
      [-115.1612020, 36.1099040],
      [-115.1604590, 36.1105780],
      [-115.1603660, 36.1107050],
      [-115.1603350, 36.1108560],
      [-115.1604140, 36.1109920],
      [-115.1605430, 36.1110790],
      [-115.1607750, 36.1111500],
      [-115.1609960, 36.1111790],
      [-115.1612090, 36.1111690],
      [-115.1614080, 36.1111210],
      [-115.1618440, 36.1109090],
      [-115.1622470, 36.1105860],
      [-115.1624020, 36.1105030],
      [-115.1627410, 36.1104420],
      [-115.1629240, 36.1104450],
      [-115.1632550, 36.1105350],
      [-115.1634380, 36.1106170],
      [-115.1636080, 36.1107340],
      [-115.1638900, 36.1110420],
      [-115.1640040, 36.1113030],
      [-115.1640820, 36.1190350],
      [-115.1640230, 36.1191520],
      [-115.1639080, 36.1192110],
      [-115.1613420, 36.1191840],
      [-115.1610330, 36.1192420],
      [-115.1605590, 36.1196040],
      [-115.1604020, 36.1197830],
      [-115.1601950, 36.1201450],
      [-115.1601070, 36.1206270],
      [-115.1601170, 36.1207810],
      [-115.1602250, 36.1208360],
      [-115.1605110, 36.1208620],
      [-115.1606110, 36.1209130],
      [-115.1606970, 36.1210200],
      [-115.1607310, 36.1211870],
      [-115.1607150, 36.1213090],
      [-115.1604380, 36.1216960],
      [-115.1602740, 36.1219770],
      [-115.1603160, 36.1221640],
      [-115.1605410, 36.1222840],
      [-115.1609590, 36.1223220],
      [-115.1640890, 36.1223860],
      [-115.1652450, 36.1225220],
      [-115.1656270, 36.1226710],
      [-115.1660490, 36.1230220],
      [-115.1664110, 36.1236070],
      [-115.1669650, 36.1246590],
      [-115.1673210, 36.1249620],
      [-115.1676900, 36.1251670],
      [-115.1680650, 36.1252790],
      [-115.1686520, 36.1254320],
      [-115.1693180, 36.1255400],
      [-115.1694090, 36.1255220],
      [-115.1694960, 36.1254680],
      [-115.1696330, 36.1251580],
      [-115.1707540, 36.1234180],
      [-115.1716050, 36.1222150],
      [-115.1720130, 36.1214660],
      [-115.1726250, 36.1197830],
      [-115.1727440, 36.1193190],
      [-115.1729400, 36.1181600],
      [-115.1729910, 36.1172790],
      [-115.1729710, 36.1146790],
      [-115.1731040, 36.1117420],
      [-115.1731810, 36.1085770],
      [-115.1731180, 36.1085040],
      [-115.1730320, 36.1084800],
      [-115.1728260, 36.1084830],
      [-115.1726740, 36.1084360],
      [-115.1723320, 36.1081590],
      [-115.1720330, 36.1080210],
      [-115.1716350, 36.1079580],
      [-115.1699020, 36.1079280],
      [-115.1648590, 36.1079510],
      [-115.1641130, 36.1080350],
      [-115.1633330, 36.1081550],
      [-115.1629660, 36.1083130],
      [-115.1628350, 36.1084130]
    ]
  }
}
