{
  "type": "Feature",
  "properties": {"circuito": "gateway", "trazado": "Óvalo", "fuente": "OpenStreetMap ways 180008394, 1015873402, 1015873403 (© OpenStreetMap contributors, ODbL)"},
  "geometry": {
    "type": "LineString",
    "coordinates": [
      [-90.1377373, 38.6527263],
      [-90.1361277, 38.6481735],
      [-90.1359169, 38.6477243],
      [-90.1358363, 38.6476028],
      [-90.1355931, 38.6474048],
      [-90.1352321, 38.6472240],
      [-90.1350835, 38.6471792],
      [-90.1349042, 38.6471447],
      [-90.1346281, 38.6471428],
      [-90.1342851, 38.6471881],
      [-90.1341100, 38.6472397],
      [-90.1338827, 38.6473447],
      [-90.1337139, 38.6474712],
      [-90.1336129, 38.6475870],
      [-90.1334003, 38.6479631],
      [-90.1333597, 38.6481316],
      [-90.1334303, 38.6487302],
      [-90.1343146, 38.6530583],
      [-90.1345878, 38.6540308],
      [-90.1346472, 38.6541308],
      [-90.1348298, 38.6543341],
      [-90.1351055, 38.6545748],
      [-90.1356959, 38.6547935],
      [-90.1359991, 38.6548380],
      [-90.1362779, 38.6548346],
      [-90.1366112, 38.6547789],
      [-90.1368895, 38.6546754],
      [-90.1371241, 38.6545798],
      [-90.1374259, 38.6543905],
      [-90.1377263, 38.6540303],
      [-90.1378873, 38.6535108],
      [-90.1378850, 38.6532496],
      [-90.1377883, 38.6528962]
    ]
  }
}
