{
  "type": "Feature",
  "properties": {"circuito": "interlagos", "trazado": "Gran Premio", "fuente": "bacinger/f1-circuits (MIT) br-1940"},
  "geometry": {
    "type": "LineString",
    "coordinates": [
      [-46.6999050, -23.7037440],
      [-46.6992680, -23.7060000],
      [-46.6992070, -23.7061240],
      [-46.6990690, -23.7063120],
      [-46.6989980, -23.7063650],
      [-46.6988960, -23.7064030],
      [-46.6986840, -23.7063830],
      [-46.6986260, -23.7063550],
      [-46.6982020, -23.7059780],
      [-46.6980210, -23.7059440],
      [-46.6978890, -23.7059830],
      [-46.6976090, -23.7061400],
      [-46.6972220, -23.7062630],
      [-46.6969330, -23.7062880],
      [-46.6965750, -23.7062350],
      [-46.6963840, -23.7061720],
      [-46.6962050, -23.7060770],
      [-46.6960280, -23.7059500],
      [-46.6958850, -23.7058120],
      [-46.6956880, -23.7055270],
      [-46.6956180, -23.7053720],
      [-46.6953440, -23.7045430],
      [-46.6940520, -23.6999600],
      [-46.6940330, -23.6998500],
      [-46.6940450, -23.6997470],
      [-46.6941340, -23.6995940],
      [-46.6943720, -23.6994750],
      [-46.6953260, -23.6993180],
      [-46.6956240, -23.6993480],
      [-46.6957790, -23.6993900],
      [-46.6960460, -23.6995340],
      [-46.6961760, -23.6996320],
      [-46.6964720, -23.6999580],
      [-46.6982400, -23.7021780],
      [-46.6983270, -23.7022660],
      [-46.6985620, -23.7023660],
      [-46.6987140, -23.7023840],
      [-46.6990940, -23.7023560],
      [-46.6993230, -23.7022760],
      [-46.6995080, -23.7021840],
      [-46.6996000, -23.7021090],
      [-46.6997200, -23.7019280],
      [-46.6997650, -23.7017830],
      [-46.6999290, -23.7010130],
      [-46.6999380, -23.7007130],
      [-46.6998990, -23.7005980],
      [-46.6997920, -23.7005190],
      [-46.6996620, -23.7004940],
      [-46.6995830, -23.7005120],
      [-46.6995000, -23.7005420],
      [-46.6991860, -23.7007470],
      [-46.6989720, -23.7007930],
      [-46.6987920, -23.7007490],
      [-46.6986690, -23.7006560],
      [-46.6986000, -23.7005620],
      [-46.6985630, -23.7004590],
      [-46.6985720, -23.7002690],
      [-46.6987100, -23.7000600],
      [-46.6991040, -23.6997050],
      [-46.6993710, -23.6993910],
      [-46.6994500, -23.6991930],
      [-46.6995540, -23.6986640],
      [-46.6995440, -23.6985540],
      [-46.6994580, -23.6984340],
      [-46.6993430, -23.6984030],
      [-46.6991980, -23.6984420],
      [-46.6984990, -23.6991610],
      [-46.6983220, -23.6992800],
      [-46.6981190, -23.6993500],
      [-46.6979010, -23.6993780],
      [-46.6975900, -23.6993540],
      [-46.6974450, -23.6993110],
      [-46.6972910, -23.6992300],
      [-46.6971350, -23.6991140],
      [-46.6970480, -23.6990090],
      [-46.6961200, -23.6976490],
      [-46.6960950, -23.6975310],
      [-46.6961500, -23.6974000],
      [-46.6962190, -23.6973410],
      [-46.6963820, -23.6972630],
      [-46.6971000, -23.6970180],
      [-46.6973140, -23.6969780],
      [-46.6977680, -23.6970350],
      [-46.6982320, -23.6971260],
      [-46.6988430, -23.6973520],
      [-46.6992030, -23.6975300],
      [-46.6993460, -23.6976190],
      [-46.6995920, -23.6978240],
      [-46.6997830, -23.6980610],
      [-46.6999310, -23.6983980],
      [-46.7000350, -23.6987530],
      [-46.7001480, -23.6992000],
      [-46.7002230, -23.6996210],
      [-46.7005070, -23.7006420],
      [-46.7005310, -23.7008120],
      [-46.7005220, -23.7013170],
      [-46.7004890, -23.7015220],
      [-46.7000530, -23.7031950]
    ]
  }
}
