{
  "type": "Feature",
  "properties": {"circuito": "zandvoort", "trazado": "Gran Premio", "fuente": "bacinger/f1-circuits (MIT) nl-1948"},
  "geometry": {
    "type": "LineString",
    "coordinates": [
      [4.5404910, 52.3884080],
      [4.5427060, 52.3916450],
      [4.5428440, 52.3917410],
      [4.5430310, 52.3917950],
      [4.5432350, 52.3918110],
      [4.5434240, 52.3917870],
      [4.5436020, 52.3917130],
      [4.5437260, 52.3916200],
      [4.5437920, 52.3915040],
      [4.5437970, 52.3913750],
      [4.5431110, 52.3903680],
      [4.5429470, 52.3900160],
      [4.5428810, 52.3896490],
      [4.5429160, 52.3893050],
      [4.5428630, 52.3891650],
      [4.5427380, 52.3890710],
      [4.5424880, 52.3889470],
      [4.5414760, 52.3887050],
      [4.5412850, 52.3886170],
      [4.5412260, 52.3883700],
      [4.5413030, 52.3882510],
      [4.5414470, 52.3881660],
      [4.5416270, 52.3881210],
      [4.5419030, 52.3881250],
      [4.5432640, 52.3883900],
      [4.5438960, 52.3884620],
      [4.5444410, 52.3884730],
      [4.5449230, 52.3884510],
      [4.5453790, 52.3884040],
      [4.5462360, 52.3882740],
      [4.5467270, 52.3882480],
      [4.5474940, 52.3883590],
      [4.5479980, 52.3885140],
      [4.5485900, 52.3887500],
      [4.5489910, 52.3888660],
      [4.5493480, 52.3889290],
      [4.5498190, 52.3889610],
      [4.5501900, 52.3889560],
      [4.5517370, 52.3888980],
      [4.5520940, 52.3888480],
      [4.5524250, 52.3887470],
      [4.5526600, 52.3886240],
      [4.5529580, 52.3883430],
      [4.5530360, 52.3881700],
      [4.5530610, 52.3879870],
      [4.5530330, 52.3878080],
      [4.5529470, 52.3876260],
      [4.5527610, 52.3874280],
      [4.5520500, 52.3868360],
      [4.5517880, 52.3865730],
      [4.5511940, 52.3857900],
      [4.5509090, 52.3857290],
      [4.5505570, 52.3857040],
      [4.5498230, 52.3857550],
      [4.5494110, 52.3858410],
      [4.5489700, 52.3859700],
      [4.5485330, 52.3861600],
      [4.5482630, 52.3863430],
      [4.5482140, 52.3864550],
      [4.5482570, 52.3865730],
      [4.5484250, 52.3867210],
      [4.5486650, 52.3868150],
      [4.5490180, 52.3868940],
      [4.5496210, 52.3869520],
      [4.5502020, 52.3870410],
      [4.5507320, 52.3871650],
      [4.5510250, 52.3872910],
      [4.5511360, 52.3874420],
      [4.5511510, 52.3876070],
      [4.5510560, 52.3877710],
      [4.5508110, 52.3879200],
      [4.5505910, 52.3879670],
      [4.5494480, 52.3880520],
      [4.5482970, 52.3880500],
      [4.5470740, 52.3879600],
      [4.5460400, 52.3878010],
      [4.5446940, 52.3875180],
      [4.5440190, 52.3873430],
      [4.5432670, 52.3870910],
      [4.5431230, 52.3871080],
      [4.5428440, 52.3873880],
      [4.5426460, 52.3874630],
      [4.5423920, 52.3874690],
      [4.5421440, 52.3873980],
      [4.5420120, 52.3872890],
      [4.5419510, 52.3871720],
      [4.5425660, 52.3849600],
      [4.5425780, 52.3848280],
      [4.5425170, 52.3846930],
      [4.5424190, 52.3845790],
      [4.5423240, 52.3845060],
      [4.5420890, 52.3844090],
      [4.5418380, 52.3843740],
      [4.5407740, 52.3843630],
      [4.5402410, 52.3844000],
      [4.5399140, 52.3844650],
      [4.5396450, 52.3845400],
      [4.5392870, 52.3847120],
      [4.5388950, 52.3850650],
      [4.5387790, 52.3852850],
      [4.5387420, 52.3854780],
      [4.5387750, 52.3857930],
      [4.5388730, 52.3860170],
      [4.5404080, 52.3882900]
    ]
  }
}
