{
  "type": "Feature",
  "properties": {"circuito": "daytona", "trazado": "Óvalo", "fuente": "OpenStreetMap ways 11371365, 352067004, 352070309, 352070311, 352070316 (© OpenStreetMap contributors, ODbL)"},
  "geometry": {
    "type": "LineString",
    "coordinates": [
      [-81.0740035, 29.1850845],
      [-81.0747238, 29.1825517],
      [-81.0748618, 29.1818471],
      [-81.0749014, 29.1813883],
      [-81.0748810, 29.1809679],
      [-81.0747878, 29.1805677],
      [-81.0746465, 29.1802322],
      [-81.0743011, 29.1797407],
      [-81.0738594, 29.1793229],
      [-81.0735107, 29.1790872],
      [-81.0729282, 29.1788215],
      [-81.0725024, 29.1787037],
      [-81.0722459, 29.1786589],
      [-81.0720385, 29.1786354],
      [-81.0715842, 29.1786346],
      [-81.0713594, 29.1786556],
      [-81.0709260, 29.1787390],
      [-81.0704001, 29.1789168],
      [-81.0700238, 29.1791127],
      [-81.0697220, 29.1793219],
      [-81.0693806, 29.1796125],
      [-81.0691687, 29.1798250],
      [-81.0632394, 29.1869508],
      [-81.0630285, 29.1872542],
      [-81.0628573, 29.1875201],
      [-81.0627346, 29.1877691],
      [-81.0625823, 29.1882128],
      [-81.0625121, 29.1885759],
      [-81.0625033, 29.1888743],
      [-81.0625486, 29.1892696],
      [-81.0626806, 29.1897071],
      [-81.0628540, 29.1900390],
      [-81.0632575, 29.1905718],
      [-81.0635628, 29.1908381],
      [-81.0637563, 29.1909729],
      [-81.0641567, 29.1912003],
      [-81.0647085, 29.1913997],
      [-81.0653389, 29.1915076],
      [-81.0658548, 29.1915070],
      [-81.0664797, 29.1913993],
      [-81.0671573, 29.1911696],
      [-81.0680111, 29.1907559],
      [-81.0709197, 29.1891492],
      [-81.0716499, 29.1887236],
      [-81.0720904, 29.1883981],
      [-81.0726526, 29.1878667],
      [-81.0730491, 29.1873734],
      [-81.0734093, 29.1867640],
      [-81.0738401, 29.1856023]
    ]
  }
}
