{
  "type": "Feature",
  "properties": {"circuito": "lime_rock", "trazado": "Completo", "fuente": "OpenStreetMap ways 17179697,293189359,293189360,293189363,293189364,293189368,293189369,293189371,293189372,293189374,293189385,293189389,341048663 (© OpenStreetMap contributors, ODbL)"},
  "geometry": {
    "type": "LineString",
    "coordinates": [
      [-73.3828061, 41.9291934],
      [-73.3783157, 41.9277037],
      [-73.3781318, 41.9275507],
      [-73.3780427, 41.9274376],
      [-73.3779552, 41.9271933],
      [-73.3779520, 41.9270501],
      [-73.3780277, 41.9268326],
      [-73.3782245, 41.9265941],
      [-73.3784700, 41.9264320],
      [-73.3787703, 41.9263602],
      [-73.3790102, 41.9263711],
      [-73.3792822, 41.9264554],
      [-73.3798267, 41.9267189],
      [-73.3803933, 41.9269561],
      [-73.3805566, 41.9269995],
      [-73.3808891, 41.9270061],
      [-73.3810550, 41.9269752],
      [-73.3812661, 41.9268892],
      [-73.3814344, 41.9267669],
      [-73.3815159, 41.9266256],
      [-73.3815435, 41.9265072],
      [-73.3815027, 41.9260197],
      [-73.3815219, 41.9258039],
      [-73.3816057, 41.9256631],
      [-73.3817234, 41.9255749],
      [-73.3818840, 41.9254841],
      [-73.3820695, 41.9254137],
      [-73.3828280, 41.9252052],
      [-73.3830944, 41.9251421],
      [-73.3832947, 41.9251194],
      [-73.3835241, 41.9251191],
      [-73.3843737, 41.9252105],
      [-73.3847496, 41.9252136],
      [-73.3861351, 41.9251135],
      [-73.3864088, 41.9251215],
      [-73.3866204, 41.9251612],
      [-73.3867947, 41.9252289],
      [-73.3869784, 41.9253430],
      [-73.3871443, 41.9254948],
      [-73.3873611, 41.9257740],
      [-73.3886131, 41.9277293],
      [-73.3886218, 41.9280183],
      [-73.3885494, 41.9281941],
      [-73.3884252, 41.9283629],
      [-73.3881350, 41.9286180],
      [-73.3869287, 41.9295832],
      [-73.3865891, 41.9297941],
      [-73.3862996, 41.9299392],
      [-73.3860450, 41.9300213],
      [-73.3857391, 41.9300592],
      [-73.3853240, 41.9300290],
      [-73.3849416, 41.9299194],
      [-73.3839532, 41.9295768]
    ]
  }
}
