{
  "type": "Feature",
  "properties": {"circuito": "markham", "trazado": "Callejero", "fuente": "OpenStreetMap way 1548558439 'Streets of Markham' (© OpenStreetMap contributors, ODbL)"},
  "geometry": {
    "type": "LineString",
    "coordinates": [
      [-79.3138363, 43.8510961],
      [-79.3137360, 43.8516474],
      [-79.3137006, 43.8516745],
      [-79.3135672, 43.8516961],
      [-79.3134657, 43.8517395],
      [-79.3132665, 43.8518510],
      [-79.3131565, 43.8522025],
      [-79.3130112, 43.8523393],
      [-79.3127072, 43.8524563],
      [-79.3114276, 43.8527807],
      [-79.3113078, 43.8528309],
      [-79.3112470, 43.8528902],
      [-79.3112256, 43.8529960],
      [-79.3112788, 43.8532420],
      [-79.3116818, 43.8541232],
      [-79.3118271, 43.8542961],
      [-79.3119693, 43.8544071],
      [-79.3121448, 43.8544889],
      [-79.3122739, 43.8544703],
      [-79.3123557, 43.8544175],
      [-79.3128664, 43.8538010],
      [-79.3131538, 43.8535496],
      [-79.3134856, 43.8533283],
      [-79.3138974, 43.8531289],
      [-79.3142415, 43.8530086],
      [-79.3162708, 43.8525126],
      [-79.3164687, 43.8524381],
      [-79.3168819, 43.8522266],
      [-79.3170116, 43.8522526],
      [-79.3170584, 43.8523015],
      [-79.3170467, 43.8523473],
      [-79.3168927, 43.8523793],
      [-79.3164105, 43.8525850],
      [-79.3161182, 43.8526771],
      [-79.3143687, 43.8530975],
      [-79.3140168, 43.8532159],
      [-79.3137216, 43.8533444],
      [-79.3133477, 43.8535669],
      [-79.3130444, 43.8538123],
      [-79.3123483, 43.8546364],
      [-79.3121462, 43.8548199],
      [-79.3116546, 43.8551497],
      [-79.3113523, 43.8552992],
      [-79.3110446, 43.8554171],
      [-79.3100345, 43.8556452],
      [-79.3080070, 43.8560398],
      [-79.3065439, 43.8563903],
      [-79.3061158, 43.8564332],
      [-79.3058572, 43.8564032],
      [-79.3053934, 43.8562231],
      [-79.3053102, 43.8561374],
      [-79.3052834, 43.8560645],
      [-79.3053904, 43.8559016],
      [-79.3065217, 43.8546679],
      [-79.3070608, 43.8540447],
      [-79.3074644, 43.8535238],
      [-79.3075990, 43.8534827],
      [-79.3078008, 43.8534678],
      [-79.3081062, 43.8534939],
      [-79.3084996, 43.8534827],
      [-79.3086963, 43.8534454],
      [-79.3088412, 43.8533969],
      [-79.3088822, 43.8533566],
      [-79.3089154, 43.8532056],
      [-79.3085831, 43.8524670],
      [-79.3085427, 43.8523303],
      [-79.3085443, 43.8521816],
      [-79.3087858, 43.8512265],
      [-79.3088708, 43.8510826],
      [-79.3089752, 43.8509947],
      [-79.3093817, 43.8507605],
      [-79.3095903, 43.8506717],
      [-79.3112308, 43.8502906],
      [-79.3115254, 43.8502630],
      [-79.3123993, 43.8503210],
      [-79.3125626, 43.8503064],
      [-79.3126920, 43.8502578],
      [-79.3127490, 43.8501832],
      [-79.3128162, 43.8499779],
      [-79.3129062, 43.8498892],
      [-79.3134375, 43.8497584],
      [-79.3135667, 43.8497502],
      [-79.3137899, 43.8497871],
      [-79.3139554, 43.8498687],
      [-79.3139759, 43.8499340],
      [-79.3139361, 43.8502906]
    ]
  }
}
