{
  "type": "Feature",
  "properties": {"circuito": "martinsville", "trazado": "Óvalo", "fuente": "OpenStreetMap ways 402168721, 448515177, 448515178 (© OpenStreetMap contributors, ODbL)"},
  "geometry": {
    "type": "LineString",
    "coordinates": [
      [-79.8513394, 36.6333965],
      [-79.8505823, 36.6348410],
      [-79.8505370, 36.6350025],
      [-79.8505269, 36.6351236],
      [-79.8506376, 36.6353577],
      [-79.8507433, 36.6354627],
      [-79.8509042, 36.6355354],
      [-79.8510401, 36.6355676],
      [-79.8511960, 36.6355717],
      [-79.8513922, 36.6355192],
      [-79.8515331, 36.6354465],
      [-79.8516739, 36.6353375],
      [-79.8517745, 36.6352084],
      [-79.8522374, 36.6342314],
      [-79.8527606, 36.6332343],
      [-79.8527807, 36.6329719],
      [-79.8527455, 36.6328589],
      [-79.8526851, 36.6327700],
      [-79.8524587, 36.6326287],
      [-79.8523279, 36.6326005],
      [-79.8520110, 36.6326207],
      [-79.8518450, 36.6326732],
      [-79.8517242, 36.6327499],
      [-79.8516136, 36.6328750],
      [-79.8515280, 36.6330365]
    ]
  }
}
