{
  "type": "Feature",
  "properties": {"circuito": "sepang", "trazado": "Gran Premio", "fuente": "bacinger/f1-circuits (MIT) my-1999"},
  "geometry": {
    "type": "LineString",
    "coordinates": [
      [101.7356410, 2.7605290],
      [101.7329420, 2.7603070],
      [101.7328180, 2.7603170],
      [101.7327060, 2.7603730],
      [101.7326290, 2.7604540],
      [101.7325870, 2.7605640],
      [101.7325820, 2.7606880],
      [101.7326270, 2.7608180],
      [101.7327320, 2.7609160],
      [101.7328740, 2.7609610],
      [101.7330400, 2.7609280],
      [101.7333480, 2.7608180],
      [101.7334510, 2.7608350],
      [101.7335380, 2.7609210],
      [101.7335660, 2.7610260],
      [101.7335380, 2.7611640],
      [101.7332360, 2.7615610],
      [101.7331470, 2.7617180],
      [101.7330890, 2.7619040],
      [101.7330610, 2.7620910],
      [101.7330610, 2.7623030],
      [101.7331120, 2.7628250],
      [101.7331940, 2.7630700],
      [101.7333230, 2.7633200],
      [101.7334530, 2.7634810],
      [101.7336530, 2.7636620],
      [101.7338630, 2.7638000],
      [101.7353190, 2.7642840],
      [101.7362440, 2.7646480],
      [101.7374000, 2.7651530],
      [101.7375030, 2.7651490],
      [101.7375920, 2.7650930],
      [101.7377960, 2.7640220],
      [101.7380490, 2.7629290],
      [101.7381570, 2.7626980],
      [101.7382780, 2.7625330],
      [101.7384860, 2.7623670],
      [101.7386920, 2.7622570],
      [101.7388970, 2.7622060],
      [101.7390980, 2.7621970],
      [101.7393270, 2.7622320],
      [101.7395610, 2.7623230],
      [101.7397270, 2.7624420],
      [101.7400510, 2.7627890],
      [101.7402100, 2.7628850],
      [101.7404600, 2.7629710],
      [101.7406730, 2.7629780],
      [101.7408830, 2.7629500],
      [101.7410530, 2.7628800],
      [101.7412050, 2.7627590],
      [101.7430200, 2.7606910],
      [101.7430300, 2.7605900],
      [101.7426790, 2.7597820],
      [101.7425860, 2.7597170],
      [101.7424760, 2.7596910],
      [101.7408190, 2.7595950],
      [101.7392630, 2.7594130],
      [101.7384100, 2.7592730],
      [101.7383290, 2.7592070],
      [101.7383030, 2.7590980],
      [101.7383750, 2.7589760],
      [101.7389830, 2.7586400],
      [101.7391160, 2.7585060],
      [101.7392090, 2.7583080],
      [101.7392560, 2.7581020],
      [101.7392490, 2.7578080],
      [101.7392090, 2.7575610],
      [101.7391540, 2.7573200],
      [101.7390090, 2.7570120],
      [101.7387920, 2.7566970],
      [101.7386730, 2.7566220],
      [101.7385590, 2.7566030],
      [101.7384300, 2.7566270],
      [101.7364260, 2.7582590],
      [101.7362930, 2.7583080],
      [101.7361220, 2.7583180],
      [101.7359350, 2.7582710],
      [101.7352420, 2.7579160],
      [101.7350570, 2.7578580],
      [101.7348370, 2.7578280],
      [101.7346440, 2.7578300],
      [101.7342840, 2.7578950],
      [101.7340390, 2.7579960],
      [101.7338800, 2.7581220],
      [101.7336670, 2.7584020],
      [101.7335920, 2.7586120],
      [101.7335810, 2.7587400],
      [101.7336700, 2.7588840],
      [101.7338610, 2.7589630],
      [101.7414000, 2.7603480],
      [101.7415080, 2.7604430],
      [101.7415870, 2.7606250],
      [101.7415470, 2.7607770],
      [101.7414100, 2.7609190],
      [101.7411850, 2.7609540]
    ]
  }
}
