{
  "type": "Feature",
  "properties": {"circuito": "rockingham", "trazado": "Óvalo", "fuente": "OpenStreetMap way 245545526 (© OpenStreetMap contributors, ODbL)"},
  "geometry": {
    "type": "LineString",
    "coordinates": [
      [-79.6112422, 34.9758518],
      [-79.6115537, 34.9758121],
      [-79.6128382, 34.9755134],
      [-79.6132551, 34.9753409],
      [-79.6134700, 34.9752055],
      [-79.6136628, 34.9750324],
      [-79.6138704, 34.9746727],
      [-79.6139255, 34.9744455],
      [-79.6139255, 34.9742152],
      [-79.6138924, 34.9740196],
      [-79.6137087, 34.9736855],
      [-79.6134461, 34.9734522],
      [-79.6132790, 34.9733559],
      [-79.6128382, 34.9731768],
      [-79.6125305, 34.9731378],
      [-79.6083936, 34.9732084],
      [-79.6080979, 34.9732549],
      [-79.6078169, 34.9733755],
      [-79.6075488, 34.9735501],
      [-79.6073155, 34.9738044],
      [-79.6071980, 34.9740136],
      [-79.6071117, 34.9742920],
      [-79.6071355, 34.9746462],
      [-79.6072654, 34.9749505],
      [-79.6074368, 34.9751825],
      [-79.6075407, 34.9752847],
      [-79.6078109, 34.9754698],
      [-79.6082500, 34.9756322],
      [-79.6088082, 34.9757465],
      [-79.6094510, 34.9758450],
      [-79.6098861, 34.9758721],
      [-79.6110524, 34.9758657]
    ]
  }
}
