{
  "type": "Feature",
  "properties": {"circuito": "talladega", "trazado": "Óvalo", "fuente": "OpenStreetMap ways 8835825, 426163859, 426163860, 532106116 (© OpenStreetMap contributors, ODbL)"},
  "geometry": {
    "type": "LineString",
    "coordinates": [
      [-86.0709309, 33.5696732],
      [-86.0711939, 33.5684551],
      [-86.0712883, 33.5679116],
      [-86.0713141, 33.5674896],
      [-86.0712883, 33.5670248],
      [-86.0712197, 33.5665241],
      [-86.0711383, 33.5661496],
      [-86.0709450, 33.5656230],
      [-86.0707390, 33.5651796],
      [-86.0704987, 33.5648005],
      [-86.0700352, 33.5641783],
      [-86.0670066, 33.5607136],
      [-86.0663575, 33.5602132],
      [-86.0657500, 33.5598859],
      [-86.0654533, 33.5597711],
      [-86.0651408, 33.5596828],
      [-86.0645524, 33.5595788],
      [-86.0639670, 33.5595723],
      [-86.0633919, 33.5596367],
      [-86.0628218, 33.5597912],
      [-86.0625624, 33.5598864],
      [-86.0621148, 33.5601133],
      [-86.0619328, 33.5602303],
      [-86.0616667, 33.5604520],
      [-86.0612719, 33.5608669],
      [-86.0611088, 33.5610743],
      [-86.0608960, 33.5615012],
      [-86.0607514, 33.5619231],
      [-86.0607097, 33.5621837],
      [-86.0606849, 33.5624516],
      [-86.0607184, 33.5631094],
      [-86.0607950, 33.5635246],
      [-86.0631430, 33.5721310],
      [-86.0633404, 33.5727174],
      [-86.0634949, 33.5730749],
      [-86.0636923, 33.5734039],
      [-86.0639886, 33.5737778],
      [-86.0643876, 33.5741619],
      [-86.0646450, 33.5743478],
      [-86.0651600, 33.5746196],
      [-86.0656922, 33.5748127],
      [-86.0659840, 33.5748770],
      [-86.0667994, 33.5749557],
      [-86.0672944, 33.5749477],
      [-86.0677950, 33.5748484],
      [-86.0683787, 33.5746625],
      [-86.0689967, 33.5743478],
      [-86.0694001, 33.5740332],
      [-86.0697207, 33.5737108],
      [-86.0700695, 33.5732108],
      [-86.0702498, 33.5727674],
      [-86.0703785, 33.5722311]
    ]
  }
}
