{
  "type": "Feature",
  "properties": {"circuito": "yas_marina", "trazado": "Gran Premio", "fuente": "bacinger/f1-circuits (MIT) ae-2009"},
  "geometry": {
    "type": "LineString",
    "coordinates": [
      [54.6054630, 24.4699700],
      [54.6078300, 24.4702620],
      [54.6079550, 24.4703000],
      [54.6080490, 24.4703890],
      [54.6081140, 24.4705120],
      [54.6081260, 24.4706340],
      [54.6077120, 24.4722280],
      [54.6076470, 24.4723880],
      [54.6075580, 24.4725060],
      [54.6074100, 24.4726190],
      [54.6072860, 24.4726750],
      [54.6066150, 24.4728650],
      [54.6062260, 24.4730710],
      [54.6060760, 24.4732000],
      [54.6058790, 24.4734220],
      [54.6057770, 24.4736440],
      [54.6057400, 24.4738130],
      [54.6057370, 24.4739970],
      [54.6057780, 24.4742150],
      [54.6060210, 24.4750270],
      [54.6060800, 24.4754590],
      [54.6060860, 24.4757660],
      [54.6057240, 24.4783620],
      [54.6057010, 24.4784430],
      [54.6056300, 24.4785260],
      [54.6055090, 24.4786170],
      [54.6053520, 24.4786480],
      [54.6051860, 24.4786050],
      [54.6051220, 24.4785460],
      [54.6050340, 24.4783990],
      [54.6048870, 24.4780010],
      [54.6047470, 24.4774250],
      [54.6026530, 24.4717360],
      [54.6024530, 24.4710680],
      [54.6020300, 24.4698380],
      [54.6015800, 24.4686220],
      [54.6015800, 24.4684940],
      [54.6016250, 24.4684470],
      [54.6017270, 24.4684440],
      [54.6021870, 24.4684850],
      [54.6022540, 24.4684120],
      [54.6025120, 24.4675330],
      [54.6026470, 24.4672260],
      [54.6027700, 24.4670060],
      [54.6030350, 24.4666550],
      [54.6033370, 24.4663350],
      [54.6037170, 24.4660380],
      [54.6056950, 24.4646100],
      [54.6059840, 24.4644220],
      [54.6067010, 24.4640210],
      [54.6084520, 24.4632730],
      [54.6087630, 24.4631590],
      [54.6089380, 24.4631580],
      [54.6091230, 24.4631920],
      [54.6092920, 24.4632810],
      [54.6094420, 24.4634380],
      [54.6095360, 24.4636650],
      [54.6095560, 24.4637690],
      [54.6095400, 24.4639410],
      [54.6094480, 24.4641870],
      [54.6093690, 24.4642950],
      [54.6091180, 24.4644780],
      [54.6089710, 24.4645370],
      [54.6087570, 24.4645650],
      [54.6070610, 24.4646890],
      [54.6067620, 24.4647320],
      [54.6066670, 24.4647630],
      [54.6056640, 24.4653440],
      [54.6056020, 24.4654160],
      [54.6055360, 24.4655700],
      [54.6053240, 24.4664730],
      [54.6053380, 24.4665440],
      [54.6053870, 24.4665920],
      [54.6054610, 24.4666110],
      [54.6062170, 24.4667140],
      [54.6063630, 24.4667750],
      [54.6064230, 24.4668310],
      [54.6064830, 24.4669340],
      [54.6064970, 24.4670610],
      [54.6064990, 24.4676860],
      [54.6064440, 24.4677930],
      [54.6063760, 24.4678570],
      [54.6062730, 24.4678930],
      [54.6058450, 24.4679410],
      [54.6041050, 24.4677090],
      [54.6037960, 24.4677060],
      [54.6035110, 24.4677680],
      [54.6033540, 24.4679100],
      [54.6026500, 24.4690520],
      [54.6026060, 24.4692910],
      [54.6026040, 24.4694230],
      [54.6026280, 24.4695130],
      [54.6026860, 24.4695780],
      [54.6027580, 24.4696110],
      [54.6029230, 24.4696380]
    ]
  }
}
