{
  "type": "Feature",
  "properties": {"circuito": "monterrey", "trazado": "Completo", "fuente": "OpenStreetMap way 346649664 (© OpenStreetMap contributors, ODbL)"},
  "geometry": {
    "type": "LineString",
    "coordinates": [
      [-100.2180877, 25.8596189],
      [-100.2183962, 25.8567127],
      [-100.2187398, 25.8531356],
      [-100.2184353, 25.8528877],
      [-100.2184027, 25.8528310],
      [-100.2183980, 25.8527511],
      [-100.2184984, 25.8521691],
      [-100.2183755, 25.8516060],
      [-100.2184263, 25.8506722],
      [-100.2183999, 25.8503946],
      [-100.2183177, 25.8502632],
      [-100.2182598, 25.8502122],
      [-100.2181838, 25.8501730],
      [-100.2179926, 25.8501339],
      [-100.2177650, 25.8501479],
      [-100.2175842, 25.8502322],
      [-100.2175060, 25.8503992],
      [-100.2174682, 25.8506722],
      [-100.2173496, 25.8510068],
      [-100.2170205, 25.8514146],
      [-100.2169143, 25.8516422],
      [-100.2169083, 25.8517904],
      [-100.2169592, 25.8519978],
      [-100.2173242, 25.8525281],
      [-100.2173634, 25.8526337],
      [-100.2173934, 25.8528493],
      [-100.2173834, 25.8529391],
      [-100.2172573, 25.8532106],
      [-100.2168882, 25.8537443],
      [-100.2168155, 25.8538893],
      [-100.2167778, 25.8540296],
      [-100.2167635, 25.8544223],
      [-100.2168226, 25.8544974],
      [-100.2170176, 25.8546214],
      [-100.2170335, 25.8546636],
      [-100.2170193, 25.8547519],
      [-100.2168210, 25.8551592],
      [-100.2168275, 25.8556107],
      [-100.2168028, 25.8557126],
      [-100.2166921, 25.8559690],
      [-100.2164527, 25.8562234],
      [-100.2162524, 25.8564836],
      [-100.2161204, 25.8566677],
      [-100.2160242, 25.8568567],
      [-100.2159891, 25.8571473],
      [-100.2160059, 25.8572619],
      [-100.2163688, 25.8583612],
      [-100.2164012, 25.8586078],
      [-100.2164035, 25.8588645],
      [-100.2163604, 25.8591685],
      [-100.2162408, 25.8595095],
      [-100.2161600, 25.8596894],
      [-100.2156444, 25.8605697],
      [-100.2156686, 25.8606626],
      [-100.2159690, 25.8609561],
      [-100.2160452, 25.8610768],
      [-100.2160537, 25.8611975],
      [-100.2159754, 25.8615586],
      [-100.2160117, 25.8617063],
      [-100.2162897, 25.8620724],
      [-100.2165650, 25.8621279],
      [-100.2167242, 25.8621356],
      [-100.2170260, 25.8620907],
      [-100.2173295, 25.8619755],
      [-100.2175112, 25.8618656],
      [-100.2176820, 25.8616973],
      [-100.2178294, 25.8614666],
      [-100.2178882, 25.8613120],
      [-100.2179528, 25.8608904]
    ]
  }
}
