{
  "type": "Feature",
  "properties": {"circuito": "red_bull_ring", "trazado": "Gran Premio", "fuente": "bacinger/f1-circuits (MIT) at-1969"},
  "geometry": {
    "type": "LineString",
    "coordinates": [
      [14.7651190, 47.2200230],
      [14.7611480, 47.2192940],
      [14.7609530, 47.2192840],
      [14.7608230, 47.2193640],
      [14.7606040, 47.2196520],
      [14.7591590, 47.2210140],
      [14.7585680, 47.2216550],
      [14.7580290, 47.2222870],
      [14.7569040, 47.2239410],
      [14.7565310, 47.2243510],
      [14.7559570, 47.2248280],
      [14.7541220, 47.2260770],
      [14.7540690, 47.2261570],
      [14.7540750, 47.2262420],
      [14.7541760, 47.2262840],
      [14.7544070, 47.2263120],
      [14.7551290, 47.2263690],
      [14.7565970, 47.2263830],
      [14.7573070, 47.2263360],
      [14.7581300, 47.2262460],
      [14.7606450, 47.2259160],
      [14.7617930, 47.2258130],
      [14.7642730, 47.2257420],
      [14.7644750, 47.2256950],
      [14.7645990, 47.2256010],
      [14.7646460, 47.2254970],
      [14.7646340, 47.2253880],
      [14.7645690, 47.2252850],
      [14.7641250, 47.2248840],
      [14.7637640, 47.2246670],
      [14.7633680, 47.2245210],
      [14.7628880, 47.2244130],
      [14.7623670, 47.2243560],
      [14.7618230, 47.2243800],
      [14.7597100, 47.2246110],
      [14.7594260, 47.2245870],
      [14.7591950, 47.2245310],
      [14.7589940, 47.2244360],
      [14.7588160, 47.2243090],
      [14.7587040, 47.2241580],
      [14.7586440, 47.2239930],
      [14.7586330, 47.2238420],
      [14.7586680, 47.2236770],
      [14.7587330, 47.2235550],
      [14.7597570, 47.2223390],
      [14.7599290, 47.2222110],
      [14.7602010, 47.2220940],
      [14.7605150, 47.2220460],
      [14.7608170, 47.2220650],
      [14.7611360, 47.2221550],
      [14.7613320, 47.2222630],
      [14.7617220, 47.2225980],
      [14.7619240, 47.2227390],
      [14.7621660, 47.2228520],
      [14.7624500, 47.2229660],
      [14.7628470, 47.2230650],
      [14.7632610, 47.2231260],
      [14.7693280, 47.2232110],
      [14.7695880, 47.2231490],
      [14.7698020, 47.2230410],
      [14.7699730, 47.2228950],
      [14.7701030, 47.2227020],
      [14.7706480, 47.2214150],
      [14.7705590, 47.2212730],
      [14.7700920, 47.2210570],
      [14.7693580, 47.2208260],
      [14.7688960, 47.2207220]
    ]
  }
}
