{
  "type": "Feature",
  "properties": {"circuito": "sonoma", "trazado": "Chute", "fuente": "OpenStreetMap ways 116036857,230287122,505453048,834724050,834728156,913592144,1494191149 (© OpenStreetMap contributors, ODbL)"},
  "geometry": {
    "type": "LineString",
    "coordinates": [
      [-122.4532190, 38.1604900],
      [-122.4533357, 38.1606313],
      [-122.4535011, 38.1607621],
      [-122.4554550, 38.1619831],
      [-122.4556026, 38.1620420],
      [-122.4558677, 38.1620981],
      [-122.4571156, 38.1621101],
      [-122.4574503, 38.1620694],
      [-122.4577420, 38.1619440],
      [-122.4581204, 38.1616843],
      [-122.4582780, 38.1614953],
      [-122.4584076, 38.1612606],
      [-122.4586044, 38.1610681],
      [-122.4587675, 38.1610151],
      [-122.4589308, 38.1609951],
      [-122.4590754, 38.1610020],
      [-122.4592498, 38.1610623],
      [-122.4596092, 38.1612813],
      [-122.4600985, 38.1616592],
      [-122.4605534, 38.1620574],
      [-122.4608622, 38.1624258],
      [-122.4610667, 38.1625688],
      [-122.4611683, 38.1626047],
      [-122.4613444, 38.1626240],
      [-122.4620981, 38.1625979],
      [-122.4622236, 38.1626432],
      [-122.4623712, 38.1627343],
      [-122.4624846, 38.1628402],
      [-122.4639952, 38.1646488],
      [-122.4640124, 38.1647230],
      [-122.4639894, 38.1647802],
      [-122.4634096, 38.1654114],
      [-122.4627303, 38.1660744],
      [-122.4620924, 38.1667739],
      [-122.4619637, 38.1668388],
      [-122.4618638, 38.1668462],
      [-122.4617712, 38.1668251],
      [-122.4616360, 38.1667104],
      [-122.4614427, 38.1662531],
      [-122.4608452, 38.1658230],
      [-122.4605877, 38.1657083],
      [-122.4601619, 38.1656325],
      [-122.4600255, 38.1655830],
      [-122.4596693, 38.1653371],
      [-122.4593997, 38.1650870],
      [-122.4591520, 38.1649588],
      [-122.4588389, 38.1648805],
      [-122.4582853, 38.1648890],
      [-122.4580699, 38.1648728],
      [-122.4577694, 38.1647700],
      [-122.4574578, 38.1645834],
      [-122.4572101, 38.1643282],
      [-122.4565365, 38.1634138],
      [-122.4563305, 38.1632181],
      [-122.4559099, 38.1629414],
      [-122.4555065, 38.1627187],
      [-122.4550938, 38.1625310],
      [-122.4545683, 38.1624009],
      [-122.4537997, 38.1623079],
      [-122.4536146, 38.1622520],
      [-122.4533415, 38.1621032],
      [-122.4531251, 38.1619083],
      [-122.4528730, 38.1614970],
      [-122.4520654, 38.1594297],
      [-122.4518716, 38.1588705],
      [-122.4518716, 38.1587704],
      [-122.4519221, 38.1586636],
      [-122.4520476, 38.1585873],
      [-122.4522239, 38.1585761],
      [-122.4523553, 38.1586225],
      [-122.4524626, 38.1587047],
      [-122.4531788, 38.1604236]
    ]
  }
}
