{
  "type": "Feature",
  "properties": {"circuito": "darlington", "trazado": "Óvalo", "fuente": "OpenStreetMap ways 104277971 (© OpenStreetMap contributors, ODbL)"},
  "geometry": {
    "type": "LineString",
    "coordinates": [
      [-79.9059285, 34.2936173],
      [-79.9036083, 34.2931509],
      [-79.9032161, 34.2930985],
      [-79.9029403, 34.2930877],
      [-79.9026346, 34.2931330],
      [-79.9022745, 34.2932460],
      [-79.9020879, 34.2933313],
      [-79.9016871, 34.2935858],
      [-79.9013944, 34.2938893],
      [-79.9012060, 34.2941863],
      [-79.9010856, 34.2945041],
      [-79.9010333, 34.2948445],
      [-79.9010496, 34.2951260],
      [-79.9011598, 34.2955017],
      [-79.9013216, 34.2957915],
      [-79.9015684, 34.2960752],
      [-79.9018703, 34.2963162],
      [-79.9022062, 34.2964844],
      [-79.9026443, 34.2966048],
      [-79.9078841, 34.2971104],
      [-79.9085494, 34.2971128],
      [-79.9088822, 34.2970521],
      [-79.9093019, 34.2968902],
      [-79.9095476, 34.2967336],
      [-79.9098008, 34.2964869],
      [-79.9099431, 34.2962840],
      [-79.9100492, 34.2960456],
      [-79.9101105, 34.2957391],
      [-79.9101036, 34.2955073],
      [-79.9100278, 34.2951963],
      [-79.9099205, 34.2949777],
      [-79.9096841, 34.2946864],
      [-79.9094596, 34.2945073],
      [-79.9092733, 34.2943983],
      [-79.9090906, 34.2943171],
      [-79.9086071, 34.2941739],
      [-79.9077186, 34.2939865]
    ]
  }
}
