{
  "type": "Feature",
  "properties": {"circuito": "detroit", "trazado": "Callejero", "fuente": "OpenStreetMap ways 8732681,8734148,8734150,8740420,8752315,44667419,46380295,59511849,68304728,68309429,90546623,107561927,107606556,107606558,118727178,118727224,119410886,120432126,188307569,219846872,270520094,475334648,507295710,552920202,637351951,672409594,742989462,782534926,782534927,1324281406,1446468572,1446468573 (© OpenStreetMap contributors, ODbL); lazo armado con las calles del trazado oficial (Jefferson Ave, Bates St, Atwater St, St. Antoine St, Franklin St, Rivard St); ubicación de la horquilla de la curva 3 en Jefferson Ave estimada del plano"},
  "geometry": {
    "type": "LineString",
    "coordinates": [
      [-83.0352703, 42.3310558],
      [-83.0332866, 42.3319296],
      [-83.0341651, 42.3332805],
      [-83.0348511, 42.3329760],
      [-83.0350451, 42.3329665],
      [-83.0363658, 42.3324056],
      [-83.0382812, 42.3315767],
      [-83.0394491, 42.3310234],
      [-83.0448136, 42.3287320],
      [-83.0449128, 42.3286322],
      [-83.0454927, 42.3283447],
      [-83.0453732, 42.3281934],
      [-83.0445802, 42.3284630],
      [-83.0434502, 42.3289408],
      [-83.0421891, 42.3273308],
      [-83.0409665, 42.3278505],
      [-83.0408692, 42.3277583],
      [-83.0406939, 42.3276588],
      [-83.0405593, 42.3276315],
      [-83.0404336, 42.3276387],
      [-83.0397145, 42.3279042],
      [-83.0391149, 42.3281569],
      [-83.0366886, 42.3292415],
      [-83.0373489, 42.3301673],
      [-83.0353591, 42.3310171]
    ]
  }
}
