{
  "type": "Feature",
  "properties": {"circuito": "new_hampshire", "trazado": "Óvalo", "fuente": "OpenStreetMap ways 60096117, 766389942, 766389943, 766389944, 766389945 (© OpenStreetMap contributors, ODbL)"},
  "geometry": {
    "type": "LineString",
    "coordinates": [
      [-71.4586108, 43.3631743],
      [-71.4581262, 43.3641921],
      [-71.4580551, 43.3644943],
      [-71.4580697, 43.3646987],
      [-71.4581336, 43.3648980],
      [-71.4582448, 43.3650861],
      [-71.4583999, 43.3652569],
      [-71.4587038, 43.3654694],
      [-71.4589447, 43.3655754],
      [-71.4592075, 43.3656489],
      [-71.4595789, 43.3656925],
      [-71.4599541, 43.3656715],
      [-71.4603167, 43.3655854],
      [-71.4605440, 43.3654913],
      [-71.4608377, 43.3653026],
      [-71.4610479, 43.3650829],
      [-71.4611468, 43.3649194],
      [-71.4617079, 43.3637870],
      [-71.4628788, 43.3612231],
      [-71.4629464, 43.3608635],
      [-71.4629201, 43.3606543],
      [-71.4628377, 43.3604450],
      [-71.4626775, 43.3602392],
      [-71.4625388, 43.3601045],
      [-71.4623586, 43.3599797],
      [-71.4621910, 43.3598931],
      [-71.4617927, 43.3597637],
      [-71.4614097, 43.3597172],
      [-71.4611767, 43.3597277],
      [-71.4608087, 43.3597925],
      [-71.4605262, 43.3598910],
      [-71.4602072, 43.3600739],
      [-71.4600841, 43.3601791],
      [-71.4598962, 43.3604250],
      [-71.4587388, 43.3628936]
    ]
  }
}
