{
  "type": "Feature",
  "properties": {"circuito": "mid_ohio", "trazado": "Completo", "fuente": "OpenStreetMap ways 444205375,1315957511,1315957512,1315957513,1315957514,1315957515 (© OpenStreetMap contributors, ODbL)"},
  "geometry": {
    "type": "LineString",
    "coordinates": [
      [-82.6378778, 40.6895789],
      [-82.6383446, 40.6895589],
      [-82.6386069, 40.6894855],
      [-82.6387143, 40.6894327],
      [-82.6388446, 40.6893597],
      [-82.6390423, 40.6891953],
      [-82.6391683, 40.6890134],
      [-82.6392282, 40.6888410],
      [-82.6392457, 40.6885911],
      [-82.6391870, 40.6876083],
      [-82.6391414, 40.6859438],
      [-82.6389966, 40.6842882],
      [-82.6390221, 40.6842089],
      [-82.6391287, 40.6840609],
      [-82.6392058, 40.6839953],
      [-82.6394204, 40.6838977],
      [-82.6396135, 40.6838814],
      [-82.6398549, 40.6839384],
      [-82.6399488, 40.6839943],
      [-82.6400815, 40.6841285],
      [-82.6401151, 40.6842069],
      [-82.6401586, 40.6843694],
      [-82.6403109, 40.6874855],
      [-82.6403109, 40.6881608],
      [-82.6402564, 40.6884307],
      [-82.6400827, 40.6889332],
      [-82.6396564, 40.6898041],
      [-82.6383810, 40.6922294],
      [-82.6382300, 40.6923571],
      [-82.6381507, 40.6923910],
      [-82.6378730, 40.6924271],
      [-82.6377085, 40.6923994],
      [-82.6370019, 40.6920955],
      [-82.6367073, 40.6920596],
      [-82.6365195, 40.6921090],
      [-82.6363593, 40.6922305],
      [-82.6362891, 40.6923259],
      [-82.6362632, 40.6924243],
      [-82.6363079, 40.6933900],
      [-82.6362768, 40.6935156],
      [-82.6361612, 40.6936240],
      [-82.6360286, 40.6936771],
      [-82.6358868, 40.6936906],
      [-82.6350282, 40.6936567],
      [-82.6348702, 40.6936855],
      [-82.6342933, 40.6940607],
      [-82.6338774, 40.6944740],
      [-82.6337073, 40.6945293],
      [-82.6325936, 40.6945741],
      [-82.6324936, 40.6945603],
      [-82.6323244, 40.6944941],
      [-82.6322206, 40.6944100],
      [-82.6321496, 40.6943090],
      [-82.6321025, 40.6942104],
      [-82.6320465, 40.6939389],
      [-82.6319724, 40.6926500],
      [-82.6320167, 40.6922429],
      [-82.6321417, 40.6918825],
      [-82.6322860, 40.6916577],
      [-82.6324663, 40.6914329],
      [-82.6329295, 40.6909465],
      [-82.6330139, 40.6907241],
      [-82.6329985, 40.6905642],
      [-82.6329417, 40.6904524],
      [-82.6324847, 40.6899351],
      [-82.6323545, 40.6897418],
      [-82.6322210, 40.6893967],
      [-82.6322145, 40.6892089],
      [-82.6322726, 40.6890328],
      [-82.6323837, 40.6889053],
      [-82.6325731, 40.6887914],
      [-82.6327886, 40.6887509],
      [-82.6329073, 40.6887630],
      [-82.6330944, 40.6888250],
      [-82.6332559, 40.6889377],
      [-82.6335173, 40.6892786],
      [-82.6335813, 40.6893451],
      [-82.6336940, 40.6894090],
      [-82.6338661, 40.6894336],
      [-82.6352790, 40.6894855]
    ]
  }
}
