{
  "type": "Feature",
  "properties": {"circuito": "road_america", "trazado": "Completo", "fuente": "OpenStreetMap ways 110527567,122090239,122090240,122090243,122090248,122090251,122090252,122090258,122090260,122090263,122090265,122090267,122090268,122090270,122090272,122090275,122090276,122090279,122090282,122090284,122090286,122090289,122090291,122090295,122090297,122090298,122090299 (© OpenStreetMap contributors, ODbL)"},
  "geometry": {
    "type": "LineString",
    "coordinates": [
      [-87.9896282, 43.7978954],
      [-87.9894753, 43.7925465],
      [-87.9895138, 43.7923271],
      [-87.9895916, 43.7921946],
      [-87.9897249, 43.7920546],
      [-87.9899331, 43.7919314],
      [-87.9901869, 43.7918456],
      [-87.9904894, 43.7917988],
      [-87.9930875, 43.7914469],
      [-87.9943597, 43.7913879],
      [-87.9948508, 43.7913846],
      [-87.9951321, 43.7914332],
      [-87.9953622, 43.7915621],
      [-87.9955010, 43.7917387],
      [-87.9955431, 43.7919448],
      [-87.9954522, 43.7927735],
      [-87.9951185, 43.7944462],
      [-87.9949836, 43.7949916],
      [-87.9947072, 43.7958233],
      [-87.9940895, 43.7972694],
      [-87.9932514, 43.7988548],
      [-87.9929610, 43.7995301],
      [-87.9926724, 43.8004455],
      [-87.9924461, 43.8014619],
      [-87.9924239, 43.8016583],
      [-87.9925291, 43.8018148],
      [-87.9926481, 43.8018560],
      [-87.9928406, 43.8018778],
      [-87.9957248, 43.8017890],
      [-87.9959769, 43.8017425],
      [-87.9960681, 43.8016999],
      [-87.9961465, 43.8016249],
      [-87.9962150, 43.8015204],
      [-87.9962214, 43.8013547],
      [-87.9961003, 43.7998492],
      [-87.9961485, 43.7996247],
      [-87.9962397, 43.7994775],
      [-87.9964382, 43.7993149],
      [-87.9998451, 43.7973343],
      [-87.9999892, 43.7971660],
      [-88.0000053, 43.7970731],
      [-87.9999731, 43.7969801],
      [-87.9998551, 43.7968369],
      [-87.9989368, 43.7959414],
      [-87.9987449, 43.7956752],
      [-87.9986805, 43.7954584],
      [-87.9986966, 43.7951138],
      [-87.9987771, 43.7949086],
      [-87.9989005, 43.7947150],
      [-87.9990507, 43.7945562],
      [-87.9992382, 43.7944129],
      [-87.9995998, 43.7942394],
      [-87.9999248, 43.7941651],
      [-88.0003272, 43.7941419],
      [-88.0006758, 43.7941690],
      [-88.0008690, 43.7942154],
      [-88.0010889, 43.7942813],
      [-88.0013679, 43.7944207],
      [-88.0016253, 43.7946491],
      [-88.0017756, 43.7948389],
      [-88.0018614, 43.7950131],
      [-88.0024604, 43.7969734],
      [-88.0027252, 43.7979485],
      [-88.0027530, 43.7983189],
      [-88.0026910, 43.7986077],
      [-88.0023317, 43.7990439],
      [-88.0010671, 43.8002177],
      [-88.0007476, 43.8004775],
      [-87.9998984, 43.8010964],
      [-87.9994920, 43.8015133],
      [-87.9987108, 43.8026074],
      [-87.9983435, 43.8031977],
      [-87.9976836, 43.8048067],
      [-87.9975505, 43.8049210],
      [-87.9973639, 43.8049926],
      [-87.9970837, 43.8049984],
      [-87.9963033, 43.8048402],
      [-87.9957588, 43.8046925],
      [-87.9952303, 43.8044609],
      [-87.9943432, 43.8038720],
      [-87.9941228, 43.8037900],
      [-87.9938025, 43.8037310],
      [-87.9933662, 43.8037491],
      [-87.9916822, 43.8041058],
      [-87.9912777, 43.8041592],
      [-87.9908940, 43.8041902],
      [-87.9904676, 43.8041853],
      [-87.9902302, 43.8041446],
      [-87.9900480, 43.8040721],
      [-87.9898857, 43.8039362],
      [-87.9897951, 43.8037381],
      [-87.9897005, 43.8003990]
    ]
  }
}
