{
  "type": "Feature",
  "properties": {"circuito": "portland", "trazado": "Completo", "fuente": "OpenStreetMap ways 5529392,1315957509,1315957510 (© OpenStreetMap contributors, ODbL)"},
  "geometry": {
    "type": "LineString",
    "coordinates": [
      [-122.6930642, 45.5946322],
      [-122.6981651, 45.5959808],
      [-122.6982798, 45.5960912],
      [-122.6983203, 45.5961684],
      [-122.6981261, 45.5965493],
      [-122.6981658, 45.5966273],
      [-122.6982204, 45.5966571],
      [-122.6984654, 45.5966527],
      [-122.6998466, 45.5964368],
      [-122.7024030, 45.5971360],
      [-122.7027800, 45.5972850],
      [-122.7029700, 45.5974410],
      [-122.7030600, 45.5975890],
      [-122.7031300, 45.5978150],
      [-122.7031390, 45.5979220],
      [-122.7030820, 45.5981310],
      [-122.7029830, 45.5982660],
      [-122.7028690, 45.5983630],
      [-122.7026140, 45.5985260],
      [-122.7024200, 45.5986270],
      [-122.7021020, 45.5987370],
      [-122.7019140, 45.5987520],
      [-122.7016351, 45.5987124],
      [-122.7013390, 45.5985680],
      [-122.7008670, 45.5981330],
      [-122.7007290, 45.5980410],
      [-122.7004950, 45.5979520],
      [-122.7003080, 45.5979270],
      [-122.7001450, 45.5979360],
      [-122.6999900, 45.5979740],
      [-122.6998140, 45.5980600],
      [-122.6996700, 45.5981960],
      [-122.6995920, 45.5983190],
      [-122.6994780, 45.5986470],
      [-122.6994710, 45.5990770],
      [-122.6995230, 45.5996040],
      [-122.6995090, 45.5997190],
      [-122.6994420, 45.5998530],
      [-122.6993630, 45.5999210],
      [-122.6991530, 45.5999720],
      [-122.6990120, 45.5999610],
      [-122.6987710, 45.5999040],
      [-122.6976040, 45.5995660],
      [-122.6972650, 45.5995230],
      [-122.6960130, 45.5994550],
      [-122.6951690, 45.5993030],
      [-122.6946020, 45.5991370],
      [-122.6941790, 45.5989690],
      [-122.6936530, 45.5986980],
      [-122.6933600, 45.5985130],
      [-122.6922650, 45.5977270],
      [-122.6918070, 45.5973540],
      [-122.6902230, 45.5959050],
      [-122.6896440, 45.5954270],
      [-122.6893430, 45.5952920],
      [-122.6887430, 45.5951380],
      [-122.6885030, 45.5950360],
      [-122.6883820, 45.5949560],
      [-122.6881740, 45.5947310],
      [-122.6879010, 45.5943250],
      [-122.6878080, 45.5940750],
      [-122.6878760, 45.5938600],
      [-122.6879480, 45.5937860],
      [-122.6881510, 45.5936800],
      [-122.6883590, 45.5936370],
      [-122.6887040, 45.5936360],
      [-122.6901043, 45.5938297],
      [-122.6904851, 45.5939359]
    ]
  }
}
