{
  "type": "Feature",
  "properties": {"circuito": "texas", "trazado": "Óvalo", "fuente": "OpenStreetMap ways 104503520, 261968502, 261968503, 261968504, 261968505, 489172062, 489172989 (© OpenStreetMap contributors, ODbL)"},
  "geometry": {
    "type": "LineString",
    "coordinates": [
      [-97.2800536, 33.0406230],
      [-97.2805705, 33.0406924],
      [-97.2809070, 33.0406835],
      [-97.2813100, 33.0406241],
      [-97.2818662, 33.0404352],
      [-97.2821312, 33.0402904],
      [-97.2824494, 33.0400518],
      [-97.2826105, 33.0398954],
      [-97.2837531, 33.0385611],
      [-97.2838827, 33.0383608],
      [-97.2845404, 33.0364574],
      [-97.2845999, 33.0362521],
      [-97.2846218, 33.0360014],
      [-97.2844927, 33.0343932],
      [-97.2844513, 33.0341474],
      [-97.2842819, 33.0336854],
      [-97.2840215, 33.0333189],
      [-97.2836962, 33.0330316],
      [-97.2833592, 33.0328195],
      [-97.2829474, 33.0326546],
      [-97.2827158, 33.0325890],
      [-97.2822393, 33.0325256],
      [-97.2817596, 33.0325393],
      [-97.2815794, 33.0325671],
      [-97.2812111, 33.0326669],
      [-97.2808811, 33.0328066],
      [-97.2805649, 33.0329846],
      [-97.2803448, 33.0331629],
      [-97.2801018, 33.0334205],
      [-97.2798343, 33.0338439],
      [-97.2797255, 33.0340940],
      [-97.2784365, 33.0378813],
      [-97.2783347, 33.0383617],
      [-97.2783131, 33.0387246],
      [-97.2783801, 33.0391719],
      [-97.2784213, 33.0392897],
      [-97.2785528, 33.0395818],
      [-97.2787336, 33.0398363],
      [-97.2789697, 33.0400711],
      [-97.2793353, 33.0403343],
      [-97.2796108, 33.0404760],
      [-97.2799016, 33.0405846]
    ]
  }
}
