{
  "type": "Feature",
  "properties": {"circuito": "catalunya", "trazado": "Gran Premio", "fuente": "bacinger/f1-circuits (MIT) es-1991"},
  "geometry": {
    "type": "LineString",
    "coordinates": [
      [2.2612210, 41.5700340],
      [2.2568360, 41.5648030],
      [2.2566500, 41.5646630],
      [2.2565740, 41.5646370],
      [2.2563140, 41.5646300],
      [2.2562220, 41.5646480],
      [2.2557250, 41.5648650],
      [2.2554070, 41.5648940],
      [2.2552040, 41.5648610],
      [2.2550890, 41.5648070],
      [2.2542290, 41.5643260],
      [2.2538190, 41.5642050],
      [2.2536620, 41.5641870],
      [2.2532100, 41.5642090],
      [2.2530490, 41.5642480],
      [2.2528550, 41.5643200],
      [2.2525800, 41.5644910],
      [2.2523600, 41.5647070],
      [2.2522520, 41.5648740],
      [2.2521740, 41.5650600],
      [2.2521390, 41.5655120],
      [2.2522650, 41.5659650],
      [2.2524770, 41.5663650],
      [2.2540890, 41.5682820],
      [2.2541790, 41.5683450],
      [2.2543040, 41.5684000],
      [2.2545370, 41.5684430],
      [2.2548050, 41.5684030],
      [2.2549430, 41.5683450],
      [2.2551990, 41.5681660],
      [2.2553190, 41.5679860],
      [2.2553620, 41.5678500],
      [2.2553740, 41.5676390],
      [2.2553220, 41.5673710],
      [2.2550910, 41.5670170],
      [2.2540060, 41.5657480],
      [2.2539740, 41.5655870],
      [2.2540010, 41.5654970],
      [2.2541060, 41.5653830],
      [2.2541920, 41.5653380],
      [2.2543830, 41.5652990],
      [2.2545200, 41.5653190],
      [2.2562140, 41.5658900],
      [2.2564400, 41.5659950],
      [2.2568910, 41.5662840],
      [2.2570510, 41.5664290],
      [2.2577000, 41.5671910],
      [2.2577700, 41.5673050],
      [2.2578000, 41.5673840],
      [2.2577730, 41.5675090],
      [2.2576900, 41.5676210],
      [2.2575620, 41.5677100],
      [2.2572660, 41.5678410],
      [2.2571050, 41.5679390],
      [2.2568790, 41.5681750],
      [2.2560080, 41.5697230],
      [2.2559710, 41.5698640],
      [2.2559900, 41.5701190],
      [2.2560200, 41.5702260],
      [2.2561810, 41.5704340],
      [2.2564800, 41.5706440],
      [2.2616700, 41.5726360],
      [2.2618520, 41.5727130],
      [2.2619470, 41.5727890],
      [2.2619930, 41.5728620],
      [2.2620050, 41.5729500],
      [2.2619070, 41.5731260],
      [2.2616910, 41.5732630],
      [2.2614840, 41.5733310],
      [2.2611790, 41.5733720],
      [2.2608740, 41.5733700],
      [2.2607070, 41.5733380],
      [2.2603160, 41.5731850],
      [2.2598740, 41.5729210],
      [2.2597220, 41.5728700],
      [2.2594870, 41.5728570],
      [2.2593470, 41.5728800],
      [2.2591800, 41.5729440],
      [2.2590460, 41.5730280],
      [2.2588960, 41.5732360],
      [2.2588690, 41.5734140],
      [2.2589150, 41.5735740],
      [2.2589970, 41.5736880],
      [2.2604840, 41.5746200],
      [2.2607780, 41.5747250],
      [2.2611650, 41.5747520],
      [2.2613410, 41.5747250],
      [2.2614850, 41.5746790],
      [2.2631820, 41.5738660],
      [2.2634240, 41.5737140],
      [2.2635780, 41.5735290],
      [2.2636670, 41.5732740],
      [2.2636690, 41.5730970],
      [2.2636350, 41.5729380],
      [2.2634640, 41.5726850]
    ]
  }
}
