{
  "type": "Feature",
  "properties": {"circuito": "barber", "trazado": "Completo", "fuente": "OpenStreetMap ways 237456804 (© OpenStreetMap contributors, ODbL)"},
  "geometry": {
    "type": "LineString",
    "coordinates": [
      [-86.6207157, 33.5317588],
      [-86.6181696, 33.5338206],
      [-86.6180550, 33.5339420],
      [-86.6180136, 33.5340464],
      [-86.6180161, 33.5341701],
      [-86.6183634, 33.5351382],
      [-86.6183927, 33.5353971],
      [-86.6183124, 33.5356278],
      [-86.6182612, 33.5356890],
      [-86.6181133, 33.5357891],
      [-86.6178109, 33.5358849],
      [-86.6175118, 33.5358648],
      [-86.6172526, 33.5357445],
      [-86.6171685, 33.5356714],
      [-86.6170716, 33.5355351],
      [-86.6170210, 33.5354053],
      [-86.6170135, 33.5352959],
      [-86.6171450, 33.5343819],
      [-86.6171967, 33.5342193],
      [-86.6172664, 33.5340896],
      [-86.6174003, 33.5339484],
      [-86.6201715, 33.5316307],
      [-86.6202362, 33.5315062],
      [-86.6202275, 33.5313854],
      [-86.6201457, 33.5312836],
      [-86.6200089, 33.5312087],
      [-86.6197595, 33.5311774],
      [-86.6196458, 33.5311909],
      [-86.6195092, 33.5312425],
      [-86.6187908, 33.5316206],
      [-86.6184719, 33.5318383],
      [-86.6178844, 33.5324637],
      [-86.6160931, 33.5345916],
      [-86.6160001, 33.5346755],
      [-86.6158709, 33.5347460],
      [-86.6157174, 33.5347771],
      [-86.6153353, 33.5347324],
      [-86.6152332, 33.5347417],
      [-86.6149423, 33.5349012],
      [-86.6148390, 33.5348978],
      [-86.6147597, 33.5348635],
      [-86.6146564, 33.5347535],
      [-86.6145774, 33.5345722],
      [-86.6145955, 33.5344046],
      [-86.6146687, 33.5342271],
      [-86.6147694, 33.5341224],
      [-86.6165356, 33.5326750],
      [-86.6168535, 33.5324378],
      [-86.6169579, 33.5322942],
      [-86.6171336, 33.5318102],
      [-86.6171967, 33.5317118],
      [-86.6173396, 33.5316134],
      [-86.6213050, 33.5301418],
      [-86.6214654, 33.5300081],
      [-86.6218127, 33.5294625],
      [-86.6219444, 33.5293679],
      [-86.6221601, 33.5292937],
      [-86.6223780, 33.5292814],
      [-86.6225493, 33.5293022],
      [-86.6238685, 33.5296521],
      [-86.6240930, 33.5297610],
      [-86.6241923, 33.5298555],
      [-86.6243080, 33.5300745],
      [-86.6243716, 33.5304340],
      [-86.6243421, 33.5307135],
      [-86.6242361, 33.5309695],
      [-86.6240549, 33.5311824],
      [-86.6237632, 33.5313853],
      [-86.6235723, 33.5314245],
      [-86.6234516, 33.5314137],
      [-86.6233376, 33.5313720],
      [-86.6226791, 33.5308088],
      [-86.6225168, 33.5307113],
      [-86.6222699, 33.5306746],
      [-86.6221348, 33.5306980],
      [-86.6219804, 33.5307616],
      [-86.6218088, 33.5308969]
    ]
  }
}
