{
  "type": "Feature",
  "properties": {"circuito": "jarama", "trazado": "Gran Premio", "fuente": "OpenStreetMap ways 15732824, 1558812389 (© OpenStreetMap contributors, ODbL)"},
  "geometry": {
    "type": "LineString",
    "coordinates": [
      [-3.5842705, 40.6173170],
      [-3.5824271, 40.6129808],
      [-3.5822275, 40.6125657],
      [-3.5818730, 40.6119416],
      [-3.5818566, 40.6118105],
      [-3.5818929, 40.6117449],
      [-3.5820367, 40.6116412],
      [-3.5822297, 40.6115994],
      [-3.5824514, 40.6116251],
      [-3.5826015, 40.6116983],
      [-3.5828542, 40.6118994],
      [-3.5833572, 40.6123839],
      [-3.5843961, 40.6132723],
      [-3.5845343, 40.6134719],
      [-3.5845697, 40.6136118],
      [-3.5845617, 40.6137599],
      [-3.5842287, 40.6150951],
      [-3.5842593, 40.6152453],
      [-3.5843704, 40.6153816],
      [-3.5845095, 40.6154717],
      [-3.5846328, 40.6155201],
      [-3.5847752, 40.6155328],
      [-3.5848929, 40.6154983],
      [-3.5849767, 40.6154168],
      [-3.5853950, 40.6146560],
      [-3.5854502, 40.6146111],
      [-3.5855489, 40.6145867],
      [-3.5856382, 40.6145984],
      [-3.5857422, 40.6146436],
      [-3.5857925, 40.6146862],
      [-3.5858251, 40.6147958],
      [-3.5858342, 40.6163661],
      [-3.5859098, 40.6165435],
      [-3.5860748, 40.6167125],
      [-3.5862195, 40.6168026],
      [-3.5863868, 40.6168709],
      [-3.5888627, 40.6177385],
      [-3.5896654, 40.6180377],
      [-3.5898334, 40.6181259],
      [-3.5900077, 40.6182498],
      [-3.5901891, 40.6184303],
      [-3.5905367, 40.6189825],
      [-3.5907800, 40.6192323],
      [-3.5911757, 40.6194951],
      [-3.5913802, 40.6195891],
      [-3.5917450, 40.6197138],
      [-3.5919162, 40.6198365],
      [-3.5919732, 40.6199145],
      [-3.5919993, 40.6200221],
      [-3.5919531, 40.6202368],
      [-3.5918630, 40.6203388],
      [-3.5917514, 40.6204104],
      [-3.5915552, 40.6204711],
      [-3.5913285, 40.6204882],
      [-3.5910217, 40.6204359],
      [-3.5906960, 40.6203431],
      [-3.5902319, 40.6201495],
      [-3.5897816, 40.6198954],
      [-3.5894115, 40.6196127],
      [-3.5880419, 40.6182612],
      [-3.5878013, 40.6181205],
      [-3.5874659, 40.6180258],
      [-3.5863282, 40.6179735],
      [-3.5857341, 40.6178763],
      [-3.5856108, 40.6179052],
      [-3.5854754, 40.6179960],
      [-3.5854217, 40.6181006],
      [-3.5854292, 40.6181794],
      [-3.5855224, 40.6183232],
      [-3.5856640, 40.6184668],
      [-3.5860133, 40.6187324],
      [-3.5882555, 40.6195910],
      [-3.5883586, 40.6197357],
      [-3.5884111, 40.6199999],
      [-3.5883618, 40.6201606],
      [-3.5882382, 40.6202621],
      [-3.5881224, 40.6202983],
      [-3.5879199, 40.6202927],
      [-3.5858123, 40.6200171],
      [-3.5855737, 40.6199187],
      [-3.5853765, 40.6197768],
      [-3.5852411, 40.6196025],
      [-3.5851410, 40.6193709]
    ]
  }
}
