{
  "type": "Feature",
  "properties": {"circuito": "super_ovalo_potosino", "trazado": "Óvalo", "fuente": "OpenStreetMap ways 731117521, 731117519, 731117522, 731117520 (© OpenStreetMap contributors, ODbL); ways con oneway=yes, unidos en su propio sentido (Front Stretch → Turns 1 & 2 → Back Stretch → Turns 3 & 4)"},
  "geometry": {
    "type": "LineString",
    "coordinates": [
      [-100.7244887, 22.0915558],
      [-100.7263496, 22.0910019],
      [-100.7265427, 22.0909396],
      [-100.7267041, 22.0908232],
      [-100.7268166, 22.0906650],
      [-100.7268683, 22.0904816],
      [-100.7268537, 22.0902926],
      [-100.7267745, 22.0901179],
      [-100.7266389, 22.0899761],
      [-100.7264614, 22.0898820],
      [-100.7262564, 22.0898457],
      [-100.7260499, 22.0898735],
      [-100.7252464, 22.0902271],
      [-100.7245592, 22.0905319],
      [-100.7241195, 22.0907262],
      [-100.7239903, 22.0908145],
      [-100.7238993, 22.0909370],
      [-100.7238563, 22.0910804],
      [-100.7238661, 22.0912289],
      [-100.7239276, 22.0913663],
      [-100.7240342, 22.0914777],
      [-100.7241740, 22.0915507],
      [-100.7243309, 22.0915776]
    ]
  }
}
