{
  "type": "Feature",
  "properties": {"circuito": "charlotte", "trazado": "Óvalo", "fuente": "OpenStreetMap ways 116034341, 396483278, 402168709, 402168711, 1052107104 (© OpenStreetMap contributors, ODbL)"},
  "geometry": {
    "type": "LineString",
    "coordinates": [
      [-80.6855926, 35.3522551],
      [-80.6858842, 35.3513873],
      [-80.6859433, 35.3510372],
      [-80.6858038, 35.3493877],
      [-80.6856804, 35.3488233],
      [-80.6854980, 35.3484251],
      [-80.6853532, 35.3482238],
      [-80.6850393, 35.3479351],
      [-80.6845996, 35.3476835],
      [-80.6842134, 35.3475544],
      [-80.6836796, 35.3474866],
      [-80.6832478, 35.3475041],
      [-80.6830198, 35.3475413],
      [-80.6825477, 35.3476878],
      [-80.6821320, 35.3479132],
      [-80.6818316, 35.3481735],
      [-80.6815177, 35.3486351],
      [-80.6812871, 35.3491361],
      [-80.6799621, 35.3533736],
      [-80.6798816, 35.3538658],
      [-80.6798789, 35.3540627],
      [-80.6798923, 35.3542924],
      [-80.6800050, 35.3546993],
      [-80.6801713, 35.3549815],
      [-80.6803993, 35.3552309],
      [-80.6806916, 35.3554606],
      [-80.6810671, 35.3556487],
      [-80.6815365, 35.3557800],
      [-80.6820998, 35.3558193],
      [-80.6825584, 35.3557581],
      [-80.6829152, 35.3556597],
      [-80.6832317, 35.3555153],
      [-80.6834141, 35.3554015],
      [-80.6837332, 35.3551368],
      [-80.6840497, 35.3548062],
      [-80.6851322, 35.3534944],
      [-80.6852566, 35.3532555],
      [-80.6853850, 35.3528733]
    ]
  }
}
