{
  "type": "Feature",
  "properties": {"circuito": "suzuka", "trazado": "Gran Premio", "fuente": "bacinger/f1-circuits (MIT) jp-1962"},
  "geometry": {
    "type": "LineString",
    "coordinates": [
      [136.5402830, 34.8433440],
      [136.5416090, 34.8420340],
      [136.5433020, 34.8403090],
      [136.5434220, 34.8399820],
      [136.5434190, 34.8398300],
      [136.5433960, 34.8397130],
      [136.5432150, 34.8392540],
      [136.5431290, 34.8391340],
      [136.5428990, 34.8389940],
      [136.5427100, 34.8389560],
      [136.5425380, 34.8389610],
      [136.5423490, 34.8390130],
      [136.5421730, 34.8391270],
      [136.5410790, 34.8405020],
      [136.5409060, 34.8406230],
      [136.5405320, 34.8406940],
      [136.5400590, 34.8406970],
      [136.5398210, 34.8407530],
      [136.5396530, 34.8408500],
      [136.5395260, 34.8409770],
      [136.5394660, 34.8411010],
      [136.5392530, 34.8417650],
      [136.5391640, 34.8419350],
      [136.5390220, 34.8420810],
      [136.5388570, 34.8421800],
      [136.5386490, 34.8422600],
      [136.5384360, 34.8422930],
      [136.5378860, 34.8423000],
      [136.5376320, 34.8423400],
      [136.5374580, 34.8424080],
      [136.5372780, 34.8425220],
      [136.5371460, 34.8426810],
      [136.5370650, 34.8428430],
      [136.5370280, 34.8429960],
      [136.5370300, 34.8431420],
      [136.5370640, 34.8432660],
      [136.5373340, 34.8438720],
      [136.5373750, 34.8439950],
      [136.5373820, 34.8441570],
      [136.5372820, 34.8444190],
      [136.5371760, 34.8445510],
      [136.5367260, 34.8447790],
      [136.5361750, 34.8449850],
      [136.5357130, 34.8450660],
      [136.5351660, 34.8450620],
      [136.5349650, 34.8450180],
      [136.5345480, 34.8448720],
      [136.5342810, 34.8447490],
      [136.5339740, 34.8445430],
      [136.5337340, 34.8443340],
      [136.5326730, 34.8432720],
      [136.5325120, 34.8432410],
      [136.5310380, 34.8431320],
      [136.5309430, 34.8431420],
      [136.5308420, 34.8431980],
      [136.5308010, 34.8432930],
      [136.5305590, 34.8441290],
      [136.5302030, 34.8458100],
      [136.5301890, 34.8459420],
      [136.5302370, 34.8462190],
      [136.5306450, 34.8470270],
      [136.5305820, 34.8471480],
      [136.5305050, 34.8471910],
      [136.5304160, 34.8472140],
      [136.5303300, 34.8472090],
      [136.5302320, 34.8471550],
      [136.5293380, 34.8459760],
      [136.5291860, 34.8458310],
      [136.5288300, 34.8455930],
      [136.5285930, 34.8454890],
      [136.5283450, 34.8454280],
      [136.5279130, 34.8453760],
      [136.5275040, 34.8453620],
      [136.5271960, 34.8453810],
      [136.5264270, 34.8455400],
      [136.5256930, 34.8457860],
      [136.5252140, 34.8460500],
      [136.5249710, 34.8462290],
      [136.5247200, 34.8464570],
      [136.5244050, 34.8468740],
      [136.5240370, 34.8476780],
      [136.5238400, 34.8480300],
      [136.5237400, 34.8481710],
      [136.5236040, 34.8482750],
      [136.5234260, 34.8483410],
      [136.5232130, 34.8483740],
      [136.5229580, 34.8483690],
      [136.5224910, 34.8482990],
      [136.5222660, 34.8482230],
      [136.5220820, 34.8481080],
      [136.5219710, 34.8479620],
      [136.5219280, 34.8478190],
      [136.5219410, 34.8476390],
      [136.5220640, 34.8473700],
      [136.5221890, 34.8472570],
      [136.5230470, 34.8466390],
      [136.5234300, 34.8464010],
      [136.5243160, 34.8459260],
      [136.5252650, 34.8455420],
      [136.5257250, 34.8453980],
      [136.5272940, 34.8449230],
      [136.5292760, 34.8443810],
      [136.5308420, 34.8439100],
      [136.5310440, 34.8438680],
      [136.5312450, 34.8438630],
      [136.5316650, 34.8439430],
      [136.5320380, 34.8440610],
      [136.5326690, 34.8443480],
      [136.5329670, 34.8445380],
      [136.5342870, 34.8455500],
      [136.5344990, 34.8456940],
      [136.5348860, 34.8459040],
      [136.5350090, 34.8458840],
      [136.5353050, 34.8456730],
      [136.5354060, 34.8456490],
      [136.5355010, 34.8456640],
      [136.5356130, 34.8457250],
      [136.5360040, 34.8459840],
      [136.5362350, 34.8460640],
      [136.5365170, 34.8460840],
      [136.5367800, 34.8460720],
      [136.5370580, 34.8460250],
      [136.5375720, 34.8458430],
      [136.5378680, 34.8456780],
      [136.5381340, 34.8454750],
      [136.5384070, 34.8452250]
    ]
  }
}
