{
  "type": "Feature",
  "properties": {"circuito": "long_beach", "trazado": "Callejero", "fuente": "OpenStreetMap relation 18052024 'Long Beach Grand Prix Course', ways 13352560,27248456,27248467,125415817,144928364,351202547,375502671,382627473,382627475,397977606,397977607,397980014,397980017,397980021,397980024,397980025,397980026,398028505,398028509,398028511,398028512,398028513,398031742,398031747,398031751,398031755,398031760,398031764,398031769,398031774,398031781,551063704,561149109,561149111,561149112,561149114,561149115,607819368,607819369,659566229,967780507,983179937,1054964326,1054964329,1315971767,1315971769,1315971771,1315971772 (© OpenStreetMap contributors, ODbL)"},
  "geometry": {
    "type": "LineString",
    "coordinates": [
      [-118.1872307, 33.7622661],
      [-118.1875966, 33.7620855],
      [-118.1878269, 33.7619970],
      [-118.1881449, 33.7619072],
      [-118.1885271, 33.7618320],
      [-118.1892099, 33.7617731],
      [-118.1897111, 33.7618016],
      [-118.1901145, 33.7618730],
      [-118.1909900, 33.7621656],
      [-118.1928494, 33.7629313],
      [-118.1945839, 33.7637299],
      [-118.1947461, 33.7634934],
      [-118.1949626, 33.7632740],
      [-118.1952652, 33.7631320],
      [-118.1954615, 33.7630763],
      [-118.1958276, 33.7630448],
      [-118.1958254, 33.7629817],
      [-118.1958956, 33.7628718],
      [-118.1959598, 33.7628380],
      [-118.1961094, 33.7628323],
      [-118.1961771, 33.7628610],
      [-118.1962593, 33.7629649],
      [-118.1962430, 33.7630887],
      [-118.1966383, 33.7632826],
      [-118.1967294, 33.7633719],
      [-118.1972369, 33.7636449],
      [-118.1972835, 33.7636964],
      [-118.1973238, 33.7638415],
      [-118.1971431, 33.7642359],
      [-118.1969834, 33.7644904],
      [-118.1965888, 33.7649585],
      [-118.1959044, 33.7645759],
      [-118.1943278, 33.7638046],
      [-118.1932885, 33.7633187],
      [-118.1926476, 33.7630503],
      [-118.1924271, 33.7634315],
      [-118.1923552, 33.7637025],
      [-118.1923875, 33.7638273],
      [-118.1923575, 33.7658397],
      [-118.1909878, 33.7658417],
      [-118.1900580, 33.7658801],
      [-118.1889496, 33.7658822],
      [-118.1858883, 33.7656636],
      [-118.1856899, 33.7655726],
      [-118.1855987, 33.7654787],
      [-118.1855446, 33.7653593],
      [-118.1855300, 33.7652255],
      [-118.1855629, 33.7648781],
      [-118.1855572, 33.7646411],
      [-118.1855207, 33.7644711],
      [-118.1854117, 33.7642946],
      [-118.1853116, 33.7642131],
      [-118.1852062, 33.7641648],
      [-118.1850594, 33.7641186],
      [-118.1848115, 33.7640947],
      [-118.1845559, 33.7641236],
      [-118.1843852, 33.7641875],
      [-118.1842557, 33.7643197],
      [-118.1842126, 33.7643375],
      [-118.1841146, 33.7643010],
      [-118.1840972, 33.7642638],
      [-118.1841098, 33.7642170],
      [-118.1844602, 33.7639107],
      [-118.1847158, 33.7637282],
      [-118.1855508, 33.7632420]
    ]
  }
}
