{
  "type": "Feature",
  "properties": {"circuito": "bristol", "trazado": "Óvalo", "fuente": "OpenStreetMap ways 116606212 (© OpenStreetMap contributors, ODbL)"},
  "geometry": {
    "type": "LineString",
    "coordinates": [
      [-82.2562164, 36.5142932],
      [-82.2559445, 36.5144103],
      [-82.2557721, 36.5145513],
      [-82.2556539, 36.5147265],
      [-82.2556083, 36.5149005],
      [-82.2556084, 36.5150779],
      [-82.2556682, 36.5152662],
      [-82.2557566, 36.5154191],
      [-82.2565855, 36.5165657],
      [-82.2567357, 36.5167440],
      [-82.2568806, 36.5168699],
      [-82.2571646, 36.5169781],
      [-82.2573778, 36.5170123],
      [-82.2576114, 36.5170105],
      [-82.2578440, 36.5169444],
      [-82.2581106, 36.5167804],
      [-82.2582783, 36.5165554],
      [-82.2583311, 36.5162866],
      [-82.2583033, 36.5161336],
      [-82.2582387, 36.5159788],
      [-82.2573674, 36.5146382],
      [-82.2572273, 36.5144801],
      [-82.2570221, 36.5143480],
      [-82.2567566, 36.5142630],
      [-82.2566260, 36.5142430],
      [-82.2563577, 36.5142558]
    ]
  }
}
