{
  "type": "Feature",
  "properties": {"circuito": "atlanta", "trazado": "Óvalo", "fuente": "OpenStreetMap ways 288853230 (© OpenStreetMap contributors, ODbL)"},
  "geometry": {
    "type": "LineString",
    "coordinates": [
      [-84.3182609, 33.3861627],
      [-84.3184443, 33.3861885],
      [-84.3188777, 33.3861995],
      [-84.3207300, 33.3861371],
      [-84.3210724, 33.3860650],
      [-84.3213695, 33.3859729],
      [-84.3216387, 33.3858652],
      [-84.3220585, 33.3856060],
      [-84.3223648, 33.3853163],
      [-84.3225825, 33.3850058],
      [-84.3227265, 33.3846736],
      [-84.3228011, 33.3842778],
      [-84.3227738, 33.3838824],
      [-84.3226888, 33.3835879],
      [-84.3225428, 33.3833076],
      [-84.3223217, 33.3830087],
      [-84.3221285, 33.3828131],
      [-84.3217731, 33.3825559],
      [-84.3213658, 33.3823332],
      [-84.3208300, 33.3821210],
      [-84.3203252, 33.3819520],
      [-84.3171523, 33.3810087],
      [-84.3164529, 33.3808277],
      [-84.3156808, 33.3807082],
      [-84.3153363, 33.3806940],
      [-84.3150478, 33.3807132],
      [-84.3144754, 33.3808237],
      [-84.3142278, 33.3809140],
      [-84.3138917, 33.3810752],
      [-84.3136138, 33.3812669],
      [-84.3133080, 33.3815827],
      [-84.3130934, 33.3819321],
      [-84.3129781, 33.3822949],
      [-84.3129406, 33.3827137],
      [-84.3130258, 33.3831851],
      [-84.3132059, 33.3835493],
      [-84.3133899, 33.3837964],
      [-84.3138654, 33.3842787],
      [-84.3152293, 33.3852157],
      [-84.3153785, 33.3852969],
      [-84.3155555, 33.3853734],
      [-84.3162464, 33.3855836],
      [-84.3181239, 33.3861308]
    ]
  }
}
