{
  "type": "Feature",
  "properties": {"circuito": "miami", "trazado": "Fórmula E", "fuente": "OpenStreetMap ways 1233165737+1485453197+1485453200+1485453201+1485453202+1485453204+1485454063 (© OpenStreetMap contributors, ODbL)"},
  "geometry": {
    "type": "LineString",
    "coordinates": [
      [-80.2372792, 25.9590321],
      [-80.2353897, 25.9579970],
      [-80.2352997, 25.9579094],
      [-80.2352865, 25.9578011],
      [-80.2353227, 25.9577206],
      [-80.2357460, 25.9574058],
      [-80.2359148, 25.9572399],
      [-80.2359685, 25.9570459],
      [-80.2359167, 25.9567324],
      [-80.2359270, 25.9565972],
      [-80.2360440, 25.9563085],
      [-80.2362135, 25.9561377],
      [-80.2363893, 25.9560263],
      [-80.2367868, 25.9558612],
      [-80.2371343, 25.9557843],
      [-80.2372060, 25.9557278],
      [-80.2372583, 25.9556446],
      [-80.2372811, 25.9555397],
      [-80.2372570, 25.9554203],
      [-80.2371819, 25.9553347],
      [-80.2370563, 25.9552733],
      [-80.2365586, 25.9552304],
      [-80.2362599, 25.9552324],
      [-80.2355503, 25.9553028],
      [-80.2350011, 25.9554472],
      [-80.2349567, 25.9555059],
      [-80.2349391, 25.9555935],
      [-80.2349576, 25.9557976],
      [-80.2349114, 25.9559183],
      [-80.2344522, 25.9561195],
      [-80.2343301, 25.9562281],
      [-80.2342996, 25.9562937],
      [-80.2342783, 25.9564163],
      [-80.2342887, 25.9569824],
      [-80.2342504, 25.9578524],
      [-80.2340986, 25.9583009],
      [-80.2340788, 25.9584641],
      [-80.2341005, 25.9595457],
      [-80.2341491, 25.9597820],
      [-80.2342143, 25.9598596],
      [-80.2344467, 25.9599554],
      [-80.2355103, 25.9602849],
      [-80.2397843, 25.9604656],
      [-80.2398672, 25.9603857],
      [-80.2398726, 25.9603278],
      [-80.2398086, 25.9602355],
      [-80.2396097, 25.9602062],
      [-80.2392589, 25.9601072],
      [-80.2374764, 25.9591392]
    ]
  }
}
