{
  "type": "Feature",
  "properties": {"circuito": "miami", "trazado": "Gran Premio", "fuente": "bacinger/f1-circuits (MIT) us-2022"},
  "geometry": {
    "type": "LineString",
    "coordinates": [
      [-80.2373710, 25.9590920],
      [-80.2353190, 25.9579400],
      [-80.2352840, 25.9578550],
      [-80.2352990, 25.9577760],
      [-80.2353600, 25.9576710],
      [-80.2357970, 25.9573790],
      [-80.2359330, 25.9572470],
      [-80.2359780, 25.9570090],
      [-80.2359330, 25.9567570],
      [-80.2359760, 25.9564460],
      [-80.2360810, 25.9562470],
      [-80.2364770, 25.9559620],
      [-80.2369280, 25.9558220],
      [-80.2372210, 25.9557630],
      [-80.2376530, 25.9557540],
      [-80.2379920, 25.9558090],
      [-80.2383890, 25.9559690],
      [-80.2406920, 25.9572120],
      [-80.2410100, 25.9572470],
      [-80.2411800, 25.9572270],
      [-80.2413960, 25.9571660],
      [-80.2415780, 25.9570740],
      [-80.2419580, 25.9568230],
      [-80.2422120, 25.9567850],
      [-80.2424410, 25.9568040],
      [-80.2426870, 25.9569110],
      [-80.2431280, 25.9572840],
      [-80.2433640, 25.9573890],
      [-80.2436070, 25.9574330],
      [-80.2439000, 25.9573870],
      [-80.2441690, 25.9573110],
      [-80.2443950, 25.9572150],
      [-80.2445620, 25.9570760],
      [-80.2447210, 25.9568520],
      [-80.2447830, 25.9566140],
      [-80.2447760, 25.9564150],
      [-80.2447270, 25.9562810],
      [-80.2446460, 25.9561890],
      [-80.2444810, 25.9561080],
      [-80.2442820, 25.9561080],
      [-80.2440360, 25.9561570],
      [-80.2437610, 25.9561560],
      [-80.2421560, 25.9558590],
      [-80.2394450, 25.9559480],
      [-80.2373750, 25.9553230],
      [-80.2367450, 25.9552280],
      [-80.2361120, 25.9552210],
      [-80.2354470, 25.9553190],
      [-80.2326480, 25.9562420],
      [-80.2322600, 25.9563970],
      [-80.2312680, 25.9568710],
      [-80.2307340, 25.9571780],
      [-80.2306270, 25.9573080],
      [-80.2306620, 25.9574160],
      [-80.2307590, 25.9575000],
      [-80.2311750, 25.9577480],
      [-80.2312680, 25.9579160],
      [-80.2312880, 25.9580910],
      [-80.2312330, 25.9583040],
      [-80.2311010, 25.9584230],
      [-80.2309460, 25.9584790],
      [-80.2304870, 25.9584540],
      [-80.2302580, 25.9584820],
      [-80.2301570, 25.9585410],
      [-80.2300030, 25.9586760],
      [-80.2297640, 25.9590600],
      [-80.2297800, 25.9591440],
      [-80.2298960, 25.9591860],
      [-80.2300010, 25.9592560],
      [-80.2300050, 25.9593990],
      [-80.2298150, 25.9599500],
      [-80.2298300, 25.9600440],
      [-80.2299160, 25.9601070],
      [-80.2303940, 25.9601460],
      [-80.2372970, 25.9603660],
      [-80.2428010, 25.9605900],
      [-80.2429620, 25.9605520],
      [-80.2429960, 25.9604380],
      [-80.2429410, 25.9602960],
      [-80.2424530, 25.9599410],
      [-80.2421340, 25.9597870],
      [-80.2418740, 25.9597280],
      [-80.2416450, 25.9597450],
      [-80.2413650, 25.9598360],
      [-80.2407120, 25.9601120],
      [-80.2403460, 25.9602000],
      [-80.2398960, 25.9602350],
      [-80.2394520, 25.9601790],
      [-80.2390330, 25.9600220]
    ]
  }
}
