{
  "type": "Feature",
  "properties": {"circuito": "super_ovalo_chiapas", "trazado": "Óvalo", "fuente": "OpenStreetMap way 677361297 (© OpenStreetMap contributors, ODbL); way cerrado con oneway=yes, en su propio sentido (antihorario); arranca frente a la mitad de pits (way 677361298)"},
  "geometry": {
    "type": "LineString",
    "coordinates": [
      [-93.2518075, 16.7780737],
      [-93.2516301, 16.7778680],
      [-93.2513452, 16.7776176],
      [-93.2510043, 16.7774164],
      [-93.2506587, 16.7772644],
      [-93.2503272, 16.7771750],
      [-93.2500470, 16.7771258],
      [-93.2499911, 16.7771225],
      [-93.2497387, 16.7771079],
      [-93.2494819, 16.7771258],
      [-93.2492344, 16.7771884],
      [-93.2490943, 16.7772867],
      [-93.2490009, 16.7773628],
      [-93.2488981, 16.7774611],
      [-93.2488187, 16.7775505],
      [-93.2487347, 16.7776668],
      [-93.2486786, 16.7777965],
      [-93.2486506, 16.7779708],
      [-93.2486366, 16.7781139],
      [-93.2486413, 16.7782480],
      [-93.2486740, 16.7783867],
      [-93.2487300, 16.7785610],
      [-93.2488374, 16.7787220],
      [-93.2489775, 16.7788606],
      [-93.2494769, 16.7793214],
      [-93.2501074, 16.7799031],
      [-93.2506494, 16.7804032],
      [-93.2508315, 16.7805373],
      [-93.2509669, 16.7806133],
      [-93.2510930, 16.7806669],
      [-93.2512331, 16.7806982],
      [-93.2513919, 16.7807206],
      [-93.2514947, 16.7807072],
      [-93.2516721, 16.7806669],
      [-93.2518122, 16.7805999],
      [-93.2519570, 16.7805328],
      [-93.2520924, 16.7804389],
      [-93.2521858, 16.7803495],
      [-93.2522839, 16.7802198],
      [-93.2523399, 16.7800902],
      [-93.2523866, 16.7799203],
      [-93.2524146, 16.7797593],
      [-93.2524333, 16.7795805],
      [-93.2524146, 16.7793390],
      [-93.2523399, 16.7789813],
      [-93.2521905, 16.7786639],
      [-93.2520597, 16.7784358]
    ]
  }
}
