{
  "type": "Feature",
  "properties": {"circuito": "kansas", "trazado": "Óvalo", "fuente": "OpenStreetMap ways 37552701 (© OpenStreetMap contributors, ODbL)"},
  "geometry": {
    "type": "LineString",
    "coordinates": [
      [-94.8338407, 39.1165711],
      [-94.8339918, 39.1160892],
      [-94.8340731, 39.1155798],
      [-94.8340837, 39.1153415],
      [-94.8340395, 39.1148060],
      [-94.8336311, 39.1131449],
      [-94.8334534, 39.1127619],
      [-94.8331701, 39.1123766],
      [-94.8329641, 39.1121900],
      [-94.8324887, 39.1118800],
      [-94.8319797, 39.1116742],
      [-94.8314472, 39.1115571],
      [-94.8311810, 39.1115290],
      [-94.8308702, 39.1115264],
      [-94.8305429, 39.1115564],
      [-94.8299018, 39.1117079],
      [-94.8296188, 39.1118210],
      [-94.8293533, 39.1119576],
      [-94.8288873, 39.1123009],
      [-94.8286876, 39.1125199],
      [-94.8285350, 39.1127356],
      [-94.8282328, 39.1132893],
      [-94.8274798, 39.1151304],
      [-94.8268070, 39.1169388],
      [-94.8266932, 39.1174069],
      [-94.8266594, 39.1178337],
      [-94.8266792, 39.1180198],
      [-94.8267726, 39.1183811],
      [-94.8268561, 39.1185562],
      [-94.8269749, 39.1187575],
      [-94.8272369, 39.1190781],
      [-94.8276241, 39.1193918],
      [-94.8278681, 39.1195293],
      [-94.8281201, 39.1196504],
      [-94.8286455, 39.1198134],
      [-94.8291826, 39.1198811],
      [-94.8294662, 39.1198827],
      [-94.8299587, 39.1198328],
      [-94.8304101, 39.1197235],
      [-94.8309096, 39.1195131],
      [-94.8311891, 39.1193395],
      [-94.8327492, 39.1181159],
      [-94.8330027, 39.1178690],
      [-94.8333172, 39.1175024],
      [-94.8336088, 39.1170644],
      [-94.8337410, 39.1168100]
    ]
  }
}
