{
  "type": "Feature",
  "properties": {"circuito": "madring", "trazado": "Gran Premio", "fuente": "bacinger/f1-circuits (MIT) es-2026"},
  "geometry": {
    "type": "LineString",
    "coordinates": [
      [-3.6168870, 40.4651780],
      [-3.6190970, 40.4648820],
      [-3.6192290, 40.4648210],
      [-3.6192500, 40.4644380],
      [-3.6193160, 40.4643770],
      [-3.6200880, 40.4642780],
      [-3.6204520, 40.4642940],
      [-3.6209040, 40.4644380],
      [-3.6212250, 40.4646710],
      [-3.6238400, 40.4678270],
      [-3.6242840, 40.4685500],
      [-3.6245540, 40.4692760],
      [-3.6246410, 40.4698640],
      [-3.6246120, 40.4703070],
      [-3.6245320, 40.4707840],
      [-3.6243130, 40.4712330],
      [-3.6240070, 40.4716040],
      [-3.6240070, 40.4716810],
      [-3.6242330, 40.4718140],
      [-3.6242180, 40.4719090],
      [-3.6241310, 40.4720030],
      [-3.6240800, 40.4721140],
      [-3.6241090, 40.4723350],
      [-3.6242620, 40.4727400],
      [-3.6243930, 40.4730170],
      [-3.6247430, 40.4734100],
      [-3.6248300, 40.4736040],
      [-3.6250560, 40.4743030],
      [-3.6251800, 40.4745630],
      [-3.6253330, 40.4746900],
      [-3.6253400, 40.4747790],
      [-3.6249760, 40.4749920],
      [-3.6248520, 40.4751480],
      [-3.6248520, 40.4753030],
      [-3.6249320, 40.4754910],
      [-3.6252970, 40.4760010],
      [-3.6253260, 40.4761420],
      [-3.6253400, 40.4771060],
      [-3.6253040, 40.4774830],
      [-3.6251580, 40.4776410],
      [-3.6244810, 40.4780510],
      [-3.6243420, 40.4782620],
      [-3.6243500, 40.4785170],
      [-3.6243930, 40.4786690],
      [-3.6248300, 40.4794720],
      [-3.6248740, 40.4797380],
      [-3.6248450, 40.4800100],
      [-3.6246920, 40.4802540],
      [-3.6244590, 40.4804640],
      [-3.6241090, 40.4805970],
      [-3.6237300, 40.4806410],
      [-3.6233220, 40.4806250],
      [-3.6229220, 40.4804700],
      [-3.6225360, 40.4802090],
      [-3.6223030, 40.4799100],
      [-3.6222370, 40.4795610],
      [-3.6222660, 40.4792450],
      [-3.6224260, 40.4789130],
      [-3.6227910, 40.4784390],
      [-3.6239930, 40.4772980],
      [-3.6245900, 40.4765990],
      [-3.6246410, 40.4764770],
      [-3.6245970, 40.4763060],
      [-3.6243420, 40.4761230],
      [-3.6234830, 40.4756660],
      [-3.6231330, 40.4754330],
      [-3.6229800, 40.4752390],
      [-3.6229070, 40.4750400],
      [-3.6229070, 40.4740500],
      [-3.6228640, 40.4738560],
      [-3.6227250, 40.4736290],
      [-3.6225210, 40.4733940],
      [-3.6223030, 40.4732110],
      [-3.6220040, 40.4730720],
      [-3.6216540, 40.4729840],
      [-3.6200440, 40.4729840],
      [-3.6194840, 40.4732000],
      [-3.6193450, 40.4732280],
      [-3.6192210, 40.4731440],
      [-3.6187840, 40.4726460],
      [-3.6182380, 40.4719170],
      [-3.6181290, 40.4717340],
      [-3.6179900, 40.4715790],
      [-3.6177350, 40.4714570],
      [-3.6174880, 40.4714240],
      [-3.6165410, 40.4715180],
      [-3.6160890, 40.4715120],
      [-3.6156300, 40.4713910],
      [-3.6153240, 40.4711610],
      [-3.6151780, 40.4709500],
      [-3.6146030, 40.4684450],
      [-3.6145370, 40.4683120],
      [-3.6143480, 40.4682950],
      [-3.6140710, 40.4684510],
      [-3.6139040, 40.4684840],
      [-3.6127820, 40.4685890],
      [-3.6126800, 40.4685060],
      [-3.6124610, 40.4679460],
      [-3.6122280, 40.4672120],
      [-3.6120100, 40.4662370],
      [-3.6119880, 40.4659820],
      [-3.6121700, 40.4658210],
      [-3.6124540, 40.4657710]
    ]
  }
}
