{
  "type": "Feature",
  "properties": {"circuito": "las_vegas_speedway", "trazado": "Óvalo", "fuente": "OpenStreetMap ways 27545411, 1548033195, 1548033196 (© OpenStreetMap contributors, ODbL)"},
  "geometry": {
    "type": "LineString",
    "coordinates": [
      [-115.0126275, 36.2744962],
      [-115.0130408, 36.2741895],
      [-115.0133538, 36.2739065],
      [-115.0136349, 36.2736025],
      [-115.0139916, 36.2731121],
      [-115.0147975, 36.2715074],
      [-115.0149133, 36.2711023],
      [-115.0149291, 36.2706868],
      [-115.0148441, 36.2702768],
      [-115.0146616, 36.2698881],
      [-115.0143886, 36.2695354],
      [-115.0140403, 36.2692358],
      [-115.0136270, 36.2689958],
      [-115.0131642, 36.2688245],
      [-115.0126690, 36.2687283],
      [-115.0121602, 36.2687107],
      [-115.0116567, 36.2687725],
      [-115.0113333, 36.2688567],
      [-115.0110261, 36.2689738],
      [-115.0107401, 36.2691218],
      [-115.0066705, 36.2718368],
      [-115.0064331, 36.2720309],
      [-115.0061557, 36.2723049],
      [-115.0058645, 36.2726908],
      [-115.0057383, 36.2729467],
      [-115.0056546, 36.2732135],
      [-115.0056146, 36.2734869],
      [-115.0056191, 36.2737622],
      [-115.0057088, 36.2741684],
      [-115.0058225, 36.2744279],
      [-115.0059772, 36.2746734],
      [-115.0062771, 36.2750035],
      [-115.0065187, 36.2751949],
      [-115.0069333, 36.2754310],
      [-115.0073966, 36.2755981],
      [-115.0078913, 36.2756900],
      [-115.0082293, 36.2757077],
      [-115.0087345, 36.2756681],
      [-115.0103331, 36.2753956],
      [-115.0108035, 36.2752960],
      [-115.0112608, 36.2751624],
      [-115.0117011, 36.2749958],
      [-115.0121208, 36.2747977],
      [-115.0125164, 36.2745696]
    ]
  }
}
